schoolName,schoolId,yearId,Url,Url1,Url2,state,district,latitude,longitude
"JAWAHAR NAVODAYA VIDYALAYA BIDAR, BASAVAKALYAN",5581061,12,https://kys.udiseplus.gov.in/#/reportcard/5581061/12,https://kys.udiseplus.gov.in/#/reportcard/5581061/12,https://kys.udiseplus.gov.in/api/school/report-card?schoolId=5581061&yearId=10,KARNATAKA,BIDAR,18.0207297,77.2487204
"JAWAHAR NAVODAYA VIDYALAYA KALABURAGI, KALABURAGI SOUTH",5528347,12,https://kys.udiseplus.gov.in/#/reportcard/5528347/12,https://kys.udiseplus.gov.in/#/reportcard/5528347/12,https://kys.udiseplus.gov.in/api/school/report-card?schoolId=5528347&yearId=10,KARNATAKA,KALBURGI,17.3310003,76.8334228
"JAWAHAR NAVODAYA VIDYALAYA PALGHAR, PALGHAR ",4553212,12,https://kys.udiseplus.gov.in/#/reportcard/4553212/12,https://kys.udiseplus.gov.in/#/reportcard/4553212/12,https://kys.udiseplus.gov.in/api/school/report-card?schoolId=4553212&yearId=10,MAHARASHTRA,PALGHAR,19.7572490,73.0931199
"JAWAHAR NAVODAYA VIDYALAYA SANGLI, PALUS",4580312,12,https://kys.udiseplus.gov.in/#/reportcard/4580312/12,https://kys.udiseplus.gov.in/#/reportcard/4580312/12,https://kys.udiseplus.gov.in/api/school/report-card?schoolId=4580312&yearId=10,MAHARASHTRA,SANGLI,17.1726928,74.5867654
"JAWAHAR NAVODAYA VIDYALAYA KOLHAPUR, KAGAL",4567689,12,https://kys.udiseplus.gov.in/#/reportcard/4567689/12,https://kys.udiseplus.gov.in/#/reportcard/4567689/12,https://kys.udiseplus.gov.in/api/school/report-card?schoolId=4567689&yearId=10,MAHARASHTRA,KOLHAPUR,16.7028412,74.2405329
"JAWAHAR NAVODAYA VIDYALAYA RATNAGIRI, RAJAPUR",4586196,12,https://kys.udiseplus.gov.in/#/reportcard/4586196/12,https://kys.udiseplus.gov.in/#/reportcard/4586196/12,https://kys.udiseplus.gov.in/api/school/report-card?schoolId=4586196&yearId=10,MAHARASHTRA,RATNAGIRI,17.2826079,73.4569787
"JAWAHAR NAVODAYA VIDYALAYA SOLAPUR, MOHOL",4554512,12,https://kys.udiseplus.gov.in/#/reportcard/4554512/12,https://kys.udiseplus.gov.in/#/reportcard/4554512/12,https://kys.udiseplus.gov.in/api/school/report-card?schoolId=4554512&yearId=10,MAHARASHTRA,SOLAPUR,17.8499067,75.2763203
"JAWAHAR NAVODAYA VIDYALAYA KOPPAL, YELBURGA",5511242,12,https://kys.udiseplus.gov.in/#/reportcard/5511242/12,https://kys.udiseplus.gov.in/#/reportcard/5511242/12,https://kys.udiseplus.gov.in/api/school/report-card?schoolId=5511242&yearId=10,KARNATAKA,KOPPAL,15.5748238,76.3118494
"JAWAHAR NAVODAYA VIDYALAYA RAICHUR, LINGASUGUR",5508034,12,https://kys.udiseplus.gov.in/#/reportcard/5508034/12,https://kys.udiseplus.gov.in/#/reportcard/5508034/12,https://kys.udiseplus.gov.in/api/school/report-card?schoolId=5508034&yearId=10,KARNATAKA,RAICHUR,16.0547194,76.9003647
"JAWAHAR NAVODAYA VIDYALAYA SATARA, SATARA",4588741,12,https://kys.udiseplus.gov.in/#/reportcard/4588741/12,https://kys.udiseplus.gov.in/#/reportcard/4588741/12,https://kys.udiseplus.gov.in/api/school/report-card?schoolId=4588741&yearId=10,MAHARASHTRA,SATARA,17.6361288,74.2982781
"JAWAHAR NAVODAYA VIDYALAYA SINDHUDURG, SAWANTWADI",4598639,12,https://kys.udiseplus.gov.in/#/reportcard/4598639/12,https://kys.udiseplus.gov.in/#/reportcard/4598639/12,https://kys.udiseplus.gov.in/api/school/report-card?schoolId=4598639&yearId=10,MAHARASHTRA,SINDHUDURG,16.1357193,73.6522086
"JAWAHAR NAVODAYA VIDYALAYA DANG, AHWA",4232453,12,https://kys.udiseplus.gov.in/#/reportcard/4232453/12,https://kys.udiseplus.gov.in/#/reportcard/4232453/12,https://kys.udiseplus.gov.in/api/school/report-card?schoolId=4232453&yearId=10,GUJARAT,THE DANGS,20.7500000,73.7500000
"JAWAHAR NAVODAYA VIDYALAYA NASHIK, DINDORI",4534209,12,https://kys.udiseplus.gov.in/#/reportcard/4534209/12,https://kys.udiseplus.gov.in/#/reportcard/4534209/12,https://kys.udiseplus.gov.in/api/school/report-card?schoolId=4534209&yearId=10,MAHARASHTRA,NASHIK,20.0112475,73.7902364
"JAWAHAR NAVODAYA VIDYALAYA PARBHANI, PARBHANI",4529371,12,https://kys.udiseplus.gov.in/#/reportcard/4529371/12,https://kys.udiseplus.gov.in/#/reportcard/4529371/12,https://kys.udiseplus.gov.in/api/school/report-card?schoolId=4529371&yearId=10,MAHARASHTRA,PARBHANI,19.2901981,76.6026443
"JAWAHAR NAVODAYA VIDYALAYA SURAT, MANGROL",4255823,12,https://kys.udiseplus.gov.in/#/reportcard/4255823/12,https://kys.udiseplus.gov.in/#/reportcard/4255823/12,https://kys.udiseplus.gov.in/api/school/report-card?schoolId=4255823&yearId=10,GUJARAT,SURAT,21.2094892,72.8317058
"JAWAHAR NAVODAYA VIDYALAYA BHARUCH, VALIA",4218417,12,https://kys.udiseplus.gov.in/#/reportcard/4218417/12,https://kys.udiseplus.gov.in/#/reportcard/4218417/12,https://kys.udiseplus.gov.in/api/school/report-card?schoolId=4218417&yearId=10,GUJARAT,BHARUCH,21.7080427,72.9956936
"JAWAHAR NAVODAYA VIDYALAYA VADODARA, PADRA",4216374,12,https://kys.udiseplus.gov.in/#/reportcard/4216374/12,https://kys.udiseplus.gov.in/#/reportcard/4216374/12,https://kys.udiseplus.gov.in/api/school/report-card?schoolId=4216374&yearId=10,GUJARAT,VADODARA,22.2973142,73.1942567
"JAWAHAR NAVODAYA VIDYALAYA DAHOD II, LIMKHEDA",4205646,12,https://kys.udiseplus.gov.in/#/reportcard/4205646/12,https://kys.udiseplus.gov.in/#/reportcard/4205646/12,https://kys.udiseplus.gov.in/api/school/report-card?schoolId=4205646&yearId=10,GUJARAT,DOHAD,,
"JAWAHAR NAVODAYA VIDYALAYA DAHOD I, DAHOD",4241461,12,https://kys.udiseplus.gov.in/#/reportcard/4241461/12,https://kys.udiseplus.gov.in/#/reportcard/4241461/12,https://kys.udiseplus.gov.in/api/school/report-card?schoolId=4241461&yearId=10,GUJARAT,DOHAD,,
"JAWAHAR NAVODAYA VIDYALAYA DHARWAD, DHARWAD",5508595,12,https://kys.udiseplus.gov.in/#/reportcard/5508595/12,https://kys.udiseplus.gov.in/#/reportcard/5508595/12,https://kys.udiseplus.gov.in/api/school/report-card?schoolId=5508595&yearId=10,KARNATAKA,DHARWAD,15.3707296,75.1332867
JNV PU COLLEGE KORLAHALLI (PUC),5508280,11,https://kys.udiseplus.gov.in/#/reportcard/5508280/11,https://kys.udiseplus.gov.in/#/reportcard/5508280/11,https://kys.udiseplus.gov.in/api/school/report-card?schoolId=5508280&yearId=10,,,33.0052705,-79.9870330
"JAWAHAR NAVODAYA VIDYALAYA GADAG, MUNDARAGI",5506451,12,https://kys.udiseplus.gov.in/#/reportcard/5506451/12,https://kys.udiseplus.gov.in/#/reportcard/5506451/12,https://kys.udiseplus.gov.in/api/school/report-card?schoolId=5506451&yearId=10,KARNATAKA,GADAG,15.4166920,75.6815801
"JAWAHAR NAVODAYA VIDYALAYA KURNOOL, YEMMIGANUR",4650564,12,https://kys.udiseplus.gov.in/#/reportcard/4650564/12,https://kys.udiseplus.gov.in/#/reportcard/4650564/12,https://kys.udiseplus.gov.in/api/school/report-card?schoolId=4650564&yearId=10,ANDHRA PRADESH,KURNOOL,15.8309251,78.0425373
"JAWAHAR NAVODAYA VIDYALAYA PRAKASAM, ONGOLE",4650550,12,https://kys.udiseplus.gov.in/#/reportcard/4650550/12,https://kys.udiseplus.gov.in/#/reportcard/4650550/12,https://kys.udiseplus.gov.in/api/school/report-card?schoolId=4650550&yearId=10,ANDHRA PRADESH,PRAKASAM,15.6642643,79.4733001
"JAWAHAR NAVODAYA VIDYALAYA PALNADU (GUNTUR), CHILAKALURIPET",4650547,12,https://kys.udiseplus.gov.in/#/reportcard/4650547/12,https://kys.udiseplus.gov.in/#/reportcard/4650547/12,https://kys.udiseplus.gov.in/api/school/report-card?schoolId=4650547&yearId=10,ANDHRA PRADESH,PALNADU,16.3231038,79.6975049
"JAWAHAR NAVODAYA VIDYALAYA PANCHMAHAL, KALOL",4241026,12,https://kys.udiseplus.gov.in/#/reportcard/4241026/12,https://kys.udiseplus.gov.in/#/reportcard/4241026/12,https://kys.udiseplus.gov.in/api/school/report-card?schoolId=4241026&yearId=10,GUJARAT,PANCH MAHALS,23.0000000,74.0000000
"JAWAHAR NAVODAYA VIDYALAYA SURENDRANAGAR, DHRANGADHRA ",4211120,12,https://kys.udiseplus.gov.in/#/reportcard/4211120/12,https://kys.udiseplus.gov.in/#/reportcard/4211120/12,https://kys.udiseplus.gov.in/api/school/report-card?schoolId=4211120&yearId=10,GUJARAT,SURENDRANAGAR,22.8251395,71.6209736
"JAWAHAR NAVODAYA VIDYALAYA AHMEDABAD, VATVA CITY BLOCK",4254724,12,https://kys.udiseplus.gov.in/#/reportcard/4254724/12,https://kys.udiseplus.gov.in/#/reportcard/4254724/12,https://kys.udiseplus.gov.in/api/school/report-card?schoolId=4254724&yearId=10,GUJARAT,AHMEDABAD,23.0215374,72.5800568
"JAWAHAR NAVODAYA VIDYALAYA BANASKANTHA, DANTIWADA",4202099,12,https://kys.udiseplus.gov.in/#/reportcard/4202099/12,https://kys.udiseplus.gov.in/#/reportcard/4202099/12,https://kys.udiseplus.gov.in/api/school/report-card?schoolId=4202099&yearId=10,GUJARAT,BANAS KANTHA,24.2500000,72.5000000
"JAWAHAR NAVODAYA VIDYALAYA BALAGHAT, WARASEONI",3927923,12,https://kys.udiseplus.gov.in/#/reportcard/3927923/12,https://kys.udiseplus.gov.in/#/reportcard/3927923/12,https://kys.udiseplus.gov.in/api/school/report-card?schoolId=3927923&yearId=10,MADHYA PRADESH,BALAGHAT,21.8611589,80.3237105
"JAWAHAR NAVODAYA VIDYALAYA CHHINDWARA, AMARWARA",3965472,12,https://kys.udiseplus.gov.in/#/reportcard/3965472/12,https://kys.udiseplus.gov.in/#/reportcard/3965472/12,https://kys.udiseplus.gov.in/api/school/report-card?schoolId=3965472&yearId=10,MADHYA PRADESH,CHHINDWARA,22.2071897,78.7988330
"JAWAHAR NAVODAYA VIDYALAYA ASHOKNAGAR, ESAGARH",3964614,12,https://kys.udiseplus.gov.in/#/reportcard/3964614/12,https://kys.udiseplus.gov.in/#/reportcard/3964614/12,https://kys.udiseplus.gov.in/api/school/report-card?schoolId=3964614&yearId=10,MADHYA PRADESH,ASHOKNAGAR,24.6186095,77.8786983
"JAWAHAR NAVODAYA VIDYALAYA SABARKANTHA, IDAR",4254930,12,https://kys.udiseplus.gov.in/#/reportcard/4254930/12,https://kys.udiseplus.gov.in/#/reportcard/4254930/12,https://kys.udiseplus.gov.in/api/school/report-card?schoolId=4254930&yearId=10,GUJARAT,SABAR KANTHA,23.5000000,73.2500000
"JAWAHAR NAVODAYA VIDYALAYA KATNI, BADWARA",4008055,12,https://kys.udiseplus.gov.in/#/reportcard/4008055/12,https://kys.udiseplus.gov.in/#/reportcard/4008055/12,https://kys.udiseplus.gov.in/api/school/report-card?schoolId=4008055&yearId=10,MADHYA PRADESH,KATNI,23.7176393,80.2610181
"JAWAHAR NAVODAYA VIDYALAYA MANDLA, MANDLA",3993861,12,https://kys.udiseplus.gov.in/#/reportcard/3993861/12,https://kys.udiseplus.gov.in/#/reportcard/3993861/12,https://kys.udiseplus.gov.in/api/school/report-card?schoolId=3993861&yearId=10,MADHYA PRADESH,MANDLA,22.6871074,80.5816341
"JAWAHAR NAVODAYA VIDYALAYA DINDORI, DINDORI",4021264,12,https://kys.udiseplus.gov.in/#/reportcard/4021264/12,https://kys.udiseplus.gov.in/#/reportcard/4021264/12,https://kys.udiseplus.gov.in/api/school/report-card?schoolId=4021264&yearId=10,MADHYA PRADESH,DINDORI,22.9070871,80.8846924
"JAWAHAR NAVODAYA VIDYALAYA NARSINGHPUR, CHHAWARPATHA",4034067,12,https://kys.udiseplus.gov.in/#/reportcard/4034067/12,https://kys.udiseplus.gov.in/#/reportcard/4034067/12,https://kys.udiseplus.gov.in/api/school/report-card?schoolId=4034067&yearId=10,MADHYA PRADESH,NARSIMHAPUR,22.9166670,79.1666670
"JAWAHAR NAVODAYA VIDYALAYA PATAN, CHANASMA",4233676,12,https://kys.udiseplus.gov.in/#/reportcard/4233676/12,https://kys.udiseplus.gov.in/#/reportcard/4233676/12,https://kys.udiseplus.gov.in/api/school/report-card?schoolId=4233676&yearId=10,GUJARAT,PATAN,23.7737530,71.6798581
"JAWAHAR NAVODAYA VIDYALAYA KUTCH, ABDASA",4254613,12,https://kys.udiseplus.gov.in/#/reportcard/4254613/12,https://kys.udiseplus.gov.in/#/reportcard/4254613/12,https://kys.udiseplus.gov.in/api/school/report-card?schoolId=4254613&yearId=10,GUJARAT,KACHCHH,23.5833330,70.0000000
"JAWAHAR NAVODAYA VIDYALAYA AGAR MALWA, SUSNER",4060743,12,https://kys.udiseplus.gov.in/#/reportcard/4060743/12,https://kys.udiseplus.gov.in/#/reportcard/4060743/12,https://kys.udiseplus.gov.in/api/school/report-card?schoolId=4060743&yearId=10,MADHYA PRADESH,AGAR MALWA,23.9350920,76.1449595
"JAWAHAR NAVODAYA VIDYALAYA JAMNAGAR, ALIABADA ",4252423,12,https://kys.udiseplus.gov.in/#/reportcard/4252423/12,https://kys.udiseplus.gov.in/#/reportcard/4252423/12,https://kys.udiseplus.gov.in/api/school/report-card?schoolId=4252423&yearId=10,GUJARAT,JAMNAGAR,22.4732415,70.0552102
"JAWAHAR NAVODAYA VIDYALAYA KHEDA, KATHLAL ",4231357,12,https://kys.udiseplus.gov.in/#/reportcard/4231357/12,https://kys.udiseplus.gov.in/#/reportcard/4231357/12,https://kys.udiseplus.gov.in/api/school/report-card?schoolId=4231357&yearId=10,GUJARAT,KHEDA,22.8532503,72.9953586
"JAWAHAR NAVODAYA VIDYALAYA GANDHINAGAR, DEHGAM",4236621,12,https://kys.udiseplus.gov.in/#/reportcard/4236621/12,https://kys.udiseplus.gov.in/#/reportcard/4236621/12,https://kys.udiseplus.gov.in/api/school/report-card?schoolId=4236621&yearId=10,GUJARAT,GANDHINAGAR,23.2232877,72.6492267
"JAWAHAR NAVODAYA VIDYALAYA SINGRAULI, WAIDHAN",4060675,12,https://kys.udiseplus.gov.in/#/reportcard/4060675/12,https://kys.udiseplus.gov.in/#/reportcard/4060675/12,https://kys.udiseplus.gov.in/api/school/report-card?schoolId=4060675&yearId=10,MADHYA PRADESH,SINGRAULI,24.2431343,82.3827672
"JAWAHAR NAVODAYA VIDYALAYA ALIRAJPUR, ALIRAJPUR",4052267,12,https://kys.udiseplus.gov.in/#/reportcard/4052267/12,https://kys.udiseplus.gov.in/#/reportcard/4052267/12,https://kys.udiseplus.gov.in/api/school/report-card?schoolId=4052267&yearId=10,MADHYA PRADESH,ALIRAJPUR,22.2859524,74.3545628
"JAWAHAR NAVODAYA VIDYALAYA ANUPPUR, PUSHPARAJGARH",3902846,12,https://kys.udiseplus.gov.in/#/reportcard/3902846/12,https://kys.udiseplus.gov.in/#/reportcard/3902846/12,https://kys.udiseplus.gov.in/api/school/report-card?schoolId=3902846&yearId=10,MADHYA PRADESH,ANUPPUR,23.0346179,81.7510255
"JAWAHAR NAVODAYA VIDYALAYA BURHANPUR, BURHANPUR",3957438,12,https://kys.udiseplus.gov.in/#/reportcard/3957438/12,https://kys.udiseplus.gov.in/#/reportcard/3957438/12,https://kys.udiseplus.gov.in/api/school/report-card?schoolId=3957438&yearId=10,MADHYA PRADESH,BURHANPUR,21.3348669,76.3708803
"JAWAHAR NAVODAYA VIDYALAYA RAJKOT, PADDHARI",4212395,12,https://kys.udiseplus.gov.in/#/reportcard/4212395/12,https://kys.udiseplus.gov.in/#/reportcard/4212395/12,https://kys.udiseplus.gov.in/api/school/report-card?schoolId=4212395&yearId=10,GUJARAT,RAJKOT,22.3053263,70.8028377
"JAWAHAR NAVODAYA VIDYALAYA AMRELI, AMRELI",4205809,12,https://kys.udiseplus.gov.in/#/reportcard/4205809/12,https://kys.udiseplus.gov.in/#/reportcard/4205809/12,https://kys.udiseplus.gov.in/api/school/report-card?schoolId=4205809&yearId=10,GUJARAT,AMRELI,21.4176122,71.2496090
"JAWAHAR NAVODAYA VIDYALAYA MEHSANA, VADNAGAR",4237984,12,https://kys.udiseplus.gov.in/#/reportcard/4237984/12,https://kys.udiseplus.gov.in/#/reportcard/4237984/12,https://kys.udiseplus.gov.in/api/school/report-card?schoolId=4237984&yearId=10,GUJARAT,MAHESANA,23.6015557,72.3867981
"JAWAHAR NAVODAYA VIDYALAYA PORBANDAR, RANAVAV ",4224818,12,https://kys.udiseplus.gov.in/#/reportcard/4224818/12,https://kys.udiseplus.gov.in/#/reportcard/4224818/12,https://kys.udiseplus.gov.in/api/school/report-card?schoolId=4224818&yearId=10,GUJARAT,PORBANDAR,21.6409000,69.6110000
"JAWAHAR NAVODAYA VIDYALAYA NARMADA, GARUDESHWAR",4217841,12,https://kys.udiseplus.gov.in/#/reportcard/4217841/12,https://kys.udiseplus.gov.in/#/reportcard/4217841/12,https://kys.udiseplus.gov.in/api/school/report-card?schoolId=4217841&yearId=10,GUJARAT,NARMADA,21.7392624,73.6262458
"JAWAHAR NAVODAYA VIDYALAYA SEONI, SEONI",3989059,12,https://kys.udiseplus.gov.in/#/reportcard/3989059/12,https://kys.udiseplus.gov.in/#/reportcard/3989059/12,https://kys.udiseplus.gov.in/api/school/report-card?schoolId=3989059&yearId=10,MADHYA PRADESH,SEONI,22.2748109,79.7202522
"JAWAHAR NAVODAYA VIDYALAYA JABALPUR, JABALPUR",4019834,12,https://kys.udiseplus.gov.in/#/reportcard/4019834/12,https://kys.udiseplus.gov.in/#/reportcard/4019834/12,https://kys.udiseplus.gov.in/api/school/report-card?schoolId=4019834&yearId=10,MADHYA PRADESH,JABALPUR,23.1701522,79.9324505
"JAWAHAR NAVODAYA VIDYALAYA KARGIL, SANKOO",1011868,12,https://kys.udiseplus.gov.in/#/reportcard/1011868/12,https://kys.udiseplus.gov.in/#/reportcard/1011868/12,https://kys.udiseplus.gov.in/api/school/report-card?schoolId=1011868&yearId=10,LADAKH,KARGIL,33.8028190,76.4730096
"JAWAHAR NAVODAYA VIDYALAYA LEH, LEH",1011227,12,https://kys.udiseplus.gov.in/#/reportcard/1011227/12,https://kys.udiseplus.gov.in/#/reportcard/1011227/12,https://kys.udiseplus.gov.in/api/school/report-card?schoolId=1011227&yearId=10,LADAKH,LEH (LADAKH),34.1718527,77.5866776
"JAWAHAR NAVODAYA VIDYALAYA NALGONDA, PEDDAVOORA",5421631,12,https://kys.udiseplus.gov.in/#/reportcard/5421631/12,https://kys.udiseplus.gov.in/#/reportcard/5421631/12,https://kys.udiseplus.gov.in/api/school/report-card?schoolId=5421631&yearId=10,TELANGANA,NALGONDA,16.8579636,79.2174935
"JAWAHAR NAVODAYA VIDYALAYA WARANGAL, PENSIONPUR",5404676,12,https://kys.udiseplus.gov.in/#/reportcard/5404676/12,https://kys.udiseplus.gov.in/#/reportcard/5404676/12,https://kys.udiseplus.gov.in/api/school/report-card?schoolId=5404676&yearId=10,TELANGANA,WARANGAL,17.9820644,79.5970954
"JAWAHAR NAVODAYA VIDYALAYA KAMAREDDY, BANSWADA",5416191,12,https://kys.udiseplus.gov.in/#/reportcard/5416191/12,https://kys.udiseplus.gov.in/#/reportcard/5416191/12,https://kys.udiseplus.gov.in/api/school/report-card?schoolId=5416191&yearId=10,TELANGANA,KAMAREDDY,18.3165510,78.0539381
"JAWAHAR NAVODAYA VIDYALAYA KARIMANGAR, CHOPPADANDI",5436920,12,https://kys.udiseplus.gov.in/#/reportcard/5436920/12,https://kys.udiseplus.gov.in/#/reportcard/5436920/12,https://kys.udiseplus.gov.in/api/school/report-card?schoolId=5436920&yearId=10,TELANGANA,KARIMNAGAR,18.4348122,79.1328042
"JAWAHAR NAVODAYA VIDYALAYA MALAPPURAM, VENGARA",5006191,12,https://kys.udiseplus.gov.in/#/reportcard/5006191/12,https://kys.udiseplus.gov.in/#/reportcard/5006191/12,https://kys.udiseplus.gov.in/api/school/report-card?schoolId=5006191&yearId=10,KERALA,MALAPPURAM,11.1068448,76.1099551
"JAWAHAR NAVODAYA VIDYALAYA KOLLAM, KOTTARAKARA",5015080,12,https://kys.udiseplus.gov.in/#/reportcard/5015080/12,https://kys.udiseplus.gov.in/#/reportcard/5015080/12,https://kys.udiseplus.gov.in/api/school/report-card?schoolId=5015080&yearId=10,KERALA,KOLLAM,8.8870815,76.5907017
"JAWAHAR NAVODAYA VIDYALAYA KOZHIKODE, VADAKARA",5004047,12,https://kys.udiseplus.gov.in/#/reportcard/5004047/12,https://kys.udiseplus.gov.in/#/reportcard/5004047/12,https://kys.udiseplus.gov.in/api/school/report-card?schoolId=5004047&yearId=10,KERALA,KOZHIKODE,11.2450558,75.7754716
"JAWAHAR NAVODAYA VIDYALAYA KOTTAYAM, PALLOM",5011880,12,https://kys.udiseplus.gov.in/#/reportcard/5011880/12,https://kys.udiseplus.gov.in/#/reportcard/5011880/12,https://kys.udiseplus.gov.in/api/school/report-card?schoolId=5011880&yearId=10,KERALA,KOTTAYAM,9.6287383,76.6455326
"JAWAHAR NAVODAYA VIDYALAYA THRISSUR, PAZHAYANNUR",5008693,12,https://kys.udiseplus.gov.in/#/reportcard/5008693/12,https://kys.udiseplus.gov.in/#/reportcard/5008693/12,https://kys.udiseplus.gov.in/api/school/report-card?schoolId=5008693&yearId=10,KERALA,THRISSUR,10.5270099,76.2146210
"JAWAHAR NAVODAYA VIDYALAYA IDUKKI, IDUKKI",5010671,12,https://kys.udiseplus.gov.in/#/reportcard/5010671/12,https://kys.udiseplus.gov.in/#/reportcard/5010671/12,https://kys.udiseplus.gov.in/api/school/report-card?schoolId=5010671&yearId=10,KERALA,IDUKKI,9.8154785,76.9991599
"JAWAHAR NAVODAYA VIDYALAYA ALLEPPEY, MAVELIKARA",5013090,12,https://kys.udiseplus.gov.in/#/reportcard/5013090/12,https://kys.udiseplus.gov.in/#/reportcard/5013090/12,https://kys.udiseplus.gov.in/api/school/report-card?schoolId=5013090&yearId=10,KERALA,ALAPPUZHA,9.5006651,76.4124143
"JAWAHAR NAVODAYA VIDYALAYA PATHANAMTHITTA, RANNI",5014254,12,https://kys.udiseplus.gov.in/#/reportcard/5014254/12,https://kys.udiseplus.gov.in/#/reportcard/5014254/12,https://kys.udiseplus.gov.in/api/school/report-card?schoolId=5014254&yearId=10,KERALA,PATHANAMTHITTA,9.2780841,76.9737443
"JAWAHAR NAVODAYA VIDYALAYA ERNAKULAM, KOTHAMANGALAM",5009885,12,https://kys.udiseplus.gov.in/#/reportcard/5009885/12,https://kys.udiseplus.gov.in/#/reportcard/5009885/12,https://kys.udiseplus.gov.in/api/school/report-card?schoolId=5009885&yearId=10,KERALA,ERNAKULAM,9.9837257,76.2740001
"JAWAHAR NAVODAYA VIDYALAYA PALAKKAD, MALAMPUZHA",5007403,12,https://kys.udiseplus.gov.in/#/reportcard/5007403/12,https://kys.udiseplus.gov.in/#/reportcard/5007403/12,https://kys.udiseplus.gov.in/api/school/report-card?schoolId=5007403&yearId=10,KERALA,PALAKKAD,10.7873691,76.4742172
"JAWAHAR NAVODAYA VIDYALAYA KANNUR, PANOOR",5001430,12,https://kys.udiseplus.gov.in/#/reportcard/5001430/12,https://kys.udiseplus.gov.in/#/reportcard/5001430/12,https://kys.udiseplus.gov.in/api/school/report-card?schoolId=5001430&yearId=10,KERALA,KANNUR,11.8763836,75.3737973
"JAWAHAR NAVODAYA VIDYALAYA KASARAGOD, HOSDURG",5000519,12,https://kys.udiseplus.gov.in/#/reportcard/5000519/12,https://kys.udiseplus.gov.in/#/reportcard/5000519/12,https://kys.udiseplus.gov.in/api/school/report-card?schoolId=5000519&yearId=10,KERALA,KASARAGOD,12.4221964,75.1904446
"JAWAHAR NAVODAYA VIDYALAYA SOUTH GOA, CANACONA",4801457,12,https://kys.udiseplus.gov.in/#/reportcard/4801457/12,https://kys.udiseplus.gov.in/#/reportcard/4801457/12,https://kys.udiseplus.gov.in/api/school/report-card?schoolId=4801457&yearId=10,GOA,SOUTH GOA,15.2196240,74.1159085
"JAWAHAR NAVODAYA VIDYALAYA LAKSHADWEEP, ANDROTT",4900016,12,https://kys.udiseplus.gov.in/#/reportcard/4900016/12,https://kys.udiseplus.gov.in/#/reportcard/4900016/12,https://kys.udiseplus.gov.in/api/school/report-card?schoolId=4900016&yearId=10,LAKSHADWEEP,LAKSHADWEEP,10.8132489,73.6804621
"JAWAHAR NAVODAYA VIDYALAYA NORTH GOA, SATTARI",4800395,12,https://kys.udiseplus.gov.in/#/reportcard/4800395/12,https://kys.udiseplus.gov.in/#/reportcard/4800395/12,https://kys.udiseplus.gov.in/api/school/report-card?schoolId=4800395&yearId=10,GOA,NORTH GOA,15.6044413,74.0017241
"JAWAHAR NAVODAYA VIDYALAYA MYSORE, MYSORE RURAL",5502368,12,https://kys.udiseplus.gov.in/#/reportcard/5502368/12,https://kys.udiseplus.gov.in/#/reportcard/5502368/12,https://kys.udiseplus.gov.in/api/school/report-card?schoolId=5502368&yearId=10,KARNATAKA,MYSURU,12.3041464,76.6529521
HPS JAWAHARNAVODAYAVIDYALAYA,5504553,11,https://kys.udiseplus.gov.in/#/reportcard/5504553/11,https://kys.udiseplus.gov.in/#/reportcard/5504553/11,https://kys.udiseplus.gov.in/api/school/report-card?schoolId=5504553&yearId=10,,,33.0052705,-79.9870330
"JAWAHAR NAVODAYA VIDYALAYA CHAMARAJANAGAR, CHAMARAJANAGARA",5504554,12,https://kys.udiseplus.gov.in/#/reportcard/5504554/12,https://kys.udiseplus.gov.in/#/reportcard/5504554/12,https://kys.udiseplus.gov.in/api/school/report-card?schoolId=5504554&yearId=10,KARNATAKA,CHAMARAJANAGARA,11.9238058,76.9393558
"JAWAHAR NAVODAYA VIDYALAYA BENGALURU URBAN, BANGALORE NORTH",5503353,12,https://kys.udiseplus.gov.in/#/reportcard/5503353/12,https://kys.udiseplus.gov.in/#/reportcard/5503353/12,https://kys.udiseplus.gov.in/api/school/report-card?schoolId=5503353&yearId=10,KARNATAKA,BENGALURU U NORTH,12.9767936,77.5900820
"JAWAHAR NAVODAYA VIDYALAYA BELAGAVI, CHIKODI",5509954,12,https://kys.udiseplus.gov.in/#/reportcard/5509954/12,https://kys.udiseplus.gov.in/#/reportcard/5509954/12,https://kys.udiseplus.gov.in/api/school/report-card?schoolId=5509954&yearId=10,KARNATAKA,BELAGAVI CHIKKODI,16.4249352,74.5744792
"JAWAHAR NAVODAYA VIDYALAYA THIRUVANATHAPURAM, VELLANAD",5016535,12,https://kys.udiseplus.gov.in/#/reportcard/5016535/12,https://kys.udiseplus.gov.in/#/reportcard/5016535/12,https://kys.udiseplus.gov.in/api/school/report-card?schoolId=5016535&yearId=10,KERALA,THIRUVANANTHAPURAM,8.4882267,76.9475510
"JAWAHAR NAVODAYA VIDYALAYA KODAGU, MADIKERI",5506648,12,https://kys.udiseplus.gov.in/#/reportcard/5506648/12,https://kys.udiseplus.gov.in/#/reportcard/5506648/12,https://kys.udiseplus.gov.in/api/school/report-card?schoolId=5506648&yearId=10,KARNATAKA,KODAGU,12.3827332,75.6640715
"JAWAHAR NAVODAYA VIDYALAYA DAKSHINA KANNADA, BANTWAL",5505214,12,https://kys.udiseplus.gov.in/#/reportcard/5505214/12,https://kys.udiseplus.gov.in/#/reportcard/5505214/12,https://kys.udiseplus.gov.in/api/school/report-card?schoolId=5505214&yearId=10,KARNATAKA,DAKSHINA KANNADA,12.8226433,75.2265036
"JAWAHAR NAVODAYA VIDYALAYA HASSAN, HOLENARASIPURA",5519303,12,https://kys.udiseplus.gov.in/#/reportcard/5519303/12,https://kys.udiseplus.gov.in/#/reportcard/5519303/12,https://kys.udiseplus.gov.in/api/school/report-card?schoolId=5519303&yearId=10,KARNATAKA,HASSAN,13.0301852,76.1744968
"JAWAHAR NAVODAYA VIDYALAYA CHIKKABALLAPURA, CHINTAMANI",5504495,12,https://kys.udiseplus.gov.in/#/reportcard/5504495/12,https://kys.udiseplus.gov.in/#/reportcard/5504495/12,https://kys.udiseplus.gov.in/api/school/report-card?schoolId=5504495&yearId=10,KARNATAKA,CHIKKABALLAPURA,13.5897941,77.7787930
"JAWAHAR NAVODAYA VIDYALAYA BANGALORE RURAL, DODDABALLAPURA",5521159,12,https://kys.udiseplus.gov.in/#/reportcard/5521159/12,https://kys.udiseplus.gov.in/#/reportcard/5521159/12,https://kys.udiseplus.gov.in/api/school/report-card?schoolId=5521159&yearId=10,KARNATAKA,BENGALURU RURAL,13.1826245,77.3395681
"JAWAHAR NAVODAYA VIDYALAYA MANDYA, MADDUR",5526125,12,https://kys.udiseplus.gov.in/#/reportcard/5526125/12,https://kys.udiseplus.gov.in/#/reportcard/5526125/12,https://kys.udiseplus.gov.in/api/school/report-card?schoolId=5526125&yearId=10,KARNATAKA,MANDYA,12.6368939,76.7275477
"JAWAHAR NAVODAYA VIDYALAYA RAMANAGARA, KANAKAPURA",5514906,12,https://kys.udiseplus.gov.in/#/reportcard/5514906/12,https://kys.udiseplus.gov.in/#/reportcard/5514906/12,https://kys.udiseplus.gov.in/api/school/report-card?schoolId=5514906&yearId=10,KARNATAKA,RAMANAGARA,12.7200060,77.3184199
"JAWAHAR NAVODAYA VIDYALAYA WAYANAD, KALPETTA",5002885,12,https://kys.udiseplus.gov.in/#/reportcard/5002885/12,https://kys.udiseplus.gov.in/#/reportcard/5002885/12,https://kys.udiseplus.gov.in/api/school/report-card?schoolId=5002885&yearId=10,KERALA,WAYANAD,11.7151291,76.1271185
"JAWAHAR NAVODAYA VIDYALAYA UTTARA KANNADA, MUNDAGOD",5513747,12,https://kys.udiseplus.gov.in/#/reportcard/5513747/12,https://kys.udiseplus.gov.in/#/reportcard/5513747/12,https://kys.udiseplus.gov.in/api/school/report-card?schoolId=5513747&yearId=10,KARNATAKA,UTTARA KANNADA SIRSI,14.6177414,74.8291660
"JAWAHAR NAVODAYA VIDYALAYA YADGIR, SHAHAPUR",5513920,12,https://kys.udiseplus.gov.in/#/reportcard/5513920/12,https://kys.udiseplus.gov.in/#/reportcard/5513920/12,https://kys.udiseplus.gov.in/api/school/report-card?schoolId=5513920&yearId=10,KARNATAKA,YADAGIRI,16.7745024,77.1270379
"JAWAHAR NAVODAYA VIDYALAYA TUMKURU, TUMKURU",5520677,12,https://kys.udiseplus.gov.in/#/reportcard/5520677/12,https://kys.udiseplus.gov.in/#/reportcard/5520677/12,https://kys.udiseplus.gov.in/api/school/report-card?schoolId=5520677&yearId=10,KARNATAKA,TUMAKURU,13.4192512,76.8810004
"JAWAHAR NAVODAYA VIDYALAYA SUKMA, SUKMA II",3852295,12,https://kys.udiseplus.gov.in/#/reportcard/3852295/12,https://kys.udiseplus.gov.in/#/reportcard/3852295/12,https://kys.udiseplus.gov.in/api/school/report-card?schoolId=3852295&yearId=10,CHHATTISGARH,SUKMA,18.2665423,81.2925234
"JAWAHAR NAVODAYA VIDYALAYA SUKMA, KONTA",3851593,12,https://kys.udiseplus.gov.in/#/reportcard/3851593/12,https://kys.udiseplus.gov.in/#/reportcard/3851593/12,https://kys.udiseplus.gov.in/api/school/report-card?schoolId=3851593&yearId=10,CHHATTISGARH,SUKMA,18.2665423,81.2925234
"JAWAHAR NAVODAYA VIDYALAYA NARAYANPUR, NARAYANPUR",3841726,12,https://kys.udiseplus.gov.in/#/reportcard/3841726/12,https://kys.udiseplus.gov.in/#/reportcard/3841726/12,https://kys.udiseplus.gov.in/api/school/report-card?schoolId=3841726&yearId=10,CHHATTISGARH,NARAYANPUR,19.5842032,81.1136986
"JAWAHAR NAVODAYA VIDYALAYA DANTEWADA (C.G), GEEDAM",3815079,12,https://kys.udiseplus.gov.in/#/reportcard/3815079/12,https://kys.udiseplus.gov.in/#/reportcard/3815079/12,https://kys.udiseplus.gov.in/api/school/report-card?schoolId=3815079&yearId=10,CHHATTISGARH,DANTEWADA,18.8640648,81.3833947
"JAWAHAR NAVODAYA VIDYALAYA KONDAGAON, KONDAGAON",3831610,12,https://kys.udiseplus.gov.in/#/reportcard/3831610/12,https://kys.udiseplus.gov.in/#/reportcard/3831610/12,https://kys.udiseplus.gov.in/api/school/report-card?schoolId=3831610&yearId=10,CHHATTISGARH,KONDAGAON,19.5885769,81.6628742
"JAWAHAR NAVODAYA VIDYALAYA KORBA, KATGHORA",3834083,12,https://kys.udiseplus.gov.in/#/reportcard/3834083/12,https://kys.udiseplus.gov.in/#/reportcard/3834083/12,https://kys.udiseplus.gov.in/api/school/report-card?schoolId=3834083&yearId=10,CHHATTISGARH,KORBA,22.5198217,82.6350029
"JAWAHAR NAVODAYA VIDYALAYA RAIGARH, KHARSIA",3842517,12,https://kys.udiseplus.gov.in/#/reportcard/3842517/12,https://kys.udiseplus.gov.in/#/reportcard/3842517/12,https://kys.udiseplus.gov.in/api/school/report-card?schoolId=3842517&yearId=10,CHHATTISGARH,RAIGARH,22.2361795,83.3529534
"JAWAHAR NAVODAYA VIDYALAYA SURGUJA, AMBIKAPUR",3855103,12,https://kys.udiseplus.gov.in/#/reportcard/3855103/12,https://kys.udiseplus.gov.in/#/reportcard/3855103/12,https://kys.udiseplus.gov.in/api/school/report-card?schoolId=3855103&yearId=10,CHHATTISGARH,SURGUJA,22.9469135,83.1656942
"JAWAHAR NAVODAYA VIDYALAYA KANKER, NARHARPUR",3827647,12,https://kys.udiseplus.gov.in/#/reportcard/3827647/12,https://kys.udiseplus.gov.in/#/reportcard/3827647/12,https://kys.udiseplus.gov.in/api/school/report-card?schoolId=3827647&yearId=10,CHHATTISGARH,KANKER,20.2692747,81.4932111
"JAWAHAR NAVODAYA VIDYALAYA MAHASAMUND, SARAIPALI",3838594,12,https://kys.udiseplus.gov.in/#/reportcard/3838594/12,https://kys.udiseplus.gov.in/#/reportcard/3838594/12,https://kys.udiseplus.gov.in/api/school/report-card?schoolId=3838594&yearId=10,CHHATTISGARH,MAHASAMUND,21.1922846,82.4890263
"JAWAHAR NAVODAYA VIDYALAYA MALKANGIRI - I, MALKANGIRI",3700242,12,https://kys.udiseplus.gov.in/#/reportcard/3700242/12,https://kys.udiseplus.gov.in/#/reportcard/3700242/12,https://kys.udiseplus.gov.in/api/school/report-card?schoolId=3700242&yearId=10,ODISHA,MALKANGIRI,18.2744685,81.9520316
"JAWAHAR NAVODAYA VIDYALAYA MALKANGIRI -II, KORUKONDA",3768625,12,https://kys.udiseplus.gov.in/#/reportcard/3768625/12,https://kys.udiseplus.gov.in/#/reportcard/3768625/12,https://kys.udiseplus.gov.in/api/school/report-card?schoolId=3768625&yearId=10,ODISHA,MALKANGIRI,18.2744685,81.9520316
"JAWAHAR NAVODAYA VIDYALAYA KOREA (C.G.), BAIKUNTHPUR",3836127,12,https://kys.udiseplus.gov.in/#/reportcard/3836127/12,https://kys.udiseplus.gov.in/#/reportcard/3836127/12,https://kys.udiseplus.gov.in/api/school/report-card?schoolId=3836127&yearId=10,CHHATTISGARH,KORIYA,23.4762540,82.4776374
"JAWAHAR NAVODAYA VIDYALAYA SHAJAPUR, KALAPIPAL",3936403,12,https://kys.udiseplus.gov.in/#/reportcard/3936403/12,https://kys.udiseplus.gov.in/#/reportcard/3936403/12,https://kys.udiseplus.gov.in/api/school/report-card?schoolId=3936403&yearId=10,MADHYA PRADESH,SHAJAPUR,23.4171001,76.6074794
"JAWAHAR NAVODAYA VIDYALAYA SIDHI, RAMPUR NAIKIN",4039452,12,https://kys.udiseplus.gov.in/#/reportcard/4039452/12,https://kys.udiseplus.gov.in/#/reportcard/4039452/12,https://kys.udiseplus.gov.in/api/school/report-card?schoolId=4039452&yearId=10,MADHYA PRADESH,SIDHI,24.2112687,81.7000415
"JAWAHAR NAVODAYA VIDYALAYA RATLAM, PIPLODA",3948422,12,https://kys.udiseplus.gov.in/#/reportcard/3948422/12,https://kys.udiseplus.gov.in/#/reportcard/3948422/12,https://kys.udiseplus.gov.in/api/school/report-card?schoolId=3948422&yearId=10,MADHYA PRADESH,RATLAM,23.5022200,74.9551534
"JAWAHAR NAVODAYA VIDYALAYA RAISEN, BADI",3998454,12,https://kys.udiseplus.gov.in/#/reportcard/3998454/12,https://kys.udiseplus.gov.in/#/reportcard/3998454/12,https://kys.udiseplus.gov.in/api/school/report-card?schoolId=3998454&yearId=10,MADHYA PRADESH,RAISEN,23.2675909,78.1727134
"JAWAHAR NAVODAYA VIDYALAYA UMARIA, KARKELI",3939229,12,https://kys.udiseplus.gov.in/#/reportcard/3939229/12,https://kys.udiseplus.gov.in/#/reportcard/3939229/12,https://kys.udiseplus.gov.in/api/school/report-card?schoolId=3939229&yearId=10,MADHYA PRADESH,UMARIA,23.6431837,80.9419078
"JAWAHAR NAVODAYA VIDYALAYA KABIRDHAM, SAHASPUR LOHARA",3830245,12,https://kys.udiseplus.gov.in/#/reportcard/3830245/12,https://kys.udiseplus.gov.in/#/reportcard/3830245/12,https://kys.udiseplus.gov.in/api/school/report-card?schoolId=3830245&yearId=10,CHHATTISGARH,KAWARDHA,22.0059254,81.2332055
"JAWAHAR NAVODAYA VIDYALAYA GARIABAND, CHHURA",3820679,12,https://kys.udiseplus.gov.in/#/reportcard/3820679/12,https://kys.udiseplus.gov.in/#/reportcard/3820679/12,https://kys.udiseplus.gov.in/api/school/report-card?schoolId=3820679&yearId=10,CHHATTISGARH,GARIABAND,20.4292146,82.2525584
"JAWAHAR NAVODAYA VIDYALAYA BILASPUR, MASTURI",3813502,12,https://kys.udiseplus.gov.in/#/reportcard/3813502/12,https://kys.udiseplus.gov.in/#/reportcard/3813502/12,https://kys.udiseplus.gov.in/api/school/report-card?schoolId=3813502&yearId=10,CHHATTISGARH,BILASPUR,22.1638486,82.1365923
"JAWAHAR NAVODAYA VIDYALAYA SAKTI, JAIJAIPUR",3821789,12,https://kys.udiseplus.gov.in/#/reportcard/3821789/12,https://kys.udiseplus.gov.in/#/reportcard/3821789/12,https://kys.udiseplus.gov.in/api/school/report-card?schoolId=3821789&yearId=10,CHHATTISGARH,SAKTI,22.0262563,82.9598290
"JAWAHAR NAVODAYA VIDYALAYA JASHPUR, KUNKURI",3824958,12,https://kys.udiseplus.gov.in/#/reportcard/3824958/12,https://kys.udiseplus.gov.in/#/reportcard/3824958/12,https://kys.udiseplus.gov.in/api/school/report-card?schoolId=3824958&yearId=10,CHHATTISGARH,JASHPUR,22.7702510,83.9708013
"JAWAHAR NAVODAYA VIDYALAYA GANJAM, PATRAPUR",3768676,12,https://kys.udiseplus.gov.in/#/reportcard/3768676/12,https://kys.udiseplus.gov.in/#/reportcard/3768676/12,https://kys.udiseplus.gov.in/api/school/report-card?schoolId=3768676&yearId=10,ODISHA,GANJAM,19.6090067,84.7080633
"JAWAHAR NAVODAYA VIDYALAYA KANDHAMAL, PHULBANI",3768664,12,https://kys.udiseplus.gov.in/#/reportcard/3768664/12,https://kys.udiseplus.gov.in/#/reportcard/3768664/12,https://kys.udiseplus.gov.in/api/school/report-card?schoolId=3768664&yearId=10,ODISHA,KANDHAMAL,20.1306939,84.0790476
"JAWAHAR NAVODAYA VIDYALAYA BOUDH, BOUDH",3768670,12,https://kys.udiseplus.gov.in/#/reportcard/3768670/12,https://kys.udiseplus.gov.in/#/reportcard/3768670/12,https://kys.udiseplus.gov.in/api/school/report-card?schoolId=3768670&yearId=10,ODISHA,BOUDH,20.6407463,83.9969704
"JAWAHAR NAVODAYA VIDYALAYA KHORDHA, KHORDHA",3768622,12,https://kys.udiseplus.gov.in/#/reportcard/3768622/12,https://kys.udiseplus.gov.in/#/reportcard/3768622/12,https://kys.udiseplus.gov.in/api/school/report-card?schoolId=3768622&yearId=10,ODISHA,KHURDHA,20.1853050,85.6197898
"JAWAHAR NAVODAYA VIDYALAYA PURI, GOP",3768596,12,https://kys.udiseplus.gov.in/#/reportcard/3768596/12,https://kys.udiseplus.gov.in/#/reportcard/3768596/12,https://kys.udiseplus.gov.in/api/school/report-card?schoolId=3768596&yearId=10,ODISHA,PURI,19.8343066,85.6853295
"JAWAHAR NAVODAYA VIDYALAYA SONEPUR, TARBHA",3768603,12,https://kys.udiseplus.gov.in/#/reportcard/3768603/12,https://kys.udiseplus.gov.in/#/reportcard/3768603/12,https://kys.udiseplus.gov.in/api/school/report-card?schoolId=3768603&yearId=10,ODISHA,SONEPUR,20.8453864,83.9090830
"JAWAHAR NAVODAYA VIDYALAYA KALAHANDI, NARLA ",3768661,12,https://kys.udiseplus.gov.in/#/reportcard/3768661/12,https://kys.udiseplus.gov.in/#/reportcard/3768661/12,https://kys.udiseplus.gov.in/api/school/report-card?schoolId=3768661&yearId=10,ODISHA,KALAHANDI,19.8265756,83.0408702
"JAWAHAR NAVODAYA VIDYALAYA BOLANGIR, BELPADA",3768677,12,https://kys.udiseplus.gov.in/#/reportcard/3768677/12,https://kys.udiseplus.gov.in/#/reportcard/3768677/12,https://kys.udiseplus.gov.in/api/school/report-card?schoolId=3768677&yearId=10,ODISHA,BOLANGIR,20.7502257,83.2499464
"JAWAHAR NAVODAYA VIDYALAYA NUAPADA, KOMNA",3768667,12,https://kys.udiseplus.gov.in/#/reportcard/3768667/12,https://kys.udiseplus.gov.in/#/reportcard/3768667/12,https://kys.udiseplus.gov.in/api/school/report-card?schoolId=3768667&yearId=10,ODISHA,NUAPADA,20.5412657,82.5292352
"JAWAHAR NAVODAYA VIDYALAYA GAJAPATI, GUMMA",3700247,12,https://kys.udiseplus.gov.in/#/reportcard/3700247/12,https://kys.udiseplus.gov.in/#/reportcard/3700247/12,https://kys.udiseplus.gov.in/api/school/report-card?schoolId=3700247&yearId=10,ODISHA,GAJAPATI,19.1966026,84.1930634
"JAWAHAR NAVODAYA VIDYALAYA RAYAGADA, KOLNARA",3768653,12,https://kys.udiseplus.gov.in/#/reportcard/3768653/12,https://kys.udiseplus.gov.in/#/reportcard/3768653/12,https://kys.udiseplus.gov.in/api/school/report-card?schoolId=3768653&yearId=10,ODISHA,RAYAGADA,19.4426698,83.5873053
"JAWAHAR NAVODAYA VIDYALAYA BALRAMPUR, MAHARAJGANJ",3857347,12,https://kys.udiseplus.gov.in/#/reportcard/3857347/12,https://kys.udiseplus.gov.in/#/reportcard/3857347/12,https://kys.udiseplus.gov.in/api/school/report-card?schoolId=3857347&yearId=10,CHHATTISGARH,BALRAMPUR,23.6282576,83.4810916
"JAWAHAR NAVODAYA VIDYALAYA BALODA BAZAR, BALODA BAZAR",3803061,12,https://kys.udiseplus.gov.in/#/reportcard/3803061/12,https://kys.udiseplus.gov.in/#/reportcard/3803061/12,https://kys.udiseplus.gov.in/api/school/report-card?schoolId=3803061&yearId=10,CHHATTISGARH,BALODABAZAR,21.6564735,82.1605962
"JAWAHAR NAVODAYA VIDYALAYA DURG, DURG",3819101,12,https://kys.udiseplus.gov.in/#/reportcard/3819101/12,https://kys.udiseplus.gov.in/#/reportcard/3819101/12,https://kys.udiseplus.gov.in/api/school/report-card?schoolId=3819101&yearId=10,CHHATTISGARH,DURG,21.1982964,81.4007922
"JAWAHAR NAVODAYA VIDYALAYA MUNGELI, MUNGELI",3840293,12,https://kys.udiseplus.gov.in/#/reportcard/3840293/12,https://kys.udiseplus.gov.in/#/reportcard/3840293/12,https://kys.udiseplus.gov.in/api/school/report-card?schoolId=3840293&yearId=10,CHHATTISGARH,MUNGELI,22.0661098,81.6874282
"JAWAHAR NAVODAYA VIDYALAYA BEMETARA, BEMETARA",3809019,12,https://kys.udiseplus.gov.in/#/reportcard/3809019/12,https://kys.udiseplus.gov.in/#/reportcard/3809019/12,https://kys.udiseplus.gov.in/api/school/report-card?schoolId=3809019&yearId=10,CHHATTISGARH,BEMETARA,21.6783867,81.4412578
"JAWAHAR NAVODAYA VIDYALAYA BALOD, DONDILOHARA",3800391,12,https://kys.udiseplus.gov.in/#/reportcard/3800391/12,https://kys.udiseplus.gov.in/#/reportcard/3800391/12,https://kys.udiseplus.gov.in/api/school/report-card?schoolId=3800391&yearId=10,CHHATTISGARH,BALOD,20.7277192,81.1446948
"JAWAHAR NAVODAYA VIDYALAYA JAGATSINGHPUR, KUJANG",3768672,12,https://kys.udiseplus.gov.in/#/reportcard/3768672/12,https://kys.udiseplus.gov.in/#/reportcard/3768672/12,https://kys.udiseplus.gov.in/api/school/report-card?schoolId=3768672&yearId=10,ODISHA,JAGATSINGHPUR,20.2593872,86.1660878
"JAWAHAR NAVODAYA VIDYALAYA DHENKANAL, PARJANG",3768654,12,https://kys.udiseplus.gov.in/#/reportcard/3768654/12,https://kys.udiseplus.gov.in/#/reportcard/3768654/12,https://kys.udiseplus.gov.in/api/school/report-card?schoolId=3768654&yearId=10,ODISHA,DHENKANAL,20.8351494,85.6022305
"JAWAHAR NAVODAYA VIDYALAYA JAJPUR, KORAI",3768652,12,https://kys.udiseplus.gov.in/#/reportcard/3768652/12,https://kys.udiseplus.gov.in/#/reportcard/3768652/12,https://kys.udiseplus.gov.in/api/school/report-card?schoolId=3768652&yearId=10,ODISHA,JAJPUR,20.8746788,86.1215393
"JAWAHAR NAVODAYA VIDYALAYA NAYAGARH, NAYAGARH",3768619,12,https://kys.udiseplus.gov.in/#/reportcard/3768619/12,https://kys.udiseplus.gov.in/#/reportcard/3768619/12,https://kys.udiseplus.gov.in/api/school/report-card?schoolId=3768619&yearId=10,ODISHA,NAYAGARH,20.2393682,85.0507280
"JAWAHAR NAVODAYA VIDYALAYA ANGUL, ANGUL",3768669,12,https://kys.udiseplus.gov.in/#/reportcard/3768669/12,https://kys.udiseplus.gov.in/#/reportcard/3768669/12,https://kys.udiseplus.gov.in/api/school/report-card?schoolId=3768669&yearId=10,ODISHA,ANGUL,21.1025380,84.9536825
"JAWAHAR NAVODAYA VIDYALAYA CUTTACK, BARANG",3768684,12,https://kys.udiseplus.gov.in/#/reportcard/3768684/12,https://kys.udiseplus.gov.in/#/reportcard/3768684/12,https://kys.udiseplus.gov.in/api/school/report-card?schoolId=3768684&yearId=10,ODISHA,CUTTACK,20.4686000,85.8792000
"JAWAHAR NAVODAYA VIDYALAYA KENDRAPARA, KENDRAPARA",3768665,12,https://kys.udiseplus.gov.in/#/reportcard/3768665/12,https://kys.udiseplus.gov.in/#/reportcard/3768665/12,https://kys.udiseplus.gov.in/api/school/report-card?schoolId=3768665&yearId=10,ODISHA,KENDRAPARA,20.5475164,86.5296168
"JAWAHAR NAVODAYA VIDYALAYA BALASORE, SORO",3768682,12,https://kys.udiseplus.gov.in/#/reportcard/3768682/12,https://kys.udiseplus.gov.in/#/reportcard/3768682/12,https://kys.udiseplus.gov.in/api/school/report-card?schoolId=3768682&yearId=10,ODISHA,BALASORE,21.5006421,86.9198840
"JAWAHAR NAVODAYA VIDYALAYA BHADRAK, BASUDEVPUR",3768663,12,https://kys.udiseplus.gov.in/#/reportcard/3768663/12,https://kys.udiseplus.gov.in/#/reportcard/3768663/12,https://kys.udiseplus.gov.in/api/school/report-card?schoolId=3768663&yearId=10,ODISHA,BHADRAK,20.9854052,86.5934226
"JAWAHAR NAVODAYA VIDYALAYA DHAMTARI, KURUD",3816838,12,https://kys.udiseplus.gov.in/#/reportcard/3816838/12,https://kys.udiseplus.gov.in/#/reportcard/3816838/12,https://kys.udiseplus.gov.in/api/school/report-card?schoolId=3816838&yearId=10,CHHATTISGARH,DHAMTARI,20.5326259,81.7155987
"JAWAHAR NAVODAYA VIDYALAYA BIJAPUR, BIJAPUR",3810444,12,https://kys.udiseplus.gov.in/#/reportcard/3810444/12,https://kys.udiseplus.gov.in/#/reportcard/3810444/12,https://kys.udiseplus.gov.in/api/school/report-card?schoolId=3810444&yearId=10,CHHATTISGARH,BIJAPUR,18.7935679,80.8159390
"JAWAHAR NAVODAYA VIDYALAYA BASTAR, JAGDALPUR",3807001,12,https://kys.udiseplus.gov.in/#/reportcard/3807001/12,https://kys.udiseplus.gov.in/#/reportcard/3807001/12,https://kys.udiseplus.gov.in/api/school/report-card?schoolId=3807001&yearId=10,CHHATTISGARH,BASTER,19.2032620,81.9336520
"JAWAHAR NAVODAYA VIDYALAYA RAIPUR, DHARSIWA",3846899,12,https://kys.udiseplus.gov.in/#/reportcard/3846899/12,https://kys.udiseplus.gov.in/#/reportcard/3846899/12,https://kys.udiseplus.gov.in/api/school/report-card?schoolId=3846899&yearId=10,CHHATTISGARH,RAIPUR,21.2380912,81.6336993
"JAWAHAR NAVODAYA VIDYALAYA RAJNANDGAON, DONGARGARH",3849019,12,https://kys.udiseplus.gov.in/#/reportcard/3849019/12,https://kys.udiseplus.gov.in/#/reportcard/3849019/12,https://kys.udiseplus.gov.in/api/school/report-card?schoolId=3849019&yearId=10,CHHATTISGARH,RAJNANDGAON,21.0684424,80.7970779
"JAWAHAR NAVODAYA VIDYALAYA NABARANGPUR, TENTULIKHUNTI",3768668,12,https://kys.udiseplus.gov.in/#/reportcard/3768668/12,https://kys.udiseplus.gov.in/#/reportcard/3768668/12,https://kys.udiseplus.gov.in/api/school/report-card?schoolId=3768668&yearId=10,ODISHA,NABARANGPUR,19.2288960,82.5665715
"JAWAHAR NAVODAYA VIDYALAYA KORAPUT, KORAPUT",3700250,12,https://kys.udiseplus.gov.in/#/reportcard/3700250/12,https://kys.udiseplus.gov.in/#/reportcard/3700250/12,https://kys.udiseplus.gov.in/api/school/report-card?schoolId=3700250&yearId=10,ODISHA,KORAPUT,18.7232023,82.6100596
"JAWAHAR NAVODAYA VIDYALAYA KAKINADA, PEDDAPURAM",4650533,12,https://kys.udiseplus.gov.in/#/reportcard/4650533/12,https://kys.udiseplus.gov.in/#/reportcard/4650533/12,https://kys.udiseplus.gov.in/api/school/report-card?schoolId=4650533&yearId=10,ANDHRA PRADESH,KAKINADA,16.9437385,82.2350607
"JAWAHAR NAVODAYA VIDYALAYA ELURU, PEDAVEGI",4650539,12,https://kys.udiseplus.gov.in/#/reportcard/4650539/12,https://kys.udiseplus.gov.in/#/reportcard/4650539/12,https://kys.udiseplus.gov.in/api/school/report-card?schoolId=4650539&yearId=10,ANDHRA PRADESH,ELURU,16.7104257,81.1153816
"JAWAHAR NAVODAYA VIDYALAYA ALLURI SITHARAMA RAJU, YETAPAKA",4650538,12,https://kys.udiseplus.gov.in/#/reportcard/4650538/12,https://kys.udiseplus.gov.in/#/reportcard/4650538/12,https://kys.udiseplus.gov.in/api/school/report-card?schoolId=4650538&yearId=10,ANDHRA PRADESH,ASR,16.7186836,81.1128832
"JAWAHAR NAVODAYA VIDYALAYA VISAKHAPATNAM, CHINAGADILI",4650525,12,https://kys.udiseplus.gov.in/#/reportcard/4650525/12,https://kys.udiseplus.gov.in/#/reportcard/4650525/12,https://kys.udiseplus.gov.in/api/school/report-card?schoolId=4650525&yearId=10,ANDHRA PRADESH,VISAKHAPATNAM,17.6935526,83.2921297
"JAWAHAR NAVODAYA VIDYALAYA SRI SATHYA SAI, Hindupur",4650571,12,https://kys.udiseplus.gov.in/#/reportcard/4650571/12,https://kys.udiseplus.gov.in/#/reportcard/4650571/12,https://kys.udiseplus.gov.in/api/school/report-card?schoolId=4650571&yearId=10,ANDHRA PRADESH,SRI SATYASAI,16.3267577,80.6276823
"JAWAHAR NAVODAYA VIDYALAYA ANNAMAYYA, MADANAPALLI",4650575,12,https://kys.udiseplus.gov.in/#/reportcard/4650575/12,https://kys.udiseplus.gov.in/#/reportcard/4650575/12,https://kys.udiseplus.gov.in/api/school/report-card?schoolId=4650575&yearId=10,ANDHRA PRADESH,ANNAMAYYA,13.8962384,78.6534802
"JAWAHAR NAVODAYA VIDYALAYA CHITRADURGA, HIRIYUR",5504398,12,https://kys.udiseplus.gov.in/#/reportcard/5504398/12,https://kys.udiseplus.gov.in/#/reportcard/5504398/12,https://kys.udiseplus.gov.in/api/school/report-card?schoolId=5504398&yearId=10,KARNATAKA,CHITRADURGA,14.3049174,76.5296667
"JAWAHAR NAVODAYA VIDYALAYA UDUPI, KARKALA",5500619,12,https://kys.udiseplus.gov.in/#/reportcard/5500619/12,https://kys.udiseplus.gov.in/#/reportcard/5500619/12,https://kys.udiseplus.gov.in/api/school/report-card?schoolId=5500619&yearId=10,KARNATAKA,UDUPI,13.5269784,74.8731879
"JAWAHAR NAVODAYA VIDYALAYA KRISHNA, GANNAVARAM",4650543,12,https://kys.udiseplus.gov.in/#/reportcard/4650543/12,https://kys.udiseplus.gov.in/#/reportcard/4650543/12,https://kys.udiseplus.gov.in/api/school/report-card?schoolId=4650543&yearId=10,ANDHRA PRADESH,KRISHNA,16.2129438,81.0283082
"JAWAHAR NAVODAYA VIDYALAYA PRAKASAM, DONAKONDA",4683831,12,https://kys.udiseplus.gov.in/#/reportcard/4683831/12,https://kys.udiseplus.gov.in/#/reportcard/4683831/12,https://kys.udiseplus.gov.in/api/school/report-card?schoolId=4683831&yearId=10,ANDHRA PRADESH,PRAKASAM,15.6642643,79.4733001
"JAWAHAR NAVODAYA VIDYALAYA VIJAYAPURA, BASAVAN BAGEWADI",5516541,12,https://kys.udiseplus.gov.in/#/reportcard/5516541/12,https://kys.udiseplus.gov.in/#/reportcard/5516541/12,https://kys.udiseplus.gov.in/api/school/report-card?schoolId=5516541&yearId=10,KARNATAKA,VIJAYAPURA,16.8144150,75.8933856
"JAWAHAR NAVODAYA VIDYALAYA SHIMOGA, SHIMOGA",5508288,12,https://kys.udiseplus.gov.in/#/reportcard/5508288/12,https://kys.udiseplus.gov.in/#/reportcard/5508288/12,https://kys.udiseplus.gov.in/api/school/report-card?schoolId=5508288&yearId=10,KARNATAKA,SHIVAMOGGA,13.9326093,75.5749780
"JAWAHAR NAVODAYA VIDYALAYA DAVANGERE, CHANNAGIRI",5513060,12,https://kys.udiseplus.gov.in/#/reportcard/5513060/12,https://kys.udiseplus.gov.in/#/reportcard/5513060/12,https://kys.udiseplus.gov.in/api/school/report-card?schoolId=5513060&yearId=10,KARNATAKA,DAVANAGERE,14.2558835,75.8303421
"JAWAHAR NAVODAYA VIDYALAYA KALABURAGI-02, CHITTAPUR",5528678,12,https://kys.udiseplus.gov.in/#/reportcard/5528678/12,https://kys.udiseplus.gov.in/#/reportcard/5528678/12,https://kys.udiseplus.gov.in/api/school/report-card?schoolId=5528678&yearId=10,KARNATAKA,KALBURGI,17.3310003,76.8334228
"JAWAHAR NAVODAYA VIDYALAYA VIZIANAGRAM, S.KOTA MANDAL",4650524,12,https://kys.udiseplus.gov.in/#/reportcard/4650524/12,https://kys.udiseplus.gov.in/#/reportcard/4650524/12,https://kys.udiseplus.gov.in/api/school/report-card?schoolId=4650524&yearId=10,ANDHRA PRADESH,VIZIANAGARAM,18.1141255,83.4114389
"JAWAHAR NAVODAYA VIDYALAYA CHIKKAMAGALURU, KOPPA",5521678,12,https://kys.udiseplus.gov.in/#/reportcard/5521678/12,https://kys.udiseplus.gov.in/#/reportcard/5521678/12,https://kys.udiseplus.gov.in/api/school/report-card?schoolId=5521678&yearId=10,KARNATAKA,CHIKKAMANGALURU,,
"JAWAHAR NAVODAYA VIDYALAYA VIJAYANAGARA, KUDLIGI",5511200,12,https://kys.udiseplus.gov.in/#/reportcard/5511200/12,https://kys.udiseplus.gov.in/#/reportcard/5511200/12,https://kys.udiseplus.gov.in/api/school/report-card?schoolId=5511200&yearId=10,KARNATAKA,VIJAYANAGARA,14.9428567,76.0448007
"JAWAHAR NAVODAYA VIDYALAYA KOLAR, KOLAR",5525003,12,https://kys.udiseplus.gov.in/#/reportcard/5525003/12,https://kys.udiseplus.gov.in/#/reportcard/5525003/12,https://kys.udiseplus.gov.in/api/school/report-card?schoolId=5525003&yearId=10,KARNATAKA,KOLAR,13.1805066,78.2669329
"JAWAHAR NAVODAYA VIDYALAYA BAGALKOTE, BADAMI",5527377,12,https://kys.udiseplus.gov.in/#/reportcard/5527377/12,https://kys.udiseplus.gov.in/#/reportcard/5527377/12,https://kys.udiseplus.gov.in/api/school/report-card?schoolId=5527377&yearId=10,KARNATAKA,BAGALKOT,16.1793224,75.6999315
"JAWAHAR NAVODAYA VIDYALAYA SRIKAKULAM, SARUBUJJILI",4650522,12,https://kys.udiseplus.gov.in/#/reportcard/4650522/12,https://kys.udiseplus.gov.in/#/reportcard/4650522/12,https://kys.udiseplus.gov.in/api/school/report-card?schoolId=4650522&yearId=10,ANDHRA PRADESH,SRIKAKULAM,18.2949307,83.8938844
"JAWAHAR NAVODAYA VIDYALAYA ANNAMAYYA (KADAPA), RAJAMPET (ANNAMAYYA) DT",4650561,12,https://kys.udiseplus.gov.in/#/reportcard/4650561/12,https://kys.udiseplus.gov.in/#/reportcard/4650561/12,https://kys.udiseplus.gov.in/api/school/report-card?schoolId=4650561&yearId=10,ANDHRA PRADESH,ANNAMAYYA,13.8962384,78.6534802
"JAWAHAR NAVODAYA VIDYALAYA SPSR NELLORE DISTRICT, UDAYAGIRI",4650552,12,https://kys.udiseplus.gov.in/#/reportcard/4650552/12,https://kys.udiseplus.gov.in/#/reportcard/4650552/12,https://kys.udiseplus.gov.in/api/school/report-card?schoolId=4650552&yearId=10,ANDHRA PRADESH,NELLORE,14.4493717,79.9873763
"JAWAHAR NAVODAYA VIDYALAYA HAVERI, HANAGAL",5501556,12,https://kys.udiseplus.gov.in/#/reportcard/5501556/12,https://kys.udiseplus.gov.in/#/reportcard/5501556/12,https://kys.udiseplus.gov.in/api/school/report-card?schoolId=5501556&yearId=10,KARNATAKA,HAVERI,14.7180267,75.3656423
"JAWAHAR NAVODAYA VIDYALAYA DHARASHIV, TULJAPUR",4564621,12,https://kys.udiseplus.gov.in/#/reportcard/4564621/12,https://kys.udiseplus.gov.in/#/reportcard/4564621/12,https://kys.udiseplus.gov.in/api/school/report-card?schoolId=4564621&yearId=10,MAHARASHTRA,DHARASHIV,18.1698440,76.1179632
"JAWAHAR NAVODAYA VIDYALAYA LATUR, LATUR",4604272,12,https://kys.udiseplus.gov.in/#/reportcard/4604272/12,https://kys.udiseplus.gov.in/#/reportcard/4604272/12,https://kys.udiseplus.gov.in/api/school/report-card?schoolId=4604272&yearId=10,MAHARASHTRA,LATUR,18.3553347,76.7548997
"JAWAHAR NAVODAYA VIDYALAYA JHABUA, THANDLA",3954694,12,https://kys.udiseplus.gov.in/#/reportcard/3954694/12,https://kys.udiseplus.gov.in/#/reportcard/3954694/12,https://kys.udiseplus.gov.in/api/school/report-card?schoolId=3954694&yearId=10,MADHYA PRADESH,JHABUA,22.8869652,74.7243249
"JAWAHAR NAVODAYA VIDYALAYA DEWAS, KANNOD",3905288,12,https://kys.udiseplus.gov.in/#/reportcard/3905288/12,https://kys.udiseplus.gov.in/#/reportcard/3905288/12,https://kys.udiseplus.gov.in/api/school/report-card?schoolId=3905288&yearId=10,MADHYA PRADESH,DEWAS,22.8057498,76.2940408
"JAWAHAR NAVODAYA VIDYALAYA PANNA, PANNA",3908365,12,https://kys.udiseplus.gov.in/#/reportcard/3908365/12,https://kys.udiseplus.gov.in/#/reportcard/3908365/12,https://kys.udiseplus.gov.in/api/school/report-card?schoolId=3908365&yearId=10,MADHYA PRADESH,PANNA,24.4498931,80.1462723
"JAWAHAR NAVODAYA VIDYALAYA DAMOH, HATTA",4009512,12,https://kys.udiseplus.gov.in/#/reportcard/4009512/12,https://kys.udiseplus.gov.in/#/reportcard/4009512/12,https://kys.udiseplus.gov.in/api/school/report-card?schoolId=4009512&yearId=10,MADHYA PRADESH,DAMOH,23.7981005,79.5419356
"JAWAHAR NAVODAYA VIDYALAYA SAGAR, KHURAI",3900636,12,https://kys.udiseplus.gov.in/#/reportcard/3900636/12,https://kys.udiseplus.gov.in/#/reportcard/3900636/12,https://kys.udiseplus.gov.in/api/school/report-card?schoolId=3900636&yearId=10,MADHYA PRADESH,SAGAR,23.8083076,78.7582540
"JAWAHAR NAVODAYA VIDYALAYA CHHATARPUR, NOWGONG",4038545,12,https://kys.udiseplus.gov.in/#/reportcard/4038545/12,https://kys.udiseplus.gov.in/#/reportcard/4038545/12,https://kys.udiseplus.gov.in/api/school/report-card?schoolId=4038545&yearId=10,MADHYA PRADESH,CHHATARPUR,24.7606089,79.6781776
"JAWAHAR NAVODAYA VIDYALAYA TIKAMGARH, TIKAMGARH",3933602,12,https://kys.udiseplus.gov.in/#/reportcard/3933602/12,https://kys.udiseplus.gov.in/#/reportcard/3933602/12,https://kys.udiseplus.gov.in/api/school/report-card?schoolId=3933602&yearId=10,MADHYA PRADESH,TIKAMGARH,24.8552105,79.0472546
CMS  JAWAHAR NAVODAY SCHOOL,4042188,12,https://kys.udiseplus.gov.in/#/reportcard/4042188/12,https://kys.udiseplus.gov.in/#/reportcard/4042188/12,https://kys.udiseplus.gov.in/api/school/report-card?schoolId=4042188&yearId=10,,,33.0052705,-79.9870330
"JAWAHAR NAVODAYA VIDYALAYA GUNA, GUNA",3969351,12,https://kys.udiseplus.gov.in/#/reportcard/3969351/12,https://kys.udiseplus.gov.in/#/reportcard/3969351/12,https://kys.udiseplus.gov.in/api/school/report-card?schoolId=3969351&yearId=10,MADHYA PRADESH,GUNA,24.5001772,77.2600959
"JAWAHAR NAVODAYA VIDYALAYA SHIVPURI, NARWAR",3982380,12,https://kys.udiseplus.gov.in/#/reportcard/3982380/12,https://kys.udiseplus.gov.in/#/reportcard/3982380/12,https://kys.udiseplus.gov.in/api/school/report-card?schoolId=3982380&yearId=10,MADHYA PRADESH,SHIVPURI,25.3741215,77.8278866
"JAWAHAR NAVODAYA VIDYALAYA MORENA, JOURA",3948932,12,https://kys.udiseplus.gov.in/#/reportcard/3948932/12,https://kys.udiseplus.gov.in/#/reportcard/3948932/12,https://kys.udiseplus.gov.in/api/school/report-card?schoolId=3948932&yearId=10,MADHYA PRADESH,MORENA,26.3849794,77.8612721
"JAWAHAR NAVODAYA VIDYALAYA BHIND, RAUN",4037018,12,https://kys.udiseplus.gov.in/#/reportcard/4037018/12,https://kys.udiseplus.gov.in/#/reportcard/4037018/12,https://kys.udiseplus.gov.in/api/school/report-card?schoolId=4037018&yearId=10,MADHYA PRADESH,BHIND,26.3518828,78.6863189
"JAWAHAR NAVODAYA VIDYALAYA SURAJPUR, SURAJPUR",3852569,12,https://kys.udiseplus.gov.in/#/reportcard/3852569/12,https://kys.udiseplus.gov.in/#/reportcard/3852569/12,https://kys.udiseplus.gov.in/api/school/report-card?schoolId=3852569&yearId=10,CHHATTISGARH,SURAJPUR,23.3577769,82.9761277
"JAWAHAR NAVODAYA VIDYALAYA SHEOPUR, SHEOPUR",4001069,12,https://kys.udiseplus.gov.in/#/reportcard/4001069/12,https://kys.udiseplus.gov.in/#/reportcard/4001069/12,https://kys.udiseplus.gov.in/api/school/report-card?schoolId=4001069&yearId=10,MADHYA PRADESH,SHEOPUR,25.7499266,76.9212945
"JAWAHAR NAVODAYA VIDYALAYA GWALIOR, DABRA",4020581,12,https://kys.udiseplus.gov.in/#/reportcard/4020581/12,https://kys.udiseplus.gov.in/#/reportcard/4020581/12,https://kys.udiseplus.gov.in/api/school/report-card?schoolId=4020581&yearId=10,MADHYA PRADESH,GWALIOR,26.2037247,78.1573628
"JAWAHAR NAVODAYA VIDYALAYA DATIA, DATIA",4011045,12,https://kys.udiseplus.gov.in/#/reportcard/4011045/12,https://kys.udiseplus.gov.in/#/reportcard/4011045/12,https://kys.udiseplus.gov.in/api/school/report-card?schoolId=4011045&yearId=10,MADHYA PRADESH,DATIA,25.9182946,78.6644962
"JAWAHAR NAVODAYA VIDYALAYA SHAHDOL, BEOHARI",3989592,12,https://kys.udiseplus.gov.in/#/reportcard/3989592/12,https://kys.udiseplus.gov.in/#/reportcard/3989592/12,https://kys.udiseplus.gov.in/api/school/report-card?schoolId=3989592&yearId=10,MADHYA PRADESH,SHAHDOL,23.3002343,81.3647710
"JAWAHAR NAVODAYA VIDYALAYA REWA, SIRMOUR",3996905,12,https://kys.udiseplus.gov.in/#/reportcard/3996905/12,https://kys.udiseplus.gov.in/#/reportcard/3996905/12,https://kys.udiseplus.gov.in/api/school/report-card?schoolId=3996905&yearId=10,MADHYA PRADESH,REWA,24.7560846,81.3810574
"JAWAHAR NAVODAYA VIDYALAYA SATNA, NAGOD",3970534,12,https://kys.udiseplus.gov.in/#/reportcard/3970534/12,https://kys.udiseplus.gov.in/#/reportcard/3970534/12,https://kys.udiseplus.gov.in/api/school/report-card?schoolId=3970534&yearId=10,MADHYA PRADESH,SATNA,24.6954445,80.7770348
"JAWAHAR NAVODAYA VIDYALAYA NEEMUCH, RAMPURA",4021345,12,https://kys.udiseplus.gov.in/#/reportcard/4021345/12,https://kys.udiseplus.gov.in/#/reportcard/4021345/12,https://kys.udiseplus.gov.in/api/school/report-card?schoolId=4021345&yearId=10,MADHYA PRADESH,NEEMUCH,24.6305517,75.1829000
"JAWAHAR NAVODAYA VIDYALAYA JHABUA, JHABUA",4060624,12,https://kys.udiseplus.gov.in/#/reportcard/4060624/12,https://kys.udiseplus.gov.in/#/reportcard/4060624/12,https://kys.udiseplus.gov.in/api/school/report-card?schoolId=4060624&yearId=10,MADHYA PRADESH,JHABUA,22.8869652,74.7243249
"JAWAHAR NAVODAYA VIDYALAYA MANDSAUR, SITAMAU",3982472,12,https://kys.udiseplus.gov.in/#/reportcard/3982472/12,https://kys.udiseplus.gov.in/#/reportcard/3982472/12,https://kys.udiseplus.gov.in/api/school/report-card?schoolId=3982472&yearId=10,MADHYA PRADESH,MANDSAUR,24.2628148,75.3856920
"JAWAHAR NAVODAYA VIDYALAYA VIDISHA, SHAMSHABAD (NATERAN)",3943952,12,https://kys.udiseplus.gov.in/#/reportcard/3943952/12,https://kys.udiseplus.gov.in/#/reportcard/3943952/12,https://kys.udiseplus.gov.in/api/school/report-card?schoolId=3943952&yearId=10,MADHYA PRADESH,VIDISHA,23.8463003,77.8370209
"JAWAHAR NAVODAYA VIDYALAYA BARWANI, RAJPUR ",3978693,12,https://kys.udiseplus.gov.in/#/reportcard/3978693/12,https://kys.udiseplus.gov.in/#/reportcard/3978693/12,https://kys.udiseplus.gov.in/api/school/report-card?schoolId=3978693&yearId=10,MADHYA PRADESH,BARWANI,21.7514248,74.8915957
"JAWAHAR NAVODAYA VIDYALAYA KHARGONE, BARWAHA",4043277,12,https://kys.udiseplus.gov.in/#/reportcard/4043277/12,https://kys.udiseplus.gov.in/#/reportcard/4043277/12,https://kys.udiseplus.gov.in/api/school/report-card?schoolId=4043277&yearId=10,MADHYA PRADESH,KHARGONE,21.9544729,75.7521248
"JAWAHAR NAVODAYA VIDYALAYA BETUL, PRABHATPATTAN",3913147,12,https://kys.udiseplus.gov.in/#/reportcard/3913147/12,https://kys.udiseplus.gov.in/#/reportcard/3913147/12,https://kys.udiseplus.gov.in/api/school/report-card?schoolId=3913147&yearId=10,MADHYA PRADESH,BETUL,21.8797472,77.8753651
"JAWAHAR NAVODAYA VIDYALAYA INDORE, MHOW",3972318,12,https://kys.udiseplus.gov.in/#/reportcard/3972318/12,https://kys.udiseplus.gov.in/#/reportcard/3972318/12,https://kys.udiseplus.gov.in/api/school/report-card?schoolId=3972318&yearId=10,MADHYA PRADESH,INDORE,22.7203616,75.8681996
"JAWAHAR NAVODAYA VIDYALAYA RAJGARH, RAJGARH",4038961,12,https://kys.udiseplus.gov.in/#/reportcard/4038961/12,https://kys.udiseplus.gov.in/#/reportcard/4038961/12,https://kys.udiseplus.gov.in/api/school/report-card?schoolId=4038961&yearId=10,MADHYA PRADESH,RAJGARH,23.8716706,76.7744703
"JAWAHAR NAVODAYA VIDYALAYA BHOPAL, PHANDA",4020588,12,https://kys.udiseplus.gov.in/#/reportcard/4020588/12,https://kys.udiseplus.gov.in/#/reportcard/4020588/12,https://kys.udiseplus.gov.in/api/school/report-card?schoolId=4020588&yearId=10,MADHYA PRADESH,BHOPAL,23.2584857,77.4019890
"JAWAHAR NAVODAYA VIDYALAYA HARDA, KHIRKIYA",4021209,12,https://kys.udiseplus.gov.in/#/reportcard/4021209/12,https://kys.udiseplus.gov.in/#/reportcard/4021209/12,https://kys.udiseplus.gov.in/api/school/report-card?schoolId=4021209&yearId=10,MADHYA PRADESH,HARDA,22.2427972,77.1179173
"JAWAHAR NAVODAYA VIDYALAYA KHANDWA, PANDHANA",3929871,12,https://kys.udiseplus.gov.in/#/reportcard/3929871/12,https://kys.udiseplus.gov.in/#/reportcard/3929871/12,https://kys.udiseplus.gov.in/api/school/report-card?schoolId=3929871&yearId=10,MADHYA PRADESH,KHANDWA,21.8203752,76.3555424
"JAWAHAR NAVODAYA VIDYALAYA UJJAIN, GHATIA",3904459,12,https://kys.udiseplus.gov.in/#/reportcard/3904459/12,https://kys.udiseplus.gov.in/#/reportcard/3904459/12,https://kys.udiseplus.gov.in/api/school/report-card?schoolId=3904459&yearId=10,MADHYA PRADESH,UJJAIN,23.1885131,75.7716562
"JAWAHAR NAVODAYA VIDYALAYA DHAR, BADNAWAR",3971677,12,https://kys.udiseplus.gov.in/#/reportcard/3971677/12,https://kys.udiseplus.gov.in/#/reportcard/3971677/12,https://kys.udiseplus.gov.in/api/school/report-card?schoolId=3971677&yearId=10,MADHYA PRADESH,DHAR,22.5786572,75.2258637
"JAWAHAR NAVODAYA VIDYALAYA UJJAIN, KHACHROD",3949990,12,https://kys.udiseplus.gov.in/#/reportcard/3949990/12,https://kys.udiseplus.gov.in/#/reportcard/3949990/12,https://kys.udiseplus.gov.in/api/school/report-card?schoolId=3949990&yearId=10,MADHYA PRADESH,UJJAIN,23.1885131,75.7716562
"JAWAHAR NAVODAYA VIDYALAYA RATLAM, ALOTE",4060979,12,https://kys.udiseplus.gov.in/#/reportcard/4060979/12,https://kys.udiseplus.gov.in/#/reportcard/4060979/12,https://kys.udiseplus.gov.in/api/school/report-card?schoolId=4060979&yearId=10,MADHYA PRADESH,RATLAM,23.5022200,74.9551534
"JAWAHAR NAVODAYA VIDYALAYA NARMADAPURAM, NARMADAPURAM",3964617,12,https://kys.udiseplus.gov.in/#/reportcard/3964617/12,https://kys.udiseplus.gov.in/#/reportcard/3964617/12,https://kys.udiseplus.gov.in/api/school/report-card?schoolId=3964617&yearId=10,MADHYA PRADESH,HOSHANGABAD,22.7545538,77.7198249
"JAWAHAR NAVODAYA VIDYALAYA SEHORE, SHYAMPUR",4042235,12,https://kys.udiseplus.gov.in/#/reportcard/4042235/12,https://kys.udiseplus.gov.in/#/reportcard/4042235/12,https://kys.udiseplus.gov.in/api/school/report-card?schoolId=4042235&yearId=10,MADHYA PRADESH,SEHORE,23.1150041,77.0665356
"JAWAHAR NAVODAYA VIDYALAYA NAGPUR, PARSEONI ",4504083,12,https://kys.udiseplus.gov.in/#/reportcard/4504083/12,https://kys.udiseplus.gov.in/#/reportcard/4504083/12,https://kys.udiseplus.gov.in/api/school/report-card?schoolId=4504083&yearId=10,MAHARASHTRA,NAGPUR,21.1498134,79.0820556
"JAWAHAR NAVODAYA VIDYALAYA GONDIA, ARJUNI MORGAON ",4575462,12,https://kys.udiseplus.gov.in/#/reportcard/4575462/12,https://kys.udiseplus.gov.in/#/reportcard/4575462/12,https://kys.udiseplus.gov.in/api/school/report-card?schoolId=4575462&yearId=10,MAHARASHTRA,GONDIYA,21.1456285,80.2683867
"JAWAHAR NAVODAYA VIDYALAYA BHANDARA, MOHADI",4613168,12,https://kys.udiseplus.gov.in/#/reportcard/4613168/12,https://kys.udiseplus.gov.in/#/reportcard/4613168/12,https://kys.udiseplus.gov.in/api/school/report-card?schoolId=4613168&yearId=10,MAHARASHTRA,BHANDARA,21.1225869,79.7945090
"JAWAHAR NAVODAYA VIDYALAYA WARDHA, WARDHA",4509459,12,https://kys.udiseplus.gov.in/#/reportcard/4509459/12,https://kys.udiseplus.gov.in/#/reportcard/4509459/12,https://kys.udiseplus.gov.in/api/school/report-card?schoolId=4509459&yearId=10,MAHARASHTRA,WARDHA,20.8256231,78.6131455
"JAWAHAR NAVODAYA VIDYALAYA AMRAVATI, AMRAVATI ",4585093,12,https://kys.udiseplus.gov.in/#/reportcard/4585093/12,https://kys.udiseplus.gov.in/#/reportcard/4585093/12,https://kys.udiseplus.gov.in/api/school/report-card?schoolId=4585093&yearId=10,MAHARASHTRA,AMRAVATI,21.1545412,77.6442962
"JAWAHAR NAVODAYA VIDYALAYA CHHATRAPATI SAMBHAJINAGAR, KANNAD",4581944,12,https://kys.udiseplus.gov.in/#/reportcard/4581944/12,https://kys.udiseplus.gov.in/#/reportcard/4581944/12,https://kys.udiseplus.gov.in/api/school/report-card?schoolId=4581944&yearId=10,MAHARASHTRA,CHHATRAPATI SAMBHAJINAGAR,20.0224932,75.1515442
"JAWAHAR NAVODAYA VIDYALAYA GADCHIROLI, CHAMORSHI",4587041,12,https://kys.udiseplus.gov.in/#/reportcard/4587041/12,https://kys.udiseplus.gov.in/#/reportcard/4587041/12,https://kys.udiseplus.gov.in/api/school/report-card?schoolId=4587041&yearId=10,MAHARASHTRA,GADCHIROLI,19.7590704,80.1622807
"JAWAHAR NAVODAYA VIDYALAYA HINGOLI, BASMATH",4581964,12,https://kys.udiseplus.gov.in/#/reportcard/4581964/12,https://kys.udiseplus.gov.in/#/reportcard/4581964/12,https://kys.udiseplus.gov.in/api/school/report-card?schoolId=4581964&yearId=10,MAHARASHTRA,HINGOLI,19.5431163,77.1739432
"JAWAHAR NAVODAYA VIDYALAYA YAVATMAL, GHATANJI",4514767,12,https://kys.udiseplus.gov.in/#/reportcard/4514767/12,https://kys.udiseplus.gov.in/#/reportcard/4514767/12,https://kys.udiseplus.gov.in/api/school/report-card?schoolId=4514767&yearId=10,MAHARASHTRA,YAVATMAL,20.0638677,78.3565663
"JAWAHAR NAVODAYA VIDYALAYA CHANDRAPUR, NAGBHID",4606963,12,https://kys.udiseplus.gov.in/#/reportcard/4606963/12,https://kys.udiseplus.gov.in/#/reportcard/4606963/12,https://kys.udiseplus.gov.in/api/school/report-card?schoolId=4606963&yearId=10,MAHARASHTRA,CHANDRAPUR,20.0967555,79.5045475
"JAWAHAR NAVODAYA VIDYALAYA PUNE, SHIRUR",4555489,12,https://kys.udiseplus.gov.in/#/reportcard/4555489/12,https://kys.udiseplus.gov.in/#/reportcard/4555489/12,https://kys.udiseplus.gov.in/api/school/report-card?schoolId=4555489&yearId=10,MAHARASHTRA,PUNE,18.5213738,73.8545071
"JAWAHAR NAVODAYA VIDYALAYA RAIGAD, MANGAON",4561136,12,https://kys.udiseplus.gov.in/#/reportcard/4561136/12,https://kys.udiseplus.gov.in/#/reportcard/4561136/12,https://kys.udiseplus.gov.in/api/school/report-card?schoolId=4561136&yearId=10,MAHARASHTRA,RAIGARH (MAHARASHTRA),19.0342426,73.0627866
"JAWAHAR NAVODAYA VIDYALAYA AHMEDNAGAR, PARNER ",4535971,12,https://kys.udiseplus.gov.in/#/reportcard/4535971/12,https://kys.udiseplus.gov.in/#/reportcard/4535971/12,https://kys.udiseplus.gov.in/api/school/report-card?schoolId=4535971&yearId=10,MAHARASHTRA,AHMADNAGAR,19.0743520,74.7219979
"JAWAHAR NAVODAYA VIDYALAYA BEED, GEORAI",4593537,12,https://kys.udiseplus.gov.in/#/reportcard/4593537/12,https://kys.udiseplus.gov.in/#/reportcard/4593537/12,https://kys.udiseplus.gov.in/api/school/report-card?schoolId=4593537&yearId=10,MAHARASHTRA,BID,20.1478882,77.8803527
"JAWAHAR NAVODAYA VIDYALAYA JALGAON, BHUSAWAL",4556548,12,https://kys.udiseplus.gov.in/#/reportcard/4556548/12,https://kys.udiseplus.gov.in/#/reportcard/4556548/12,https://kys.udiseplus.gov.in/api/school/report-card?schoolId=4556548&yearId=10,MAHARASHTRA,JALGAON,20.8428826,75.5261246
"JAWAHAR NAVODAYA VIDYALAYA AKOLA, AKOLA ",4600551,12,https://kys.udiseplus.gov.in/#/reportcard/4600551/12,https://kys.udiseplus.gov.in/#/reportcard/4600551/12,https://kys.udiseplus.gov.in/api/school/report-card?schoolId=4600551&yearId=10,MAHARASHTRA,AKOLA,20.7618123,77.1921157
"JAWAHAR NAVODAYA VIDYALAYA BULDANA, SHEGAON ",4577835,12,https://kys.udiseplus.gov.in/#/reportcard/4577835/12,https://kys.udiseplus.gov.in/#/reportcard/4577835/12,https://kys.udiseplus.gov.in/api/school/report-card?schoolId=4577835&yearId=10,MAHARASHTRA,BULDANA,20.5628450,76.4086986
"JAWAHAR NAVODAYA VIDYALAYA WASHIM, WASHIM",4545565,12,https://kys.udiseplus.gov.in/#/reportcard/4545565/12,https://kys.udiseplus.gov.in/#/reportcard/4545565/12,https://kys.udiseplus.gov.in/api/school/report-card?schoolId=4545565&yearId=10,MAHARASHTRA,WASHIM,20.2874178,77.2369655
"JAWAHAR NAVODAYA VIDYALAYA NANDURBAR II, NAVAPUR ",4613173,12,https://kys.udiseplus.gov.in/#/reportcard/4613173/12,https://kys.udiseplus.gov.in/#/reportcard/4613173/12,https://kys.udiseplus.gov.in/api/school/report-card?schoolId=4613173&yearId=10,MAHARASHTRA,NANDURBAR,21.5141622,74.5405513
"JAWAHAR NAVODAYA VIDYALAYA CHHOTAUDEPUR, KAWANT ",4255817,12,https://kys.udiseplus.gov.in/#/reportcard/4255817/12,https://kys.udiseplus.gov.in/#/reportcard/4255817/12,https://kys.udiseplus.gov.in/api/school/report-card?schoolId=4255817&yearId=10,GUJARAT,CHHOTAUDEPUR,,
"JAWAHAR NAVODAYA VIDYALAYA GIR SOMNATH, KODINAR",4207671,12,https://kys.udiseplus.gov.in/#/reportcard/4207671/12,https://kys.udiseplus.gov.in/#/reportcard/4207671/12,https://kys.udiseplus.gov.in/api/school/report-card?schoolId=4207671&yearId=10,GUJARAT,GIR SOMNATH,20.9298181,70.7627578
"JAWAHAR NAVODAYA VIDYALAYA DAMAN, DAMAN",4300054,12,https://kys.udiseplus.gov.in/#/reportcard/4300054/12,https://kys.udiseplus.gov.in/#/reportcard/4300054/12,https://kys.udiseplus.gov.in/api/school/report-card?schoolId=4300054&yearId=10,DADRA & NAGAR HAVELI AND DAMAN & DIU,DAMAN (DIST),,
"JAWAHAR NAVODAYA VIDYALAYA NANDURBAR I, AKKALKUWA",4534088,12,https://kys.udiseplus.gov.in/#/reportcard/4534088/12,https://kys.udiseplus.gov.in/#/reportcard/4534088/12,https://kys.udiseplus.gov.in/api/school/report-card?schoolId=4534088&yearId=10,MAHARASHTRA,NANDURBAR,21.5141622,74.5405513
"JAWAHAR NAVODAYA VIDYALAYA SILVASSA, DADRA AND NAGAR HAVELI",4400032,12,https://kys.udiseplus.gov.in/#/reportcard/4400032/12,https://kys.udiseplus.gov.in/#/reportcard/4400032/12,https://kys.udiseplus.gov.in/api/school/report-card?schoolId=4400032&yearId=10,DADRA & NAGAR HAVELI AND DAMAN & DIU,DADRA AND NAGAR HAVELI(DIST),,
"JAWAHAR NAVODAYA VIDYALAYA NAVSARI, VANSDA",4235032,12,https://kys.udiseplus.gov.in/#/reportcard/4235032/12,https://kys.udiseplus.gov.in/#/reportcard/4235032/12,https://kys.udiseplus.gov.in/api/school/report-card?schoolId=4235032&yearId=10,GUJARAT,NAVSARI,20.9524070,72.9323831
"JAWAHAR NAVODAYA VIDYALAYA VALSAD, KAPRADA",4219058,12,https://kys.udiseplus.gov.in/#/reportcard/4219058/12,https://kys.udiseplus.gov.in/#/reportcard/4219058/12,https://kys.udiseplus.gov.in/api/school/report-card?schoolId=4219058&yearId=10,GUJARAT,VALSAD,20.4321957,73.1409893
"JAWAHAR NAVODAYA VIDYALAYA JALNA, PARTUR",4522440,12,https://kys.udiseplus.gov.in/#/reportcard/4522440/12,https://kys.udiseplus.gov.in/#/reportcard/4522440/12,https://kys.udiseplus.gov.in/api/school/report-card?schoolId=4522440&yearId=10,MAHARASHTRA,JALNA,19.9188330,75.8708599
"JAWAHAR NAVODAYA VIDYALAYA NANDED, BILOLI",4522583,12,https://kys.udiseplus.gov.in/#/reportcard/4522583/12,https://kys.udiseplus.gov.in/#/reportcard/4522583/12,https://kys.udiseplus.gov.in/api/school/report-card?schoolId=4522583&yearId=10,MAHARASHTRA,NANDED,19.0940088,77.4831922
"JAWAHAR NAVODAYA VIDYALAYA MORBI, WANKANER",4255786,12,https://kys.udiseplus.gov.in/#/reportcard/4255786/12,https://kys.udiseplus.gov.in/#/reportcard/4255786/12,https://kys.udiseplus.gov.in/api/school/report-card?schoolId=4255786&yearId=10,GUJARAT,MORBI,22.8003959,70.8862320
"JAWAHAR NAVODAYA VIDYALAYA DIU, DIU",4300138,12,https://kys.udiseplus.gov.in/#/reportcard/4300138/12,https://kys.udiseplus.gov.in/#/reportcard/4300138/12,https://kys.udiseplus.gov.in/api/school/report-card?schoolId=4300138&yearId=10,DADRA & NAGAR HAVELI AND DAMAN & DIU,DIU (DIST),,
"JAWAHAR NAVODAYA VIDYALAYA MAHISAGAR, BALASINOR",4235447,12,https://kys.udiseplus.gov.in/#/reportcard/4235447/12,https://kys.udiseplus.gov.in/#/reportcard/4235447/12,https://kys.udiseplus.gov.in/api/school/report-card?schoolId=4235447&yearId=10,GUJARAT,MAHISAGAR,23.1912194,73.6644398
"JAWAHAR NAVODAYA VIDYALAYA DHULE, DHULE",4582421,12,https://kys.udiseplus.gov.in/#/reportcard/4582421/12,https://kys.udiseplus.gov.in/#/reportcard/4582421/12,https://kys.udiseplus.gov.in/api/school/report-card?schoolId=4582421&yearId=10,MAHARASHTRA,DHULE,21.1305215,74.4900614
"JAWAHAR NAVODAYA VIDYALAYA DEVBHUMI DWARKA, JAMKALYANPUR",4220374,12,https://kys.udiseplus.gov.in/#/reportcard/4220374/12,https://kys.udiseplus.gov.in/#/reportcard/4220374/12,https://kys.udiseplus.gov.in/api/school/report-card?schoolId=4220374&yearId=10,GUJARAT,DEVBHOOMI DWARKA,22.2360155,68.9658698
"JAWAHAR NAVODAYA VIDYALAYA TAPI, VYARA",4228274,12,https://kys.udiseplus.gov.in/#/reportcard/4228274/12,https://kys.udiseplus.gov.in/#/reportcard/4228274/12,https://kys.udiseplus.gov.in/api/school/report-card?schoolId=4228274&yearId=10,GUJARAT,TAPI,21.1916567,73.5560631
"JAWAHAR NAVODAYA VIDYALAYA BOTAD, BOTAD ",4234847,12,https://kys.udiseplus.gov.in/#/reportcard/4234847/12,https://kys.udiseplus.gov.in/#/reportcard/4234847/12,https://kys.udiseplus.gov.in/api/school/report-card?schoolId=4234847&yearId=10,GUJARAT,BOTAD,22.0467097,71.6689617
"JAWAHAR NAVODAYA VIDYALAYA ARVALLI, DHANSURA",4219481,12,https://kys.udiseplus.gov.in/#/reportcard/4219481/12,https://kys.udiseplus.gov.in/#/reportcard/4219481/12,https://kys.udiseplus.gov.in/api/school/report-card?schoolId=4219481&yearId=10,GUJARAT,ARAVALLI,23.4843216,73.3986096
"JAWAHAR NAVODAYA VIDYALAYA ANAND, BORSAD",4248989,12,https://kys.udiseplus.gov.in/#/reportcard/4248989/12,https://kys.udiseplus.gov.in/#/reportcard/4248989/12,https://kys.udiseplus.gov.in/api/school/report-card?schoolId=4248989&yearId=10,GUJARAT,ANAND,22.5586555,72.9627227
"JAWAHAR NAVODAYA VIDYALAYA BHAVNAGAR, TALAJA",4240350,12,https://kys.udiseplus.gov.in/#/reportcard/4240350/12,https://kys.udiseplus.gov.in/#/reportcard/4240350/12,https://kys.udiseplus.gov.in/api/school/report-card?schoolId=4240350&yearId=10,GUJARAT,BHAVNAGAR,21.7718836,72.1416449
"JAWAHAR NAVODAYA VIDYALAYA JUNAGADH, JUNAGADH",4247900,12,https://kys.udiseplus.gov.in/#/reportcard/4247900/12,https://kys.udiseplus.gov.in/#/reportcard/4247900/12,https://kys.udiseplus.gov.in/api/school/report-card?schoolId=4247900&yearId=10,GUJARAT,JUNAGADH,21.5220416,70.4582458
"JAWAHAR NAVODAYA VIDYALAYA NAGARKURNOOL, BIJINEPALLY",5407601,12,https://kys.udiseplus.gov.in/#/reportcard/5407601/12,https://kys.udiseplus.gov.in/#/reportcard/5407601/12,https://kys.udiseplus.gov.in/api/school/report-card?schoolId=5407601&yearId=10,TELANGANA,NAGARKURNOOL,16.4157626,78.6830433
"JAWAHAR NAVODAYA VIDYALAYA KHAMMAM, VAI KUSUMANCHI",5401688,12,https://kys.udiseplus.gov.in/#/reportcard/5401688/12,https://kys.udiseplus.gov.in/#/reportcard/5401688/12,https://kys.udiseplus.gov.in/api/school/report-card?schoolId=5401688&yearId=10,TELANGANA,KHAMMAM,17.2465351,80.1500326
"JAWAHAR NAVODAYA VIDYALAYA RANGAREDDY, SHERLINGAMPALLY",5436888,12,https://kys.udiseplus.gov.in/#/reportcard/5436888/12,https://kys.udiseplus.gov.in/#/reportcard/5436888/12,https://kys.udiseplus.gov.in/api/school/report-card?schoolId=5436888&yearId=10,TELANGANA,RANGAREDDY,16.9344152,77.7788338
"JAWAHAR NAVODAYA VIDYALAYA SIDDIPET, GAJWEL",5436991,12,https://kys.udiseplus.gov.in/#/reportcard/5436991/12,https://kys.udiseplus.gov.in/#/reportcard/5436991/12,https://kys.udiseplus.gov.in/api/school/report-card?schoolId=5436991&yearId=10,TELANGANA,SIDDIPET,18.0055851,78.8961130
"JAWAHAR NAVODAYA VIDYALAYA PUDUCHERRY, BRC - 1",5200215,12,https://kys.udiseplus.gov.in/#/reportcard/5200215/12,https://kys.udiseplus.gov.in/#/reportcard/5200215/12,https://kys.udiseplus.gov.in/api/school/report-card?schoolId=5200215&yearId=10,PUDUCHERRY,PONDICHERRY,11.9340568,79.8306447
"JAWAHAR NAVODAYA VIDYALAYA NICOBAR, CAR NICOBAR",5300005,12,https://kys.udiseplus.gov.in/#/reportcard/5300005/12,https://kys.udiseplus.gov.in/#/reportcard/5300005/12,https://kys.udiseplus.gov.in/api/school/report-card?schoolId=5300005&yearId=10,ANDAMAN & NICOBAR ISLANDS,NICOBARS,,
"JAWAHAR NAVODAYA VIDYALAYA KARAIKAL, KARAIKAL",5200181,12,https://kys.udiseplus.gov.in/#/reportcard/5200181/12,https://kys.udiseplus.gov.in/#/reportcard/5200181/12,https://kys.udiseplus.gov.in/api/school/report-card?schoolId=5200181&yearId=10,PUDUCHERRY,KARAIKAL,10.9157100,79.8375761
"JAWAHAR NAVODAYA VIDYALAYA SOUTH ANDAMAN, FERRARGUNJ",5300341,12,https://kys.udiseplus.gov.in/#/reportcard/5300341/12,https://kys.udiseplus.gov.in/#/reportcard/5300341/12,https://kys.udiseplus.gov.in/api/school/report-card?schoolId=5300341&yearId=10,ANDAMAN & NICOBAR ISLANDS,ANDAMANS,11.9843744,92.9559795
"JAWAHAR NAVODAYA VIDYALAYA YANAM, YANAM",5200721,12,https://kys.udiseplus.gov.in/#/reportcard/5200721/12,https://kys.udiseplus.gov.in/#/reportcard/5200721/12,https://kys.udiseplus.gov.in/api/school/report-card?schoolId=5200721&yearId=10,PUDUCHERRY,YANAM,16.7332235,82.2018118
"JAWAHAR NAVODAYA VIDYALAYA KUMURAM BHEEM ASIFABAD, KAGAZNAGAR",5432147,12,https://kys.udiseplus.gov.in/#/reportcard/5432147/12,https://kys.udiseplus.gov.in/#/reportcard/5432147/12,https://kys.udiseplus.gov.in/api/school/report-card?schoolId=5432147&yearId=10,TELANGANA,KUMURAM BHEEM ASIFABAD,19.3338189,79.4219793
"JAWAHAR NAVODAYA VIDYALAYA NORTH AND MIDDLE ANDAMAN, RANGAT",5300162,12,https://kys.udiseplus.gov.in/#/reportcard/5300162/12,https://kys.udiseplus.gov.in/#/reportcard/5300162/12,https://kys.udiseplus.gov.in/api/school/report-card?schoolId=5300162&yearId=10,ANDAMAN & NICOBAR ISLANDS,MIDDLE AND NORTH ANDAMANS,,
"JAWAHAR NAVODAYA VIDYALAYA MAHE, MAHE",5200004,12,https://kys.udiseplus.gov.in/#/reportcard/5200004/12,https://kys.udiseplus.gov.in/#/reportcard/5200004/12,https://kys.udiseplus.gov.in/api/school/report-card?schoolId=5200004&yearId=10,PUDUCHERRY,MAHE,11.7021978,75.5364701
"JAWAHAR NAVODAYA VIDYALAYA KEONJHAR, HATADIHI",3768681,12,https://kys.udiseplus.gov.in/#/reportcard/3768681/12,https://kys.udiseplus.gov.in/#/reportcard/3768681/12,https://kys.udiseplus.gov.in/api/school/report-card?schoolId=3768681&yearId=10,ODISHA,KEONJHAR,21.5000000,85.5000000
"JAWAHAR NAVODAYA VIDYALAYA SAHIBGANJ, Sahibganj",3620256,12,https://kys.udiseplus.gov.in/#/reportcard/3620256/12,https://kys.udiseplus.gov.in/#/reportcard/3620256/12,https://kys.udiseplus.gov.in/api/school/report-card?schoolId=3620256&yearId=10,JHARKHAND,SAHIBGANJ,25.0320437,87.6917640
"JAWAHAR NAVODAYA VIDYALAYA GODDA, BOARIJOR",3618053,12,https://kys.udiseplus.gov.in/#/reportcard/3618053/12,https://kys.udiseplus.gov.in/#/reportcard/3618053/12,https://kys.udiseplus.gov.in/api/school/report-card?schoolId=3618053&yearId=10,JHARKHAND,GODDA,24.8645886,87.2984838
"JAWAHAR NAVODAYA VIDYALAYA RAMGARH, PATRATU",3649394,12,https://kys.udiseplus.gov.in/#/reportcard/3649394/12,https://kys.udiseplus.gov.in/#/reportcard/3649394/12,https://kys.udiseplus.gov.in/api/school/report-card?schoolId=3649394&yearId=10,JHARKHAND,RAMGARH,23.6934790,85.5215989
"JAWAHAR NAVODAYA VIDYALAYA SAMBALPUR, DHANKAUDA",3768618,12,https://kys.udiseplus.gov.in/#/reportcard/3768618/12,https://kys.udiseplus.gov.in/#/reportcard/3768618/12,https://kys.udiseplus.gov.in/api/school/report-card?schoolId=3768618&yearId=10,ODISHA,SAMBALPUR,21.5570606,84.1528515
"JAWAHAR NAVODAYA VIDYALAYA BARGARH, PAIKMAL",3768674,12,https://kys.udiseplus.gov.in/#/reportcard/3768674/12,https://kys.udiseplus.gov.in/#/reportcard/3768674/12,https://kys.udiseplus.gov.in/api/school/report-card?schoolId=3768674&yearId=10,ODISHA,BARAGARH,21.3335004,83.6190492
"JAWAHAR NAVODAYA VIDYALAYA EAST SINGHBHUM, BAHARAGORA",3641448,12,https://kys.udiseplus.gov.in/#/reportcard/3641448/12,https://kys.udiseplus.gov.in/#/reportcard/3641448/12,https://kys.udiseplus.gov.in/api/school/report-card?schoolId=3641448&yearId=10,JHARKHAND,PURBI SINGHBHUM,,
"JAWAHAR NAVODAYA VIDYALAYA SERAIKELA, RAJNAGAR",3644878,12,https://kys.udiseplus.gov.in/#/reportcard/3644878/12,https://kys.udiseplus.gov.in/#/reportcard/3644878/12,https://kys.udiseplus.gov.in/api/school/report-card?schoolId=3644878&yearId=10,JHARKHAND,SARAIKELA-KHARSAWAN,22.7464225,85.9168929
"JAWAHAR NAVODAYA VIDYALAYA SIMDEGA, Kolebira",3645423,12,https://kys.udiseplus.gov.in/#/reportcard/3645423/12,https://kys.udiseplus.gov.in/#/reportcard/3645423/12,https://kys.udiseplus.gov.in/api/school/report-card?schoolId=3645423&yearId=10,JHARKHAND,SIMDEGA,22.5904573,84.5464805
"JAWAHAR NAVODAYA VIDYALAYA JHARSUGUDA, JHARSUGUDA",3768658,12,https://kys.udiseplus.gov.in/#/reportcard/3768658/12,https://kys.udiseplus.gov.in/#/reportcard/3768658/12,https://kys.udiseplus.gov.in/api/school/report-card?schoolId=3768658&yearId=10,ODISHA,JHARSUGUDA,21.8019368,83.9713964
"JAWAHAR NAVODAYA VIDYALAYA KHUNTI, KHUNTI",3648520,12,https://kys.udiseplus.gov.in/#/reportcard/3648520/12,https://kys.udiseplus.gov.in/#/reportcard/3648520/12,https://kys.udiseplus.gov.in/api/school/report-card?schoolId=3648520&yearId=10,JHARKHAND,KHUNTI,22.9281801,85.2814475
"JAWAHAR NAVODAYA VIDYALAYA LATEHAR, LATEHAR",3646579,12,https://kys.udiseplus.gov.in/#/reportcard/3646579/12,https://kys.udiseplus.gov.in/#/reportcard/3646579/12,https://kys.udiseplus.gov.in/api/school/report-card?schoolId=3646579&yearId=10,JHARKHAND,LATEHAR,23.6880057,84.4969551
"JAWAHAR NAVODAYA VIDYALAYA ALIPURDUAR, KUMARGRAM",3446865,12,https://kys.udiseplus.gov.in/#/reportcard/3446865/12,https://kys.udiseplus.gov.in/#/reportcard/3446865/12,https://kys.udiseplus.gov.in/api/school/report-card?schoolId=3446865&yearId=10,WEST BENGAL,ALIPURDUAR,26.4851573,89.5246926
"JAWAHAR NAVODAYA VIDYALAYA PASCHIM MEDINIPUR, MIDNAPORE SADAR",3446079,12,https://kys.udiseplus.gov.in/#/reportcard/3446079/12,https://kys.udiseplus.gov.in/#/reportcard/3446079/12,https://kys.udiseplus.gov.in/api/school/report-card?schoolId=3446079&yearId=10,WEST BENGAL,PASCHIM MEDINIPUR,22.3600118,87.4111505
"JAWAHAR NAVODAYA VIDYALAYA NORTH 24 PARGANAS, Habra I",3483391,12,https://kys.udiseplus.gov.in/#/reportcard/3483391/12,https://kys.udiseplus.gov.in/#/reportcard/3483391/12,https://kys.udiseplus.gov.in/api/school/report-card?schoolId=3483391&yearId=10,WEST BENGAL,NORTH TWENTY FOUR PARGANAS,,
"JAWAHAR NAVODAYA VIDYALAYA NADIA, CHAKDAH",3457866,12,https://kys.udiseplus.gov.in/#/reportcard/3457866/12,https://kys.udiseplus.gov.in/#/reportcard/3457866/12,https://kys.udiseplus.gov.in/api/school/report-card?schoolId=3457866&yearId=10,WEST BENGAL,NADIA,23.4847374,88.5567067
JAWAHAR NAVODAYA VIDYALAYA,3490211,11,https://kys.udiseplus.gov.in/#/reportcard/3490211/11,https://kys.udiseplus.gov.in/#/reportcard/3490211/11,https://kys.udiseplus.gov.in/api/school/report-card?schoolId=3490211&yearId=10,,,33.0052705,-79.9870330
"JAWAHAR NAVODAYA VIDYALAYA PURBA MEDINIPUR, MAHISHADAL",3419115,12,https://kys.udiseplus.gov.in/#/reportcard/3419115/12,https://kys.udiseplus.gov.in/#/reportcard/3419115/12,https://kys.udiseplus.gov.in/api/school/report-card?schoolId=3419115&yearId=10,WEST BENGAL,PURBA MEDINIPUR,22.0648451,87.8377586
"JAWAHAR NAVODAYA VIDYALAYA CHATRA, CHATRA",3605149,12,https://kys.udiseplus.gov.in/#/reportcard/3605149/12,https://kys.udiseplus.gov.in/#/reportcard/3605149/12,https://kys.udiseplus.gov.in/api/school/report-card?schoolId=3605149&yearId=10,JHARKHAND,CHATRA,24.1062316,84.8623379
"JAWAHAR NAVODAYA VIDYALAYA PALAMU, MEDININAGAR",3601969,12,https://kys.udiseplus.gov.in/#/reportcard/3601969/12,https://kys.udiseplus.gov.in/#/reportcard/3601969/12,https://kys.udiseplus.gov.in/api/school/report-card?schoolId=3601969&yearId=10,JHARKHAND,PALAMU,24.2212983,84.1725565
"JAWAHAR NAVODAYA VIDYALAYA GARHWA, GARHWA",3600272,12,https://kys.udiseplus.gov.in/#/reportcard/3600272/12,https://kys.udiseplus.gov.in/#/reportcard/3600272/12,https://kys.udiseplus.gov.in/api/school/report-card?schoolId=3600272&yearId=10,JHARKHAND,GARHWA,24.0535770,83.6526818
"JAWAHAR NAVODAYA VIDYALAYA SOUTH 24 PARGANAS, Canning II",3441397,12,https://kys.udiseplus.gov.in/#/reportcard/3441397/12,https://kys.udiseplus.gov.in/#/reportcard/3441397/12,https://kys.udiseplus.gov.in/api/school/report-card?schoolId=3441397&yearId=10,WEST BENGAL,SOUTH TWENTY FOUR PARGANAS,,
"JAWAHAR NAVODAYA VIDYALAYA HOWRAH, PANCHALA",3415641,12,https://kys.udiseplus.gov.in/#/reportcard/3415641/12,https://kys.udiseplus.gov.in/#/reportcard/3415641/12,https://kys.udiseplus.gov.in/api/school/report-card?schoolId=3415641&yearId=10,WEST BENGAL,HOWRAH,22.5736296,88.3251045
"JAWAHAR NAVODAYA VIDYALAYA GIRIDIH, GANDEY",3614266,12,https://kys.udiseplus.gov.in/#/reportcard/3614266/12,https://kys.udiseplus.gov.in/#/reportcard/3614266/12,https://kys.udiseplus.gov.in/api/school/report-card?schoolId=3614266&yearId=10,JHARKHAND,GIRIDIH,24.3314546,86.1548117
"JAWAHAR NAVODAYA VIDYALAYA DEOGARH, TILEIBANI",3768624,12,https://kys.udiseplus.gov.in/#/reportcard/3768624/12,https://kys.udiseplus.gov.in/#/reportcard/3768624/12,https://kys.udiseplus.gov.in/api/school/report-card?schoolId=3768624&yearId=10,ODISHA,DEOGARH,21.5370786,84.7301184
"JAWAHAR NAVODAYA VIDYALAYA PALAMU, HUSSAINABAD",3602483,12,https://kys.udiseplus.gov.in/#/reportcard/3602483/12,https://kys.udiseplus.gov.in/#/reportcard/3602483/12,https://kys.udiseplus.gov.in/api/school/report-card?schoolId=3602483&yearId=10,JHARKHAND,PALAMU,24.2212983,84.1725565
"JAWAHAR NAVODAYA VIDYALAYA WEST SINGHBHUM, JHINKPANI",3637790,12,https://kys.udiseplus.gov.in/#/reportcard/3637790/12,https://kys.udiseplus.gov.in/#/reportcard/3637790/12,https://kys.udiseplus.gov.in/api/school/report-card?schoolId=3637790&yearId=10,JHARKHAND,PASHCHIMI SINGHBHUM,,
"JAWAHAR NAVODAYA VIDYALAYA PASCHIM BURDWAN, DURGAPUR",3497610,12,https://kys.udiseplus.gov.in/#/reportcard/3497610/12,https://kys.udiseplus.gov.in/#/reportcard/3497610/12,https://kys.udiseplus.gov.in/api/school/report-card?schoolId=3497610&yearId=10,WEST BENGAL,PASCHIM BARDHAMAN,23.6002978,87.3041301
"JAWAHAR NAVODAYA VIDYALAYA PURULIA, Purulia II",3487525,12,https://kys.udiseplus.gov.in/#/reportcard/3487525/12,https://kys.udiseplus.gov.in/#/reportcard/3487525/12,https://kys.udiseplus.gov.in/api/school/report-card?schoolId=3487525&yearId=10,WEST BENGAL,PURULIYA,23.3333330,86.4166670
"JAWAHAR NAVODAYA VIDYALAYA BANKURA, BANKURA 1",3485130,12,https://kys.udiseplus.gov.in/#/reportcard/3485130/12,https://kys.udiseplus.gov.in/#/reportcard/3485130/12,https://kys.udiseplus.gov.in/api/school/report-card?schoolId=3485130&yearId=10,WEST BENGAL,BANKURA,23.1323770,87.2081925
"JAWAHAR NAVODAYA VIDYALAYA DARRANG, KALAIGAON",3328603,12,https://kys.udiseplus.gov.in/#/reportcard/3328603/12,https://kys.udiseplus.gov.in/#/reportcard/3328603/12,https://kys.udiseplus.gov.in/api/school/report-card?schoolId=3328603&yearId=10,ASSAM,DARRANG,26.4373481,92.0047145
"JAWAHAR NAVODAYA VIDYALAYA BAKSA, MUSHALPUR",3340864,12,https://kys.udiseplus.gov.in/#/reportcard/3340864/12,https://kys.udiseplus.gov.in/#/reportcard/3340864/12,https://kys.udiseplus.gov.in/api/school/report-card?schoolId=3340864&yearId=10,ASSAM,BAKSA,26.6275689,91.3388551
"JAWAHAR NAVODAYA VIDYALAYA KARIMGANJ, RAMKRISHNA NAGAR",3370761,12,https://kys.udiseplus.gov.in/#/reportcard/3370761/12,https://kys.udiseplus.gov.in/#/reportcard/3370761/12,https://kys.udiseplus.gov.in/api/school/report-card?schoolId=3370761&yearId=10,ASSAM,KARIMGANJ,24.5828195,92.3725486
"JAWAHAR NAVODAYA VIDYALAYA NALBARI, PUB NALBARI",3318159,12,https://kys.udiseplus.gov.in/#/reportcard/3318159/12,https://kys.udiseplus.gov.in/#/reportcard/3318159/12,https://kys.udiseplus.gov.in/api/school/report-card?schoolId=3318159&yearId=10,ASSAM,NALBARI,26.3533631,91.3983662
"JAWAHAR NAVODAYA VIDYALAYA KAMRUP, RANGIA",3321519,12,https://kys.udiseplus.gov.in/#/reportcard/3321519/12,https://kys.udiseplus.gov.in/#/reportcard/3321519/12,https://kys.udiseplus.gov.in/api/school/report-card?schoolId=3321519&yearId=10,ASSAM,KAMRUP-RURAL,,
"JAWAHAR NAVODAYA VIDYALAYA MAYURBHANJ, BETNOTI",3768683,12,https://kys.udiseplus.gov.in/#/reportcard/3768683/12,https://kys.udiseplus.gov.in/#/reportcard/3768683/12,https://kys.udiseplus.gov.in/api/school/report-card?schoolId=3768683&yearId=10,ODISHA,MAYURBHANJ,21.9156338,86.3961824
"JAWAHAR NAVODAYA VIDYALAYA RANCHI, KANKE",3630254,12,https://kys.udiseplus.gov.in/#/reportcard/3630254/12,https://kys.udiseplus.gov.in/#/reportcard/3630254/12,https://kys.udiseplus.gov.in/api/school/report-card?schoolId=3630254&yearId=10,JHARKHAND,RANCHI,23.3700501,85.3250387
"JAWAHAR NAVODAYA VIDYALAYA DHANBAD, NIRSA",3627087,12,https://kys.udiseplus.gov.in/#/reportcard/3627087/12,https://kys.udiseplus.gov.in/#/reportcard/3627087/12,https://kys.udiseplus.gov.in/api/school/report-card?schoolId=3627087&yearId=10,JHARKHAND,DHANBAD,23.7952809,86.4309638
"JAWAHAR NAVODAYA VIDYALAYA JAMTARA, FATHEPUR",3643380,12,https://kys.udiseplus.gov.in/#/reportcard/3643380/12,https://kys.udiseplus.gov.in/#/reportcard/3643380/12,https://kys.udiseplus.gov.in/api/school/report-card?schoolId=3643380&yearId=10,JHARKHAND,JAMTARA,23.9801639,86.9243637
"JAWAHAR NAVODAYA VIDYALAYA LAKHIMPUR, BIHPURIA",3301580,12,https://kys.udiseplus.gov.in/#/reportcard/3301580/12,https://kys.udiseplus.gov.in/#/reportcard/3301580/12,https://kys.udiseplus.gov.in/api/school/report-card?schoolId=3301580&yearId=10,ASSAM,LAKHIMPUR,27.1763356,94.1992932
"JAWAHAR NAVODAYA VIDYALAYA BISWANATH, BISWANATH",3323615,12,https://kys.udiseplus.gov.in/#/reportcard/3323615/12,https://kys.udiseplus.gov.in/#/reportcard/3323615/12,https://kys.udiseplus.gov.in/api/school/report-card?schoolId=3323615&yearId=10,ASSAM,BISWANATH,26.7938596,93.3591936
"JAWAHAR NAVODAYA VIDYALAYA, KAMRUP METRO",3374133,12,https://kys.udiseplus.gov.in/#/reportcard/3374133/12,https://kys.udiseplus.gov.in/#/reportcard/3374133/12,https://kys.udiseplus.gov.in/api/school/report-card?schoolId=3374133&yearId=10,ASSAM,KAMRUP-METRO,26.1161783,91.7972485
"JAWAHAR NAVODAYA VIDYALAYA UDALGURI, UDALGURI",3348109,12,https://kys.udiseplus.gov.in/#/reportcard/3348109/12,https://kys.udiseplus.gov.in/#/reportcard/3348109/12,https://kys.udiseplus.gov.in/api/school/report-card?schoolId=3348109&yearId=10,ASSAM,UDALGURI,26.7047237,92.0421507
"JAWAHAR NAVODAYA VIDYALAYA EAST KHASI HILLS, MAWPHLANG",3202585,12,https://kys.udiseplus.gov.in/#/reportcard/3202585/12,https://kys.udiseplus.gov.in/#/reportcard/3202585/12,https://kys.udiseplus.gov.in/api/school/report-card?schoolId=3202585&yearId=10,MEGHALAYA,EAST KHASI HILLS,25.4023736,91.8317178
"JAWAHAR NAVODAYA VIDYALAYA SOUTH GARO HILLS, RONGARA",3200494,12,https://kys.udiseplus.gov.in/#/reportcard/3200494/12,https://kys.udiseplus.gov.in/#/reportcard/3200494/12,https://kys.udiseplus.gov.in/api/school/report-card?schoolId=3200494&yearId=10,MEGHALAYA,SOUTH GARO HILLS,25.3479690,90.5657773
"JAWAHAR NAVODAYA VIDYALAYA KHOWAI, KHOWAI",3101979,12,https://kys.udiseplus.gov.in/#/reportcard/3101979/12,https://kys.udiseplus.gov.in/#/reportcard/3101979/12,https://kys.udiseplus.gov.in/api/school/report-card?schoolId=3101979&yearId=10,TRIPURA,KHOWAI,23.9563913,91.6421070
"JAWAHAR NAVODAYA VIDYALAYA SEPAHIJALA, JAMPUIJALA",3104992,12,https://kys.udiseplus.gov.in/#/reportcard/3104992/12,https://kys.udiseplus.gov.in/#/reportcard/3104992/12,https://kys.udiseplus.gov.in/api/school/report-card?schoolId=3104992&yearId=10,TRIPURA,SEPAHIJALA,23.6658004,91.3200275
"JAWAHAR NAVODAYA VIDYALAYA EAST GARO HILLS, SANMANDA",3206579,12,https://kys.udiseplus.gov.in/#/reportcard/3206579/12,https://kys.udiseplus.gov.in/#/reportcard/3206579/12,https://kys.udiseplus.gov.in/api/school/report-card?schoolId=3206579&yearId=10,MEGHALAYA,EAST GARO HILLS,25.6184946,90.6342162
"JAWAHAR NAVODAYA VIDYALAYA WEST GARO HILLS, TIKRIKILLA ",3215163,12,https://kys.udiseplus.gov.in/#/reportcard/3215163/12,https://kys.udiseplus.gov.in/#/reportcard/3215163/12,https://kys.udiseplus.gov.in/api/school/report-card?schoolId=3215163&yearId=10,MEGHALAYA,WEST GARO HILLS,25.6063142,90.2113906
"JAWAHAR NAVODAYA VIDYALAYA SOUTH TRIPURA, HRISHYAMUKH",3104975,12,https://kys.udiseplus.gov.in/#/reportcard/3104975/12,https://kys.udiseplus.gov.in/#/reportcard/3104975/12,https://kys.udiseplus.gov.in/api/school/report-card?schoolId=3104975&yearId=10,TRIPURA,SOUTH TRIPURA,23.1708278,91.6388170
"JAWAHAR NAVODAYA VIDYALAYA EAST KHASI HILL, MAWSYNRAM",3203292,12,https://kys.udiseplus.gov.in/#/reportcard/3203292/12,https://kys.udiseplus.gov.in/#/reportcard/3203292/12,https://kys.udiseplus.gov.in/api/school/report-card?schoolId=3203292&yearId=10,MEGHALAYA,EAST KHASI HILLS,25.4023736,91.8317178
"JAWAHAR NAVODAYA VIDYALAYA UNAKOTI, PECHARTHAL",3105027,12,https://kys.udiseplus.gov.in/#/reportcard/3105027/12,https://kys.udiseplus.gov.in/#/reportcard/3105027/12,https://kys.udiseplus.gov.in/api/school/report-card?schoolId=3105027&yearId=10,TRIPURA,UNAKOTI,24.1909848,92.0460483
"JAWAHAR NAVODAYA VIDYALAYA GOMATI, MATABARI ",3104921,12,https://kys.udiseplus.gov.in/#/reportcard/3104921/12,https://kys.udiseplus.gov.in/#/reportcard/3104921/12,https://kys.udiseplus.gov.in/api/school/report-card?schoolId=3104921&yearId=10,TRIPURA,GOMATI,23.4987407,91.2999111
"JAWAHAR NAVODAYA VIDYALAYA WEST JAINTIA HILLS, THADLASKEIN",3204834,12,https://kys.udiseplus.gov.in/#/reportcard/3204834/12,https://kys.udiseplus.gov.in/#/reportcard/3204834/12,https://kys.udiseplus.gov.in/api/school/report-card?schoolId=3204834&yearId=10,MEGHALAYA,WEST JAINTIA HILLS,25.4425965,92.2988275
"JAWAHAR NAVODAYA VIDYALAYA MURSHIDABAD, BERHAMPORE",3407337,12,https://kys.udiseplus.gov.in/#/reportcard/3407337/12,https://kys.udiseplus.gov.in/#/reportcard/3407337/12,https://kys.udiseplus.gov.in/api/school/report-card?schoolId=3407337&yearId=10,WEST BENGAL,MURSHIDABAD,24.1745993,88.2721335
"JAWAHAR NAVODAYA VIDYALAYA SOUTH WEST GARO HILLS, ZIKZAK",3211898,12,https://kys.udiseplus.gov.in/#/reportcard/3211898/12,https://kys.udiseplus.gov.in/#/reportcard/3211898/12,https://kys.udiseplus.gov.in/api/school/report-card?schoolId=3211898&yearId=10,MEGHALAYA,SOUTH WEST GARO HILLS,25.4446310,89.9969655
"JAWAHAR NAVODAYA VIDYALAYA EAST JAINTIA HILLS, WAPUNG",3214842,12,https://kys.udiseplus.gov.in/#/reportcard/3214842/12,https://kys.udiseplus.gov.in/#/reportcard/3214842/12,https://kys.udiseplus.gov.in/api/school/report-card?schoolId=3214842&yearId=10,MEGHALAYA,EAST JAINTIA HILLS,25.2515761,92.4840501
"JAWAHAR NAVODAYA VIDYALAYA GOLAGHAT, DHEKIAL",3350487,12,https://kys.udiseplus.gov.in/#/reportcard/3350487/12,https://kys.udiseplus.gov.in/#/reportcard/3350487/12,https://kys.udiseplus.gov.in/api/school/report-card?schoolId=3350487&yearId=10,ASSAM,GOLAGHAT,26.5108262,93.9743686
"JAWAHAR NAVODAYA VIDYALAYA KARBI ANGLONG, LUMBAJONG",3340200,12,https://kys.udiseplus.gov.in/#/reportcard/3340200/12,https://kys.udiseplus.gov.in/#/reportcard/3340200/12,https://kys.udiseplus.gov.in/api/school/report-card?schoolId=3340200&yearId=10,ASSAM,KARBI ANGLONG,26.0000000,93.5000000
"JAWAHAR NAVODAYA VIDYALAYA SIVASAGAR, NAZIRA",3346809,12,https://kys.udiseplus.gov.in/#/reportcard/3346809/12,https://kys.udiseplus.gov.in/#/reportcard/3346809/12,https://kys.udiseplus.gov.in/api/school/report-card?schoolId=3346809&yearId=10,ASSAM,SIBSAGAR,26.9834936,94.6394226
"JAWAHAR NAVODAYA VIDYALAYA JORHAT, TITABAR",3308309,12,https://kys.udiseplus.gov.in/#/reportcard/3308309/12,https://kys.udiseplus.gov.in/#/reportcard/3308309/12,https://kys.udiseplus.gov.in/api/school/report-card?schoolId=3308309&yearId=10,ASSAM,JORHAT,26.7577925,94.2079645
"JAWAHAR NAVODAYA VIDYALAYA WEST KARBIANGLONG 2, RONGKHANG",3334486,12,https://kys.udiseplus.gov.in/#/reportcard/3334486/12,https://kys.udiseplus.gov.in/#/reportcard/3334486/12,https://kys.udiseplus.gov.in/api/school/report-card?schoolId=3334486&yearId=10,ASSAM,WEST KARBI ANGLONG,25.8529142,92.5875681
"JAWAHAR NAVODAYA VIDYALAYA HAILAKANDI, LALA",3333791,12,https://kys.udiseplus.gov.in/#/reportcard/3333791/12,https://kys.udiseplus.gov.in/#/reportcard/3333791/12,https://kys.udiseplus.gov.in/api/school/report-card?schoolId=3333791&yearId=10,ASSAM,HAILAKANDI,24.6846916,92.5645836
"JAWAHAR NAVODAYA VIDYALAYA BIRBHUM, LABPUR",3474374,12,https://kys.udiseplus.gov.in/#/reportcard/3474374/12,https://kys.udiseplus.gov.in/#/reportcard/3474374/12,https://kys.udiseplus.gov.in/api/school/report-card?schoolId=3474374&yearId=10,WEST BENGAL,BIRBHUM,24.0621532,87.6982823
"JAWAHAR NAVODAYA VIDYALAYA SAMASTIPUR, Pusa",2494012,12,https://kys.udiseplus.gov.in/#/reportcard/2494012/12,https://kys.udiseplus.gov.in/#/reportcard/2494012/12,https://kys.udiseplus.gov.in/api/school/report-card?schoolId=2494012&yearId=10,BIHAR,SAMASTIPUR,25.7747884,85.8672314
"JAWAHAR NAVODAYA VIDYALAYA SARAN, DARIYAPUR",2400668,12,https://kys.udiseplus.gov.in/#/reportcard/2400668/12,https://kys.udiseplus.gov.in/#/reportcard/2400668/12,https://kys.udiseplus.gov.in/api/school/report-card?schoolId=2400668&yearId=10,BIHAR,SARAN,25.9214451,84.7759731
"JAWAHAR NAVODAYA VIDYALAYA KATIHAR, KORHA",2423016,12,https://kys.udiseplus.gov.in/#/reportcard/2423016/12,https://kys.udiseplus.gov.in/#/reportcard/2423016/12,https://kys.udiseplus.gov.in/api/school/report-card?schoolId=2423016&yearId=10,BIHAR,KATIHAR,25.5586421,87.6457196
"JAWAHAR NAVODAYA VIDYALAYA PURNEA, KASBA",2408634,12,https://kys.udiseplus.gov.in/#/reportcard/2408634/12,https://kys.udiseplus.gov.in/#/reportcard/2408634/12,https://kys.udiseplus.gov.in/api/school/report-card?schoolId=2408634&yearId=10,BIHAR,PURNIA,25.7758723,87.4087667
"JAWAHAR NAVODAYA VIDYALAYA SUPAUL, SUPAUL ",2492465,12,https://kys.udiseplus.gov.in/#/reportcard/2492465/12,https://kys.udiseplus.gov.in/#/reportcard/2492465/12,https://kys.udiseplus.gov.in/api/school/report-card?schoolId=2492465&yearId=10,BIHAR,SUPAUL,26.2768089,86.7959614
"JAWAHAR NAVODAYA VIDYALAYA MADHUBANI, RAJNAGAR",2460711,12,https://kys.udiseplus.gov.in/#/reportcard/2460711/12,https://kys.udiseplus.gov.in/#/reportcard/2460711/12,https://kys.udiseplus.gov.in/api/school/report-card?schoolId=2460711&yearId=10,BIHAR,MADHUBANI,26.3503076,86.2296424
"JAWAHAR NAVODAYA VIDYALAYA DAKSHIN DINAJPUR, BALURGHAT",3405379,12,https://kys.udiseplus.gov.in/#/reportcard/3405379/12,https://kys.udiseplus.gov.in/#/reportcard/3405379/12,https://kys.udiseplus.gov.in/api/school/report-card?schoolId=3405379&yearId=10,WEST BENGAL,DAKSHIN DINAJPUR,25.3858070,88.5063362
"JAWAHAR NAVODAYA VIDYALAYA COOCHBEHAR, Tufanganj-I",3404300,12,https://kys.udiseplus.gov.in/#/reportcard/3404300/12,https://kys.udiseplus.gov.in/#/reportcard/3404300/12,https://kys.udiseplus.gov.in/api/school/report-card?schoolId=3404300&yearId=10,WEST BENGAL,COOCHBEHAR,26.3406230,89.4812163
"JAWAHAR NAVODAYA VIDYALAYA UTTAR DINAJPUR, KARANDIGHI",3428772,12,https://kys.udiseplus.gov.in/#/reportcard/3428772/12,https://kys.udiseplus.gov.in/#/reportcard/3428772/12,https://kys.udiseplus.gov.in/api/school/report-card?schoolId=3428772&yearId=10,WEST BENGAL,UTTAR DINAJPUR,25.8721428,87.9619860
"JAWAHAR NAVODAYA VIDYALAYA DARJEELING, Shukhiya Phokhari",3498352,12,https://kys.udiseplus.gov.in/#/reportcard/3498352/12,https://kys.udiseplus.gov.in/#/reportcard/3498352/12,https://kys.udiseplus.gov.in/api/school/report-card?schoolId=3498352&yearId=10,WEST BENGAL,DARJILING,26.7500000,88.2500000
"JAWAHAR NAVODAYA VIDYALAYA JALPAIGURI, Nagrakata",3499701,12,https://kys.udiseplus.gov.in/#/reportcard/3499701/12,https://kys.udiseplus.gov.in/#/reportcard/3499701/12,https://kys.udiseplus.gov.in/api/school/report-card?schoolId=3499701&yearId=10,WEST BENGAL,JALPAIGURI,26.6262805,88.7334485
"JAWAHAR NAVODAYA VIDYALAYA DIMA HASAO, HARANGAJAO",3358031,12,https://kys.udiseplus.gov.in/#/reportcard/3358031/12,https://kys.udiseplus.gov.in/#/reportcard/3358031/12,https://kys.udiseplus.gov.in/api/school/report-card?schoolId=3358031&yearId=10,ASSAM,DIMA HASAO,25.4003625,93.0752292
"JAWAHAR NAVODAYA VIDYALAYA DHEMAJI, DHEMAJI",3339738,12,https://kys.udiseplus.gov.in/#/reportcard/3339738/12,https://kys.udiseplus.gov.in/#/reportcard/3339738/12,https://kys.udiseplus.gov.in/api/school/report-card?schoolId=3339738&yearId=10,ASSAM,DHEMAJI,27.5945155,94.7192098
"JAWAHAR NAVODAYA VIDYALAYA CACHAR, LAKHIPUR",3329788,12,https://kys.udiseplus.gov.in/#/reportcard/3329788/12,https://kys.udiseplus.gov.in/#/reportcard/3329788/12,https://kys.udiseplus.gov.in/api/school/report-card?schoolId=3329788&yearId=10,ASSAM,CACHAR,24.7586400,92.8816648
"JAWAHAR NAVODAYA VIDYALAYA NAGAON, BATADRAVA",3335710,12,https://kys.udiseplus.gov.in/#/reportcard/3335710/12,https://kys.udiseplus.gov.in/#/reportcard/3335710/12,https://kys.udiseplus.gov.in/api/school/report-card?schoolId=3335710&yearId=10,ASSAM,NAGAON,26.3313646,92.7524763
"JAWAHAR NAVODAYA VIDYALAYA MORIGAON, BHURBANDHA ",3318388,12,https://kys.udiseplus.gov.in/#/reportcard/3318388/12,https://kys.udiseplus.gov.in/#/reportcard/3318388/12,https://kys.udiseplus.gov.in/api/school/report-card?schoolId=3318388&yearId=10,ASSAM,MORIGAON,26.2486060,92.3387945
"JAWAHAR NAVODAYA VIDYALAYA DIBRUGARH, KHOWANG",3362594,12,https://kys.udiseplus.gov.in/#/reportcard/3362594/12,https://kys.udiseplus.gov.in/#/reportcard/3362594/12,https://kys.udiseplus.gov.in/api/school/report-card?schoolId=3362594&yearId=10,ASSAM,DIBRUGARH,27.4844597,94.9019447
"JAWAHAR NAVODAYA VIDYALAYA TINSUKIA, KAKAPITHER",3363583,12,https://kys.udiseplus.gov.in/#/reportcard/3363583/12,https://kys.udiseplus.gov.in/#/reportcard/3363583/12,https://kys.udiseplus.gov.in/api/school/report-card?schoolId=3363583&yearId=10,ASSAM,TINSUKIA,27.4879722,95.3601855
"JAWAHAR NAVODAYA VIDYALAYA KAMLE, PUCHI GEKO",2704058,12,https://kys.udiseplus.gov.in/#/reportcard/2704058/12,https://kys.udiseplus.gov.in/#/reportcard/2704058/12,https://kys.udiseplus.gov.in/api/school/report-card?schoolId=2704058&yearId=10,ARUNACHAL PRADESH,KAMLE,27.7312325,94.0964663
"JAWAHAR NAVODAYA VIDYALAYA ANJAW, HAWAI",2701479,12,https://kys.udiseplus.gov.in/#/reportcard/2701479/12,https://kys.udiseplus.gov.in/#/reportcard/2701479/12,https://kys.udiseplus.gov.in/api/school/report-card?schoolId=2701479&yearId=10,ARUNACHAL PRADESH,ANJAW,28.1114301,96.8269996
"JAWAHAR NAVODAYA VIDYALAYA TIRAP, KHONSA",2704191,12,https://kys.udiseplus.gov.in/#/reportcard/2704191/12,https://kys.udiseplus.gov.in/#/reportcard/2704191/12,https://kys.udiseplus.gov.in/api/school/report-card?schoolId=2704191&yearId=10,ARUNACHAL PRADESH,TIRAP,27.0301690,95.4979175
"JAWAHAR NAVODAYA VIDYALAYA UPPER SIANG, GEKU",2701245,12,https://kys.udiseplus.gov.in/#/reportcard/2701245/12,https://kys.udiseplus.gov.in/#/reportcard/2701245/12,https://kys.udiseplus.gov.in/api/school/report-card?schoolId=2701245&yearId=10,ARUNACHAL PRADESH,UPPER SIANG,28.7312046,95.0377315
"JAWAHAR NAVODAYA VIDYALAYA WEST KAMENG, NAFRA",2701012,12,https://kys.udiseplus.gov.in/#/reportcard/2701012/12,https://kys.udiseplus.gov.in/#/reportcard/2701012/12,https://kys.udiseplus.gov.in/api/school/report-card?schoolId=2701012&yearId=10,ARUNACHAL PRADESH,WEST KAMENG,27.3386269,92.4333662
"JAWAHAR NAVODAYA VIDYALAYA NAMCHI, RAVANGLA",2601182,12,https://kys.udiseplus.gov.in/#/reportcard/2601182/12,https://kys.udiseplus.gov.in/#/reportcard/2601182/12,https://kys.udiseplus.gov.in/api/school/report-card?schoolId=2601182&yearId=10,SIKKIM,NAMCHI,27.3031019,88.3785961
"JAWAHAR NAVODAYA VIDYALAYA JAMUI, BARHAT",2426055,12,https://kys.udiseplus.gov.in/#/reportcard/2426055/12,https://kys.udiseplus.gov.in/#/reportcard/2426055/12,https://kys.udiseplus.gov.in/api/school/report-card?schoolId=2426055&yearId=10,BIHAR,JAMUI,24.7562513,86.3011128
"JAWAHAR NAVODAYA VIDYALAYA PAKYONG, NAMCHEBONG",2601231,12,https://kys.udiseplus.gov.in/#/reportcard/2601231/12,https://kys.udiseplus.gov.in/#/reportcard/2601231/12,https://kys.udiseplus.gov.in/api/school/report-card?schoolId=2601231&yearId=10,SIKKIM,PAKYONG,27.2289350,88.6471196
"JAWAHAR NAVODAYA VIDYALAYA MANGAN, KABI",2600932,12,https://kys.udiseplus.gov.in/#/reportcard/2600932/12,https://kys.udiseplus.gov.in/#/reportcard/2600932/12,https://kys.udiseplus.gov.in/api/school/report-card?schoolId=2600932&yearId=10,SIKKIM,MANGAN,27.7489191,88.5214387
"JAWAHAR NAVODAYA VIDYALAYA ARWAL, KARPI",2402305,12,https://kys.udiseplus.gov.in/#/reportcard/2402305/12,https://kys.udiseplus.gov.in/#/reportcard/2402305/12,https://kys.udiseplus.gov.in/api/school/report-card?schoolId=2402305&yearId=10,BIHAR,ARWAL,25.1812831,84.6596648
"JAWAHAR NAVODAYA VIDYALAYA NAMSAI, LEKANG",2701579,12,https://kys.udiseplus.gov.in/#/reportcard/2701579/12,https://kys.udiseplus.gov.in/#/reportcard/2701579/12,https://kys.udiseplus.gov.in/api/school/report-card?schoolId=2701579&yearId=10,ARUNACHAL PRADESH,NAMSAI,27.7140306,96.0159709
"JAWAHAR NAVODAYA VIDYALAYA MOKOKCHUNG, MANGKOLEMBA",2800003,12,https://kys.udiseplus.gov.in/#/reportcard/2800003/12,https://kys.udiseplus.gov.in/#/reportcard/2800003/12,https://kys.udiseplus.gov.in/api/school/report-card?schoolId=2800003&yearId=10,NAGALAND,MOKOKCHUNG,26.4795861,94.5105275
"JAWAHAR NAVODAYA VIDYALAYA EAST KAMENG, SEPPA",2700331,12,https://kys.udiseplus.gov.in/#/reportcard/2700331/12,https://kys.udiseplus.gov.in/#/reportcard/2700331/12,https://kys.udiseplus.gov.in/api/school/report-card?schoolId=2700331&yearId=10,ARUNACHAL PRADESH,EAST KAMENG,27.5577810,92.9673843
"JAWAHAR NAVODAYA VIDYALAYA WEST SIANG, AALO EAST",2703311,12,https://kys.udiseplus.gov.in/#/reportcard/2703311/12,https://kys.udiseplus.gov.in/#/reportcard/2703311/12,https://kys.udiseplus.gov.in/api/school/report-card?schoolId=2703311&yearId=10,ARUNACHAL PRADESH,WEST SIANG,28.1970922,94.4840700
"JAWAHAR NAVODAYA VIDYALAYA AURANGABAD, BARUN",2461215,12,https://kys.udiseplus.gov.in/#/reportcard/2461215/12,https://kys.udiseplus.gov.in/#/reportcard/2461215/12,https://kys.udiseplus.gov.in/api/school/report-card?schoolId=2461215&yearId=10,BIHAR,AURANGABAD (BIHAR),24.8033200,84.4110198
"JAWAHAR NAVODAYA VIDYALAYA KAIMUR, MOHANIA",2438178,12,https://kys.udiseplus.gov.in/#/reportcard/2438178/12,https://kys.udiseplus.gov.in/#/reportcard/2438178/12,https://kys.udiseplus.gov.in/api/school/report-card?schoolId=2438178&yearId=10,BIHAR,KAIMUR (BHABUA),25.0529472,83.6049874
"JAWAHAR NAVODAYA VIDYALAYA BUXAR, Nawanagar",2490133,12,https://kys.udiseplus.gov.in/#/reportcard/2490133/12,https://kys.udiseplus.gov.in/#/reportcard/2490133/12,https://kys.udiseplus.gov.in/api/school/report-card?schoolId=2490133&yearId=10,BIHAR,BUXAR,25.5044834,84.1097525
"JAWAHAR NAVODAYA VIDYALAYA LONGDING, LONGDING",2703454,12,https://kys.udiseplus.gov.in/#/reportcard/2703454/12,https://kys.udiseplus.gov.in/#/reportcard/2703454/12,https://kys.udiseplus.gov.in/api/school/report-card?schoolId=2703454&yearId=10,ARUNACHAL PRADESH,LONGDING,26.8794546,95.3155652
"JAWAHAR NAVODAYA VIDYALAYA CHANGLANG, BOURDUMSA ",2703899,12,https://kys.udiseplus.gov.in/#/reportcard/2703899/12,https://kys.udiseplus.gov.in/#/reportcard/2703899/12,https://kys.udiseplus.gov.in/api/school/report-card?schoolId=2703899&yearId=10,ARUNACHAL PRADESH,CHANGLANG,27.2720070,96.0655260
"JAWAHAR NAVODAYA VIDYALAYA DIBANG VALLEY, ANINI-MIPI",2700998,12,https://kys.udiseplus.gov.in/#/reportcard/2700998/12,https://kys.udiseplus.gov.in/#/reportcard/2700998/12,https://kys.udiseplus.gov.in/api/school/report-card?schoolId=2700998&yearId=10,ARUNACHAL PRADESH,DIBANG VALLEY,28.8291044,95.9554096
"JAWAHAR NAVODAYA VIDYALAYA TUENSANG, CHARE",2800652,12,https://kys.udiseplus.gov.in/#/reportcard/2800652/12,https://kys.udiseplus.gov.in/#/reportcard/2800652/12,https://kys.udiseplus.gov.in/api/school/report-card?schoolId=2800652&yearId=10,NAGALAND,TUENSANG,26.2342107,94.7415530
"JAWAHAR NAVODAYA VIDYALAYA MON, WAKCHING",2801571,12,https://kys.udiseplus.gov.in/#/reportcard/2801571/12,https://kys.udiseplus.gov.in/#/reportcard/2801571/12,https://kys.udiseplus.gov.in/api/school/report-card?schoolId=2801571&yearId=10,NAGALAND,MON,26.6666670,95.0000000
"JAWAHAR NAVODAYA VIDYALAYA EAST SIANG, PASIGHAT",2700251,12,https://kys.udiseplus.gov.in/#/reportcard/2700251/12,https://kys.udiseplus.gov.in/#/reportcard/2700251/12,https://kys.udiseplus.gov.in/api/school/report-card?schoolId=2700251&yearId=10,ARUNACHAL PRADESH,EAST SIANG,28.0742219,95.4178149
"JAWAHAR NAVODAYA VIDYALAYA TAWANG, TAWANG",2702879,12,https://kys.udiseplus.gov.in/#/reportcard/2702879/12,https://kys.udiseplus.gov.in/#/reportcard/2702879/12,https://kys.udiseplus.gov.in/api/school/report-card?schoolId=2702879&yearId=10,ARUNACHAL PRADESH,TAWANG,27.6741942,91.9362059
"JAWAHAR NAVODAYA VIDYALAYA GAYA, MOHRA",2492998,12,https://kys.udiseplus.gov.in/#/reportcard/2492998/12,https://kys.udiseplus.gov.in/#/reportcard/2492998/12,https://kys.udiseplus.gov.in/api/school/report-card?schoolId=2492998&yearId=10,BIHAR,GAYA,24.6793889,85.0115833
"JAWAHAR NAVODAYA VIDYALAYA PAKUR, MAHESHPUR",3620859,12,https://kys.udiseplus.gov.in/#/reportcard/3620859/12,https://kys.udiseplus.gov.in/#/reportcard/3620859/12,https://kys.udiseplus.gov.in/api/school/report-card?schoolId=3620859&yearId=10,JHARKHAND,PAKAUR,24.6474696,87.8426298
"JAWAHAR NAVODAYA VIDYALAYA DEOGHAR, MOHANPUR",3615027,12,https://kys.udiseplus.gov.in/#/reportcard/3615027/12,https://kys.udiseplus.gov.in/#/reportcard/3615027/12,https://kys.udiseplus.gov.in/api/school/report-card?schoolId=3615027&yearId=10,JHARKHAND,DEOGHAR,24.4898318,86.6990182
"JAWAHAR NAVODAYA VIDYALAYA GUMLA, GHAGHRA",3634912,12,https://kys.udiseplus.gov.in/#/reportcard/3634912/12,https://kys.udiseplus.gov.in/#/reportcard/3634912/12,https://kys.udiseplus.gov.in/api/school/report-card?schoolId=3634912&yearId=10,JHARKHAND,GUMLA,23.1603759,84.4599565
"JAWAHAR NAVODAYA VIDYALAYA LOHARDAGA, SENHA",3634144,12,https://kys.udiseplus.gov.in/#/reportcard/3634144/12,https://kys.udiseplus.gov.in/#/reportcard/3634144/12,https://kys.udiseplus.gov.in/api/school/report-card?schoolId=3634144&yearId=10,JHARKHAND,LOHARDAGA,23.4770044,84.6986684
"JAWAHAR NAVODAYA VIDYALAYA BOKARO, PETERBAR",3629568,12,https://kys.udiseplus.gov.in/#/reportcard/3629568/12,https://kys.udiseplus.gov.in/#/reportcard/3629568/12,https://kys.udiseplus.gov.in/api/school/report-card?schoolId=3629568&yearId=10,JHARKHAND,BOKARO,23.6991279,85.9910689
"JAWAHAR NAVODAYA VIDYALAYA DUMKA, SARAIYAHAT",3623927,12,https://kys.udiseplus.gov.in/#/reportcard/3623927/12,https://kys.udiseplus.gov.in/#/reportcard/3623927/12,https://kys.udiseplus.gov.in/api/school/report-card?schoolId=3623927&yearId=10,JHARKHAND,DUMKA,24.2677937,87.2485495
"JAWAHAR NAVODAYA VIDYALAYA PAKUR, MAHESHPUR",3620936,12,https://kys.udiseplus.gov.in/#/reportcard/3620936/12,https://kys.udiseplus.gov.in/#/reportcard/3620936/12,https://kys.udiseplus.gov.in/api/school/report-card?schoolId=3620936&yearId=10,JHARKHAND,PAKAUR,24.6474696,87.8426298
"JAWAHAR NAVODAYA VIDYALAYA SUNDARGARH, LEPHIRIPADA",3768679,12,https://kys.udiseplus.gov.in/#/reportcard/3768679/12,https://kys.udiseplus.gov.in/#/reportcard/3768679/12,https://kys.udiseplus.gov.in/api/school/report-card?schoolId=3768679&yearId=10,ODISHA,SUNDERGARH,22.1172081,84.0200982
"JAWAHAR NAVODAYA VIDYALAYA HAZARIBAG, ICHAK",3608608,12,https://kys.udiseplus.gov.in/#/reportcard/3608608/12,https://kys.udiseplus.gov.in/#/reportcard/3608608/12,https://kys.udiseplus.gov.in/api/school/report-card?schoolId=3608608&yearId=10,JHARKHAND,HAZARIBAG,23.9924352,85.3616252
"JAWAHAR NAVODAYA VIDYALAYA KODERMA, JHUMRI TELAIYA",3609524,12,https://kys.udiseplus.gov.in/#/reportcard/3609524/12,https://kys.udiseplus.gov.in/#/reportcard/3609524/12,https://kys.udiseplus.gov.in/api/school/report-card?schoolId=3609524&yearId=10,JHARKHAND,KODARMA,24.5423801,85.6930100
"JAWAHAR NAVODAYA VIDYALAYA BANKA, BOUNSI",2462118,12,https://kys.udiseplus.gov.in/#/reportcard/2462118/12,https://kys.udiseplus.gov.in/#/reportcard/2462118/12,https://kys.udiseplus.gov.in/api/school/report-card?schoolId=2462118&yearId=10,BIHAR,BANKA,24.8328273,86.8161114
"JAWAHAR NAVODAYA VIDYALAYA KHAGARIA, CHOUTHAM",2439213,12,https://kys.udiseplus.gov.in/#/reportcard/2439213/12,https://kys.udiseplus.gov.in/#/reportcard/2439213/12,https://kys.udiseplus.gov.in/api/school/report-card?schoolId=2439213&yearId=10,BIHAR,KHAGARIA,25.4930513,86.6982264
"JAWAHAR NAVODAYA VIDYALAYA BEGUSARAI, BEGUSARAI",2432045,12,https://kys.udiseplus.gov.in/#/reportcard/2432045/12,https://kys.udiseplus.gov.in/#/reportcard/2432045/12,https://kys.udiseplus.gov.in/api/school/report-card?schoolId=2432045&yearId=10,BIHAR,BEGUSARAI,25.5125411,86.0883392
"JAWAHAR NAVODAYA VIDYALAYA BHAGALPUR, NARAYANPUR ",2405095,12,https://kys.udiseplus.gov.in/#/reportcard/2405095/12,https://kys.udiseplus.gov.in/#/reportcard/2405095/12,https://kys.udiseplus.gov.in/api/school/report-card?schoolId=2405095&yearId=10,BIHAR,BHAGALPUR,25.2861354,87.1304229
"JAWAHAR NAVODAYA VIDYALAYA SHEIKHPURA, Sheikhpura",2429470,12,https://kys.udiseplus.gov.in/#/reportcard/2429470/12,https://kys.udiseplus.gov.in/#/reportcard/2429470/12,https://kys.udiseplus.gov.in/api/school/report-card?schoolId=2429470&yearId=10,BIHAR,SHEIKHPURA,25.1250741,85.8160771
"JAWAHAR NAVODAYA VIDYALAYA LAKHISARAI, BARAHIAY",2448703,12,https://kys.udiseplus.gov.in/#/reportcard/2448703/12,https://kys.udiseplus.gov.in/#/reportcard/2448703/12,https://kys.udiseplus.gov.in/api/school/report-card?schoolId=2448703&yearId=10,BIHAR,LAKHISARAI,25.1543938,86.1744959
"JAWAHAR NAVODAYA VIDYALAYA MUNGER, HAVELI KHARAGPUR",2430264,12,https://kys.udiseplus.gov.in/#/reportcard/2430264/12,https://kys.udiseplus.gov.in/#/reportcard/2430264/12,https://kys.udiseplus.gov.in/api/school/report-card?schoolId=2430264&yearId=10,BIHAR,MUNGER,25.2202864,86.5161484
"JAWAHAR NAVODAYA VIDYALAYA VAISHALI, LALGANJ",2479532,12,https://kys.udiseplus.gov.in/#/reportcard/2479532/12,https://kys.udiseplus.gov.in/#/reportcard/2479532/12,https://kys.udiseplus.gov.in/api/school/report-card?schoolId=2479532&yearId=10,BIHAR,VAISHALI,25.7491702,85.3972164
"JAWAHAR NAVODAYA VIDYALAYA SIWAN, SIWAN SADAR",2478717,12,https://kys.udiseplus.gov.in/#/reportcard/2478717/12,https://kys.udiseplus.gov.in/#/reportcard/2478717/12,https://kys.udiseplus.gov.in/api/school/report-card?schoolId=2478717&yearId=10,BIHAR,SIWAN,26.1310080,84.3910745
"JAWAHAR NAVODAYA VIDYALAYA GOPALGANJ, Uchakagaon ",2448164,12,https://kys.udiseplus.gov.in/#/reportcard/2448164/12,https://kys.udiseplus.gov.in/#/reportcard/2448164/12,https://kys.udiseplus.gov.in/api/school/report-card?schoolId=2448164&yearId=10,BIHAR,GOPALGANJ,26.4211166,84.3739133
"JAWAHAR NAVODAYA VIDYALAYA NALANDA, RAJGIR",2439060,12,https://kys.udiseplus.gov.in/#/reportcard/2439060/12,https://kys.udiseplus.gov.in/#/reportcard/2439060/12,https://kys.udiseplus.gov.in/api/school/report-card?schoolId=2439060&yearId=10,BIHAR,NALANDA,25.1364914,85.4436546
"JAWAHAR NAVODAYA VIDYALAYA BHOJPUR, Bihiya ",2420827,12,https://kys.udiseplus.gov.in/#/reportcard/2420827/12,https://kys.udiseplus.gov.in/#/reportcard/2420827/12,https://kys.udiseplus.gov.in/api/school/report-card?schoolId=2420827&yearId=10,BIHAR,BHOJPUR,25.4501182,84.5635193
"JAWAHAR NAVODAYA VIDYALAYA PATNA, BIKRAM",2452890,12,https://kys.udiseplus.gov.in/#/reportcard/2452890/12,https://kys.udiseplus.gov.in/#/reportcard/2452890/12,https://kys.udiseplus.gov.in/api/school/report-card?schoolId=2452890&yearId=10,BIHAR,PATNA,25.6093239,85.1235252
"JAWAHAR NAVODAYA VIDYALAYA MUZAFFARPUR, KUDHNI",2488642,12,https://kys.udiseplus.gov.in/#/reportcard/2488642/12,https://kys.udiseplus.gov.in/#/reportcard/2488642/12,https://kys.udiseplus.gov.in/api/school/report-card?schoolId=2488642&yearId=10,BIHAR,MUZAFFARPUR,26.1482548,85.3316097
"JAWAHAR NAVODAYA VIDYALAYA DARBHANGA, KEOTI",2414479,12,https://kys.udiseplus.gov.in/#/reportcard/2414479/12,https://kys.udiseplus.gov.in/#/reportcard/2414479/12,https://kys.udiseplus.gov.in/api/school/report-card?schoolId=2414479&yearId=10,BIHAR,DARBHANGA,26.0829899,86.0324951
"JAWAHAR NAVODAYA VIDYALAYA MADHEPURA, SINGHESHWAR",2485999,12,https://kys.udiseplus.gov.in/#/reportcard/2485999/12,https://kys.udiseplus.gov.in/#/reportcard/2485999/12,https://kys.udiseplus.gov.in/api/school/report-card?schoolId=2485999&yearId=10,BIHAR,MADHEPURA,25.7806118,86.9364753
"JAWAHAR NAVODAYA VIDYALAYA ARARIA, ARARIA ",2414316,12,https://kys.udiseplus.gov.in/#/reportcard/2414316/12,https://kys.udiseplus.gov.in/#/reportcard/2414316/12,https://kys.udiseplus.gov.in/api/school/report-card?schoolId=2414316&yearId=10,BIHAR,ARARIA,26.2651013,87.3699437
"JAWAHAR NAVODAYA VIDYALAYA SAHARSA, KAHRA",2431131,12,https://kys.udiseplus.gov.in/#/reportcard/2431131/12,https://kys.udiseplus.gov.in/#/reportcard/2431131/12,https://kys.udiseplus.gov.in/api/school/report-card?schoolId=2431131&yearId=10,BIHAR,SAHARSA,25.8330757,86.6143751
"JAWAHAR NAVODAYA VIDYALAYA KISHANGANJ, Kishanganj",2458422,12,https://kys.udiseplus.gov.in/#/reportcard/2458422/12,https://kys.udiseplus.gov.in/#/reportcard/2458422/12,https://kys.udiseplus.gov.in/api/school/report-card?schoolId=2458422&yearId=10,BIHAR,KISHANGANJ,26.2984144,87.9466715
"JAWAHAR NAVODAYA VIDYALAYA SHEOHAR, SHEOHAR",2464687,12,https://kys.udiseplus.gov.in/#/reportcard/2464687/12,https://kys.udiseplus.gov.in/#/reportcard/2464687/12,https://kys.udiseplus.gov.in/api/school/report-card?schoolId=2464687&yearId=10,BIHAR,SHEOHAR,26.4934234,85.2717561
"JAWAHAR NAVODAYA VIDYALAYA EAST CHAMPARAN, Piprakothi ",2402842,12,https://kys.udiseplus.gov.in/#/reportcard/2402842/12,https://kys.udiseplus.gov.in/#/reportcard/2402842/12,https://kys.udiseplus.gov.in/api/school/report-card?schoolId=2402842&yearId=10,BIHAR,PURBA CHAMPARAN,26.5833330,84.8333330
"JAWAHAR NAVODAYA VIDYALAYA SITAMARHI, Bathnaha",2420370,12,https://kys.udiseplus.gov.in/#/reportcard/2420370/12,https://kys.udiseplus.gov.in/#/reportcard/2420370/12,https://kys.udiseplus.gov.in/api/school/report-card?schoolId=2420370&yearId=10,BIHAR,SITAMARHI,26.5942841,85.5004280
"JAWAHAR NAVODAYA VIDYALAYA PALI, MARWAR JUNCTION",1795801,12,https://kys.udiseplus.gov.in/#/reportcard/1795801/12,https://kys.udiseplus.gov.in/#/reportcard/1795801/12,https://kys.udiseplus.gov.in/api/school/report-card?schoolId=1795801&yearId=10,RAJASTHAN,PALI,25.4552210,73.4193890
"JAWAHAR NAVODAYA VIDYALAYA BALOTRA(BARMER), BALOTRA",1753617,12,https://kys.udiseplus.gov.in/#/reportcard/1753617/12,https://kys.udiseplus.gov.in/#/reportcard/1753617/12,https://kys.udiseplus.gov.in/api/school/report-card?schoolId=1753617&yearId=10,RAJASTHAN,BARMER,25.5814853,71.1924922
"JAWAHAR NAVODAYA VIDYALAYA SIROHI, SIROHI",1704205,12,https://kys.udiseplus.gov.in/#/reportcard/1704205/12,https://kys.udiseplus.gov.in/#/reportcard/1704205/12,https://kys.udiseplus.gov.in/api/school/report-card?schoolId=1704205&yearId=10,RAJASTHAN,SIROHI,24.8114047,72.8300257
"JAWAHAR NAVODAYA VIDYALAYA JALORE, JASWANTPURA",1710149,12,https://kys.udiseplus.gov.in/#/reportcard/1710149/12,https://kys.udiseplus.gov.in/#/reportcard/1710149/12,https://kys.udiseplus.gov.in/api/school/report-card?schoolId=1710149&yearId=10,RAJASTHAN,JALOR,25.3476006,72.6260916
AAASchool aton,1808276,12,https://kys.udiseplus.gov.in/#/reportcard/1808276/12,https://kys.udiseplus.gov.in/#/reportcard/1808276/12,https://kys.udiseplus.gov.in/api/school/report-card?schoolId=1808276&yearId=10,,,33.0052705,-79.9870330
"JAWAHAR NAVODAYA VIDYALAYA BULANDSHAHR, BUKLANANA",1942011,12,https://kys.udiseplus.gov.in/#/reportcard/1942011/12,https://kys.udiseplus.gov.in/#/reportcard/1942011/12,https://kys.udiseplus.gov.in/api/school/report-card?schoolId=1942011&yearId=10,UTTAR PRADESH,BULANDSHAHR,28.3874073,77.9743805
"JAWAHAR NAVODAYA VIDYALAYA G B NAGAR, DADRI",2040434,12,https://kys.udiseplus.gov.in/#/reportcard/2040434/12,https://kys.udiseplus.gov.in/#/reportcard/2040434/12,https://kys.udiseplus.gov.in/api/school/report-card?schoolId=2040434&yearId=10,UTTAR PRADESH,GAUTAM BUDDHA NAGAR,28.3687159,77.5970121
"JAWAHAR NAVODAYA VIDYALAYA J P NAGAR, AMROHA",2116845,12,https://kys.udiseplus.gov.in/#/reportcard/2116845/12,https://kys.udiseplus.gov.in/#/reportcard/2116845/12,https://kys.udiseplus.gov.in/api/school/report-card?schoolId=2116845&yearId=10,UTTAR PRADESH,JYOTIBA PHULE NAGAR (AMROHA),28.8650459,78.4696233
"JAWAHAR NAVODAYA VIDYALAYA RAMPUR, SAHABAD",2191334,12,https://kys.udiseplus.gov.in/#/reportcard/2191334/12,https://kys.udiseplus.gov.in/#/reportcard/2191334/12,https://kys.udiseplus.gov.in/api/school/report-card?schoolId=2191334&yearId=10,UTTAR PRADESH,RAMPUR,28.7934728,79.1845806
"JAWAHAR NAVODAYA VIDYALAYA HATHRAS, SIKANDRARAO",2028791,12,https://kys.udiseplus.gov.in/#/reportcard/2028791/12,https://kys.udiseplus.gov.in/#/reportcard/2028791/12,https://kys.udiseplus.gov.in/api/school/report-card?schoolId=2028791&yearId=10,UTTAR PRADESH,HATHRAS,27.5724324,78.1116209
"JAWAHAR NAVODAYA VIDYALAYA ALIGARH, DAYAL NAGAR KHAIR",1959420,12,https://kys.udiseplus.gov.in/#/reportcard/1959420/12,https://kys.udiseplus.gov.in/#/reportcard/1959420/12,https://kys.udiseplus.gov.in/api/school/report-card?schoolId=1959420&yearId=10,UTTAR PRADESH,ALIGARH,27.8761073,78.1358153
"JAWAHAR NAVODAYA VIDYALAYA BANSWARA, TALWARA",1744895,12,https://kys.udiseplus.gov.in/#/reportcard/1744895/12,https://kys.udiseplus.gov.in/#/reportcard/1744895/12,https://kys.udiseplus.gov.in/api/school/report-card?schoolId=1744895&yearId=10,RAJASTHAN,BANSWARA,23.4915046,74.3502172
"JAWAHAR NAVODAYA VIDYALAYA BIJNORE, CHANDPUR",2101678,12,https://kys.udiseplus.gov.in/#/reportcard/2101678/12,https://kys.udiseplus.gov.in/#/reportcard/2101678/12,https://kys.udiseplus.gov.in/api/school/report-card?schoolId=2101678&yearId=10,UTTAR PRADESH,BIJNOR,29.4074203,78.4821406
"JAWAHAR NAVODAYA VIDYALAYA RAJSAMAND, RAJSAMAND",1800702,12,https://kys.udiseplus.gov.in/#/reportcard/1800702/12,https://kys.udiseplus.gov.in/#/reportcard/1800702/12,https://kys.udiseplus.gov.in/api/school/report-card?schoolId=1800702&yearId=10,RAJASTHAN,RAJSAMAND,25.2892459,73.8241077
"JAWAHAR NAVODAYA VIDYALAYA BANSWARA, BAGIDORA",1725325,12,https://kys.udiseplus.gov.in/#/reportcard/1725325/12,https://kys.udiseplus.gov.in/#/reportcard/1725325/12,https://kys.udiseplus.gov.in/api/school/report-card?schoolId=1725325&yearId=10,RAJASTHAN,BANSWARA,23.4915046,74.3502172
"JAWAHAR NAVODAYA VIDYALAYA CHITTORGARH, BHADESAR",1788626,12,https://kys.udiseplus.gov.in/#/reportcard/1788626/12,https://kys.udiseplus.gov.in/#/reportcard/1788626/12,https://kys.udiseplus.gov.in/api/school/report-card?schoolId=1788626&yearId=10,RAJASTHAN,CHITTAURGARH,24.5000000,74.5000000
"JAWAHAR NAVODAYA VIDYALAYA MUZAFFARNAGAR, BAGHRA",1900737,12,https://kys.udiseplus.gov.in/#/reportcard/1900737/12,https://kys.udiseplus.gov.in/#/reportcard/1900737/12,https://kys.udiseplus.gov.in/api/school/report-card?schoolId=1900737&yearId=10,UTTAR PRADESH,MUZAFFARNAGAR,29.4496978,77.7429333
"JAWAHAR NAVODAYA VIDYALAYA SAHARANPUR, AMBHETHACHAND",2070872,12,https://kys.udiseplus.gov.in/#/reportcard/2070872/12,https://kys.udiseplus.gov.in/#/reportcard/2070872/12,https://kys.udiseplus.gov.in/api/school/report-card?schoolId=2070872&yearId=10,UTTAR PRADESH,SAHARANPUR,29.9856799,77.5040646
"JAWAHAR NAVODAYA VIDYALAYA BARAN, ATRU",1771889,12,https://kys.udiseplus.gov.in/#/reportcard/1771889/12,https://kys.udiseplus.gov.in/#/reportcard/1771889/12,https://kys.udiseplus.gov.in/api/school/report-card?schoolId=1771889&yearId=10,RAJASTHAN,BARAN,24.9208165,76.6821985
"JAWAHAR NAVODAYA VIDYALAYA MAINPURI, BHOGAON",2005804,12,https://kys.udiseplus.gov.in/#/reportcard/2005804/12,https://kys.udiseplus.gov.in/#/reportcard/2005804/12,https://kys.udiseplus.gov.in/api/school/report-card?schoolId=2005804&yearId=10,UTTAR PRADESH,MAINPURI,27.2093072,79.0625369
"JAWAHAR NAVODAYA VIDYALAYA FIROZABAD, SOTHARA, SIRSAGANJ",2033801,12,https://kys.udiseplus.gov.in/#/reportcard/2033801/12,https://kys.udiseplus.gov.in/#/reportcard/2033801/12,https://kys.udiseplus.gov.in/api/school/report-card?schoolId=2033801&yearId=10,UTTAR PRADESH,FIROZABAD,27.1941954,78.4604956
"JAWAHAR NAVODAYA VIDYALAYA MORADABAD,  THAKURDWARA",2180671,12,https://kys.udiseplus.gov.in/#/reportcard/2180671/12,https://kys.udiseplus.gov.in/#/reportcard/2180671/12,https://kys.udiseplus.gov.in/api/school/report-card?schoolId=2180671&yearId=10,UTTAR PRADESH,MORADABAD,28.8796553,78.8095335
"JAWAHAR NAVODAYA VIDYALAYA GHAZIABAD, PILKHUA",2036174,12,https://kys.udiseplus.gov.in/#/reportcard/2036174/12,https://kys.udiseplus.gov.in/#/reportcard/2036174/12,https://kys.udiseplus.gov.in/api/school/report-card?schoolId=2036174&yearId=10,UTTAR PRADESH,GHAZIABAD,28.7749966,77.4586967
"JAWAHAR NAVODAYA VIDYALAYA BAGHPAT, SHARFABAD",2089458,12,https://kys.udiseplus.gov.in/#/reportcard/2089458/12,https://kys.udiseplus.gov.in/#/reportcard/2089458/12,https://kys.udiseplus.gov.in/api/school/report-card?schoolId=2089458&yearId=10,UTTAR PRADESH,BAGHPAT,29.0374779,77.3062737
"JAWAHAR NAVODAYA VIDYALAYA MEERUT, SARDHANA",1925489,12,https://kys.udiseplus.gov.in/#/reportcard/1925489/12,https://kys.udiseplus.gov.in/#/reportcard/1925489/12,https://kys.udiseplus.gov.in/api/school/report-card?schoolId=1925489&yearId=10,UTTAR PRADESH,MEERUT,29.0018557,77.7679671
"JAWAHAR NAVODAYA VIDYALAYA MATHURA, PAIGAON",2018950,12,https://kys.udiseplus.gov.in/#/reportcard/2018950/12,https://kys.udiseplus.gov.in/#/reportcard/2018950/12,https://kys.udiseplus.gov.in/api/school/report-card?schoolId=2018950&yearId=10,UTTAR PRADESH,MATHURA,27.4955539,77.6855554
"JAWAHAR NAVODAYA VIDYALAYA AGRA, KOLARA KALAN",1970057,12,https://kys.udiseplus.gov.in/#/reportcard/1970057/12,https://kys.udiseplus.gov.in/#/reportcard/1970057/12,https://kys.udiseplus.gov.in/api/school/report-card?schoolId=1970057&yearId=10,UTTAR PRADESH,AGRA,27.1752554,78.0098161
"JAWAHAR NAVODAYA VIDYALAYA KANPUR NAGAR, SARSAUL",2044053,12,https://kys.udiseplus.gov.in/#/reportcard/2044053/12,https://kys.udiseplus.gov.in/#/reportcard/2044053/12,https://kys.udiseplus.gov.in/api/school/report-card?schoolId=2044053&yearId=10,UTTAR PRADESH,KANPUR NAGAR,26.4410107,80.2652803
"JAWAHAR NAVODAYA VIDYALAYA AURAIYA, TAIYYAPUR",2084939,12,https://kys.udiseplus.gov.in/#/reportcard/2084939/12,https://kys.udiseplus.gov.in/#/reportcard/2084939/12,https://kys.udiseplus.gov.in/api/school/report-card?schoolId=2084939&yearId=10,UTTAR PRADESH,AURAIYA,26.6558215,79.5160757
"JAWAHAR NAVODAYA VIDYALAYA KANNAUJ, JALALABAD",1967349,12,https://kys.udiseplus.gov.in/#/reportcard/1967349/12,https://kys.udiseplus.gov.in/#/reportcard/1967349/12,https://kys.udiseplus.gov.in/api/school/report-card?schoolId=1967349&yearId=10,UTTAR PRADESH,KANNAUJ,26.9986675,79.6927946
"JAWAHAR NAVODAYA VIDYALAYA ETAWAH, SAMHON",2024693,12,https://kys.udiseplus.gov.in/#/reportcard/2024693/12,https://kys.udiseplus.gov.in/#/reportcard/2024693/12,https://kys.udiseplus.gov.in/api/school/report-card?schoolId=2024693&yearId=10,UTTAR PRADESH,ETAWAH,26.7155629,79.0917098
"JAWAHAR NAVODAYA VIDYALAYA HOOGHLY, ARAMBAGH",3460288,12,https://kys.udiseplus.gov.in/#/reportcard/3460288/12,https://kys.udiseplus.gov.in/#/reportcard/3460288/12,https://kys.udiseplus.gov.in/api/school/report-card?schoolId=3460288&yearId=10,WEST BENGAL,HOOGHLY,22.9099402,88.0120825
"JAWAHAR NAVODAYA VIDYALAYA BONGAIGAON, BONGAIGAON",3345563,12,https://kys.udiseplus.gov.in/#/reportcard/3345563/12,https://kys.udiseplus.gov.in/#/reportcard/3345563/12,https://kys.udiseplus.gov.in/api/school/report-card?schoolId=3345563&yearId=10,ASSAM,BONGAIGAON,26.4800126,90.5580387
"JAWAHAR NAVODAYA VIDYALAYA DHUBRI, GAURIPUR BLOCK",3360926,12,https://kys.udiseplus.gov.in/#/reportcard/3360926/12,https://kys.udiseplus.gov.in/#/reportcard/3360926/12,https://kys.udiseplus.gov.in/api/school/report-card?schoolId=3360926&yearId=10,ASSAM,DHUBRI,26.1322750,90.1249962
"JAWAHAR NAVODAYA VIDYALAYA SOUTH WEST KHASI HILLS, MAWKYRWAT",3215055,12,https://kys.udiseplus.gov.in/#/reportcard/3215055/12,https://kys.udiseplus.gov.in/#/reportcard/3215055/12,https://kys.udiseplus.gov.in/api/school/report-card?schoolId=3215055&yearId=10,MEGHALAYA,SOUTH WEST KHASI HILLS,25.3307221,91.3217388
"JAWAHAR NAVODAYA VIDYALAYA NORTH GARO HILLS, RESUBELPARA",3215135,12,https://kys.udiseplus.gov.in/#/reportcard/3215135/12,https://kys.udiseplus.gov.in/#/reportcard/3215135/12,https://kys.udiseplus.gov.in/api/school/report-card?schoolId=3215135&yearId=10,MEGHALAYA,NORTH GARO HILLS,25.8619841,90.7017705
"JAWAHAR NAVODAYA VIDYALAYA GOALPARA, DUDHNOI",3302879,12,https://kys.udiseplus.gov.in/#/reportcard/3302879/12,https://kys.udiseplus.gov.in/#/reportcard/3302879/12,https://kys.udiseplus.gov.in/api/school/report-card?schoolId=3302879&yearId=10,ASSAM,GOALPARA,26.0491877,90.6001859
"JAWAHAR NAVODAYA VIDYALAYA BARPETA, RUPSHI",3331660,12,https://kys.udiseplus.gov.in/#/reportcard/3331660/12,https://kys.udiseplus.gov.in/#/reportcard/3331660/12,https://kys.udiseplus.gov.in/api/school/report-card?schoolId=3331660&yearId=10,ASSAM,BARPETA,26.3459410,91.0397080
"JAWAHAR NAVODAYA VIDYALAYA KOKRAJHAR, SIDLI",3341000,12,https://kys.udiseplus.gov.in/#/reportcard/3341000/12,https://kys.udiseplus.gov.in/#/reportcard/3341000/12,https://kys.udiseplus.gov.in/api/school/report-card?schoolId=3341000&yearId=10,ASSAM,CHIRANG,26.6464231,90.6241570
"JAWAHAR NAVODAYA VIDYALAYA CHIRANG, BOROBAZAR",3323412,12,https://kys.udiseplus.gov.in/#/reportcard/3323412/12,https://kys.udiseplus.gov.in/#/reportcard/3323412/12,https://kys.udiseplus.gov.in/api/school/report-card?schoolId=3323412&yearId=10,ASSAM,CHIRANG,26.6464231,90.6241570
"JAWAHAR NAVODAYA VIDYALAYA NORTH TRIPURA, KALACHERRA",3103202,12,https://kys.udiseplus.gov.in/#/reportcard/3103202/12,https://kys.udiseplus.gov.in/#/reportcard/3103202/12,https://kys.udiseplus.gov.in/api/school/report-card?schoolId=3103202&yearId=10,TRIPURA,NORTH TRIPURA,24.0921476,92.2451214
"JAWAHAR NAVODAYA VIDYALAYA DHALAI, MANU",3101105,12,https://kys.udiseplus.gov.in/#/reportcard/3101105/12,https://kys.udiseplus.gov.in/#/reportcard/3101105/12,https://kys.udiseplus.gov.in/api/school/report-card?schoolId=3101105&yearId=10,TRIPURA,DHALAI,23.8253158,91.9732227
"JAWAHAR NAVODAYA VIDYALAYA WEST TRIPURA, HEZAMARA",3104998,12,https://kys.udiseplus.gov.in/#/reportcard/3104998/12,https://kys.udiseplus.gov.in/#/reportcard/3104998/12,https://kys.udiseplus.gov.in/api/school/report-card?schoolId=3104998&yearId=10,TRIPURA,WEST TRIPURA,23.9153328,91.3879341
"JAWAHAR NAVODAYA VIDYALAYA LAWNGTLAI, LAWNGTLAI",3002453,12,https://kys.udiseplus.gov.in/#/reportcard/3002453/12,https://kys.udiseplus.gov.in/#/reportcard/3002453/12,https://kys.udiseplus.gov.in/api/school/report-card?schoolId=3002453&yearId=10,MIZORAM,LAWNGTLAI,22.3913377,92.7397189
"JAWAHAR NAVODAYA VIDYALAYA LUNGLEI, LUNGLEI",3001885,12,https://kys.udiseplus.gov.in/#/reportcard/3001885/12,https://kys.udiseplus.gov.in/#/reportcard/3001885/12,https://kys.udiseplus.gov.in/api/school/report-card?schoolId=3001885&yearId=10,MIZORAM,LUNGLEI,22.9519972,92.6338827
JNV (HIGH SCHOOL SECTION),3000602,12,https://kys.udiseplus.gov.in/#/reportcard/3000602/12,https://kys.udiseplus.gov.in/#/reportcard/3000602/12,https://kys.udiseplus.gov.in/api/school/report-card?schoolId=3000602&yearId=10,,,33.0052705,-79.9870330
"JAWAHAR NAVODAYA VIDYALAYA AIZAWL, THINGSULTHLIAH",3000741,12,https://kys.udiseplus.gov.in/#/reportcard/3000741/12,https://kys.udiseplus.gov.in/#/reportcard/3000741/12,https://kys.udiseplus.gov.in/api/school/report-card?schoolId=3000741&yearId=10,MIZORAM,AIZAWL,23.7433532,92.7382756
"JAWAHAR NAVODAYA VIDYALAYA IMPHAL EAST, IRILBUNG",2904286,12,https://kys.udiseplus.gov.in/#/reportcard/2904286/12,https://kys.udiseplus.gov.in/#/reportcard/2904286/12,https://kys.udiseplus.gov.in/api/school/report-card?schoolId=2904286&yearId=10,MANIPUR,IMPHAL EAST,24.8328129,94.0166864
"JAWAHAR NAVODAYA VIDYALAYA RI-BHOI, UMLING",3206623,12,https://kys.udiseplus.gov.in/#/reportcard/3206623/12,https://kys.udiseplus.gov.in/#/reportcard/3206623/12,https://kys.udiseplus.gov.in/api/school/report-card?schoolId=3206623&yearId=10,MEGHALAYA,RI BHOI,25.8764026,91.8567574
"JAWAHAR NAVODAYA VIDYALAYA WEST KHASI HILLS, NONGSTOIN",3201062,12,https://kys.udiseplus.gov.in/#/reportcard/3201062/12,https://kys.udiseplus.gov.in/#/reportcard/3201062/12,https://kys.udiseplus.gov.in/api/school/report-card?schoolId=3201062&yearId=10,MEGHALAYA,WEST KHASI HILLS,25.5814429,91.0851094
"JAWAHAR NAVODAYA VIDYALAYA, SAIHA",3002455,12,https://kys.udiseplus.gov.in/#/reportcard/3002455/12,https://kys.udiseplus.gov.in/#/reportcard/3002455/12,https://kys.udiseplus.gov.in/api/school/report-card?schoolId=3002455&yearId=10,MIZORAM,LAWNGTLAI,22.3913377,92.7397189
"JAWAHAR NAVODAYA VIDYALAYA SERCHHIP, THENZAWL",3001291,12,https://kys.udiseplus.gov.in/#/reportcard/3001291/12,https://kys.udiseplus.gov.in/#/reportcard/3001291/12,https://kys.udiseplus.gov.in/api/school/report-card?schoolId=3001291&yearId=10,MIZORAM,SERCHHIP,23.3052514,92.8455123
"JAWAHAR NAVODAYA VIDYALAYA KHAWZAWL, KHAWZAWL",3000933,12,https://kys.udiseplus.gov.in/#/reportcard/3000933/12,https://kys.udiseplus.gov.in/#/reportcard/3000933/12,https://kys.udiseplus.gov.in/api/school/report-card?schoolId=3000933&yearId=10,MIZORAM,KHAWZAWL,23.4877894,93.1402943
"JAWAHAR NAVODAYA VIDYALAYA CHANDEL, CHANDEL",2903538,12,https://kys.udiseplus.gov.in/#/reportcard/2903538/12,https://kys.udiseplus.gov.in/#/reportcard/2903538/12,https://kys.udiseplus.gov.in/api/school/report-card?schoolId=2903538&yearId=10,MANIPUR,CHANDEL,24.3312009,94.0011081
"JAWAHAR NAVODAYA VIDYALAYA UKHRUL, JESSAMI",2902993,12,https://kys.udiseplus.gov.in/#/reportcard/2902993/12,https://kys.udiseplus.gov.in/#/reportcard/2902993/12,https://kys.udiseplus.gov.in/api/school/report-card?schoolId=2902993&yearId=10,MANIPUR,UKHRUL,25.3110738,94.4753775
"JAWAHAR NAVODAYA VIDYALAYA KANGPOKPI, KANGPOKPI",2900408,12,https://kys.udiseplus.gov.in/#/reportcard/2900408/12,https://kys.udiseplus.gov.in/#/reportcard/2900408/12,https://kys.udiseplus.gov.in/api/school/report-card?schoolId=2900408&yearId=10,MANIPUR,KANGPOKPI,25.1527725,93.9713691
"JAWAHAR NAVODAYA VIDYALAYA UKHRUL, UKHRUL",2902864,12,https://kys.udiseplus.gov.in/#/reportcard/2902864/12,https://kys.udiseplus.gov.in/#/reportcard/2902864/12,https://kys.udiseplus.gov.in/api/school/report-card?schoolId=2902864&yearId=10,MANIPUR,UKHRUL,25.3110738,94.4753775
JNV (HIGHER SECONDARY SECTION),3000603,12,https://kys.udiseplus.gov.in/#/reportcard/3000603/12,https://kys.udiseplus.gov.in/#/reportcard/3000603/12,https://kys.udiseplus.gov.in/api/school/report-card?schoolId=3000603&yearId=10,,,33.0052705,-79.9870330
"JAWAHAR NAVODAYA VIDYALAYA MAMIT, MAMIT",3000010,12,https://kys.udiseplus.gov.in/#/reportcard/3000010/12,https://kys.udiseplus.gov.in/#/reportcard/3000010/12,https://kys.udiseplus.gov.in/api/school/report-card?schoolId=3000010&yearId=10,MIZORAM,MAMIT,23.7564387,92.4515374
"JAWAHAR NAVODAYA VIDYALAYA KOLASIB, THINGDWAL",3000598,12,https://kys.udiseplus.gov.in/#/reportcard/3000598/12,https://kys.udiseplus.gov.in/#/reportcard/3000598/12,https://kys.udiseplus.gov.in/api/school/report-card?schoolId=3000598&yearId=10,MIZORAM,KOLASIB,24.2339647,92.6749651
"JAWAHAR NAVODAYA VIDYALAYA KAKCHING, KAKCHING",2904524,12,https://kys.udiseplus.gov.in/#/reportcard/2904524/12,https://kys.udiseplus.gov.in/#/reportcard/2904524/12,https://kys.udiseplus.gov.in/api/school/report-card?schoolId=2904524&yearId=10,MANIPUR,KAKCHING,24.4974827,93.9835543
"JAWAHAR NAVODAYA VIDYALAYA IMPHAL WEST, HAORANG SABAL",2904835,12,https://kys.udiseplus.gov.in/#/reportcard/2904835/12,https://kys.udiseplus.gov.in/#/reportcard/2904835/12,https://kys.udiseplus.gov.in/api/school/report-card?schoolId=2904835&yearId=10,MANIPUR,IMPHAL WEST,24.7590802,93.8617365
"JAWAHAR NAVODAYA VIDYALAYA VARANASI, GAJOKHAR",2085993,12,https://kys.udiseplus.gov.in/#/reportcard/2085993/12,https://kys.udiseplus.gov.in/#/reportcard/2085993/12,https://kys.udiseplus.gov.in/api/school/report-card?schoolId=2085993&yearId=10,UTTAR PRADESH,VARANASI,25.3356491,83.0076292
"JAWAHAR NAVODAYA VIDYALAYA BHADOHI (SANT RAVIDAS NAGAR), GYANPUR",2036949,12,https://kys.udiseplus.gov.in/#/reportcard/2036949/12,https://kys.udiseplus.gov.in/#/reportcard/2036949/12,https://kys.udiseplus.gov.in/api/school/report-card?schoolId=2036949&yearId=10,UTTAR PRADESH,BHADOI,,
"JAWAHAR NAVODAYA VIDYALAYA SAMBHAL, GUNNAUR",2028858,12,https://kys.udiseplus.gov.in/#/reportcard/2028858/12,https://kys.udiseplus.gov.in/#/reportcard/2028858/12,https://kys.udiseplus.gov.in/api/school/report-card?schoolId=2028858&yearId=10,UTTAR PRADESH,SAMBHAL (BHIM NAGAR),,
"JAWAHAR NAVODAYA VIDYALAYA MIRZAPUR, KUBRI PATEHARA",2056214,12,https://kys.udiseplus.gov.in/#/reportcard/2056214/12,https://kys.udiseplus.gov.in/#/reportcard/2056214/12,https://kys.udiseplus.gov.in/api/school/report-card?schoolId=2056214&yearId=10,UTTAR PRADESH,MIRZAPUR,24.9316896,82.6280163
"JAWAHAR NAVODAYA VIDYALAYA SHAMLI, BHAINSWAL",2083604,12,https://kys.udiseplus.gov.in/#/reportcard/2083604/12,https://kys.udiseplus.gov.in/#/reportcard/2083604/12,https://kys.udiseplus.gov.in/api/school/report-card?schoolId=2083604&yearId=10,UTTAR PRADESH,SHAMLI (PRABUDH NAGAR),,
"JAWAHAR NAVODAYA VIDYALAYA MAU, MAHUAR KASARA",2102590,12,https://kys.udiseplus.gov.in/#/reportcard/2102590/12,https://kys.udiseplus.gov.in/#/reportcard/2102590/12,https://kys.udiseplus.gov.in/api/school/report-card?schoolId=2102590&yearId=10,UTTAR PRADESH,MAU,26.0390904,83.4985846
"JAWAHAR NAVODAYA VIDYALAYA BALLIA, SINHACHAWAR",2100141,12,https://kys.udiseplus.gov.in/#/reportcard/2100141/12,https://kys.udiseplus.gov.in/#/reportcard/2100141/12,https://kys.udiseplus.gov.in/api/school/report-card?schoolId=2100141&yearId=10,UTTAR PRADESH,BALLIA,25.8749594,84.1210329
"JAWAHAR NAVODAYA VIDYALAYA AZAMGARH, JIYANPUR",2091892,12,https://kys.udiseplus.gov.in/#/reportcard/2091892/12,https://kys.udiseplus.gov.in/#/reportcard/2091892/12,https://kys.udiseplus.gov.in/api/school/report-card?schoolId=2091892&yearId=10,UTTAR PRADESH,AZAMGARH,26.0236390,83.0293105
"JAWAHAR NAVODAYA VIDYALAYA JAUNPUR, MARIAHU",2084755,12,https://kys.udiseplus.gov.in/#/reportcard/2084755/12,https://kys.udiseplus.gov.in/#/reportcard/2084755/12,https://kys.udiseplus.gov.in/api/school/report-card?schoolId=2084755&yearId=10,UTTAR PRADESH,JAUNPUR,25.7967065,82.4888992
"JAWAHAR NAVODAYA VIDYALAYA SONEBHADRA, BAHUAR",2028393,12,https://kys.udiseplus.gov.in/#/reportcard/2028393/12,https://kys.udiseplus.gov.in/#/reportcard/2028393/12,https://kys.udiseplus.gov.in/api/school/report-card?schoolId=2028393&yearId=10,UTTAR PRADESH,SONBHADRA,24.4148159,83.0637517
"JAWAHAR NAVODAYA VIDYALAYA GHAZIPUR, NEAR POLICE LINE",2041770,12,https://kys.udiseplus.gov.in/#/reportcard/2041770/12,https://kys.udiseplus.gov.in/#/reportcard/2041770/12,https://kys.udiseplus.gov.in/api/school/report-card?schoolId=2041770&yearId=10,UTTAR PRADESH,GHAZIPUR,25.6034862,83.5075888
"JAWAHAR NAVODAYA VIDYALAYA SIDDHARTHNAGAR, BANSI",2019886,12,https://kys.udiseplus.gov.in/#/reportcard/2019886/12,https://kys.udiseplus.gov.in/#/reportcard/2019886/12,https://kys.udiseplus.gov.in/api/school/report-card?schoolId=2019886&yearId=10,UTTAR PRADESH,SIDDHARTHNAGAR,27.2511723,82.8716528
"JAWAHAR NAVODAYA VIDYALAYA BASTI, RUDAHULI",2127198,12,https://kys.udiseplus.gov.in/#/reportcard/2127198/12,https://kys.udiseplus.gov.in/#/reportcard/2127198/12,https://kys.udiseplus.gov.in/api/school/report-card?schoolId=2127198&yearId=10,UTTAR PRADESH,BASTI,26.8387083,82.5350919
"JAWAHAR NAVODAYA VIDYALAYA BALRAMPUR, GHOOGHULPUR",2103671,12,https://kys.udiseplus.gov.in/#/reportcard/2103671/12,https://kys.udiseplus.gov.in/#/reportcard/2103671/12,https://kys.udiseplus.gov.in/api/school/report-card?schoolId=2103671&yearId=10,UTTAR PRADESH,BALRAMPUR,27.4476988,82.3956245
"JAWAHAR NAVODAYA VIDYALAYA SHRAWASTI, DUDHWANIYA",1951206,12,https://kys.udiseplus.gov.in/#/reportcard/1951206/12,https://kys.udiseplus.gov.in/#/reportcard/1951206/12,https://kys.udiseplus.gov.in/api/school/report-card?schoolId=1951206&yearId=10,UTTAR PRADESH,SHRAWASTI,,
"JAWAHAR NAVODAYA VIDYALAYA BAHRAICH, TANDWA BASANTPUR",2007947,12,https://kys.udiseplus.gov.in/#/reportcard/2007947/12,https://kys.udiseplus.gov.in/#/reportcard/2007947/12,https://kys.udiseplus.gov.in/api/school/report-card?schoolId=2007947&yearId=10,UTTAR PRADESH,BAHRAICH,27.7343823,81.4765400
"JAWAHAR NAVODAYA VIDYALAYA CHANDAULI, BAIRATH RAMGARH",1909848,12,https://kys.udiseplus.gov.in/#/reportcard/1909848/12,https://kys.udiseplus.gov.in/#/reportcard/1909848/12,https://kys.udiseplus.gov.in/api/school/report-card?schoolId=1909848&yearId=10,UTTAR PRADESH,CHANDAULI,25.1256950,83.2494601
"JAWAHAR NAVODAYA VIDYALAYA DEORIA, MEHRA PURWA",1901997,12,https://kys.udiseplus.gov.in/#/reportcard/1901997/12,https://kys.udiseplus.gov.in/#/reportcard/1901997/12,https://kys.udiseplus.gov.in/api/school/report-card?schoolId=1901997&yearId=10,UTTAR PRADESH,DEORIA,26.4239911,83.7638578
"JAWAHAR NAVODAYA VIDYALAYA KUSHINAGAR, PAKARI BUZURG",1923448,12,https://kys.udiseplus.gov.in/#/reportcard/1923448/12,https://kys.udiseplus.gov.in/#/reportcard/1923448/12,https://kys.udiseplus.gov.in/api/school/report-card?schoolId=1923448&yearId=10,UTTAR PRADESH,KUSHINAGAR,26.7438272,83.9162322
"JAWAHAR NAVODAYA VIDYALAYA SANT KABIR NAGAR, HARIHARPUR",2102814,12,https://kys.udiseplus.gov.in/#/reportcard/2102814/12,https://kys.udiseplus.gov.in/#/reportcard/2102814/12,https://kys.udiseplus.gov.in/api/school/report-card?schoolId=2102814&yearId=10,UTTAR PRADESH,SANT KABIR NAGAR,26.7550820,83.0398545
"JAWAHAR NAVODAYA VIDYALAYA GORAKHPUR, PIPIGANJ",2012865,12,https://kys.udiseplus.gov.in/#/reportcard/2012865/12,https://kys.udiseplus.gov.in/#/reportcard/2012865/12,https://kys.udiseplus.gov.in/api/school/report-card?schoolId=2012865&yearId=10,UTTAR PRADESH,GORAKHPUR,26.6677977,83.3642334
"JAWAHAR NAVODAYA VIDYALAYA MAHARAJGANJ, DHANEI",2065074,12,https://kys.udiseplus.gov.in/#/reportcard/2065074/12,https://kys.udiseplus.gov.in/#/reportcard/2065074/12,https://kys.udiseplus.gov.in/api/school/report-card?schoolId=2065074&yearId=10,UTTAR PRADESH,MAHARAJGANJ,27.0936024,83.5660681
"JAWAHAR NAVODAYA VIDYALAYA KASGANJ, AMANPUR",2180962,12,https://kys.udiseplus.gov.in/#/reportcard/2180962/12,https://kys.udiseplus.gov.in/#/reportcard/2180962/12,https://kys.udiseplus.gov.in/api/school/report-card?schoolId=2180962&yearId=10,UTTAR PRADESH,KANSHIRAM NAGAR,,
"JAWAHAR NAVODAYA VIDYALAYA GAYA, SHERGHATI",2453377,12,https://kys.udiseplus.gov.in/#/reportcard/2453377/12,https://kys.udiseplus.gov.in/#/reportcard/2453377/12,https://kys.udiseplus.gov.in/api/school/report-card?schoolId=2453377&yearId=10,BIHAR,GAYA,24.6793889,85.0115833
"JAWAHAR NAVODAYA VIDYALAYA SORENG, BAIGUNEY",2600636,12,https://kys.udiseplus.gov.in/#/reportcard/2600636/12,https://kys.udiseplus.gov.in/#/reportcard/2600636/12,https://kys.udiseplus.gov.in/api/school/report-card?schoolId=2600636&yearId=10,SIKKIM,SORENG,27.1901652,88.2006735
"JAWAHAR NAVODAYA VIDYALAYA KRA DAADI(KURUNG KUMEY), PALIN",2703462,12,https://kys.udiseplus.gov.in/#/reportcard/2703462/12,https://kys.udiseplus.gov.in/#/reportcard/2703462/12,https://kys.udiseplus.gov.in/api/school/report-card?schoolId=2703462&yearId=10,ARUNACHAL PRADESH,KRA DADI,,
"JAWAHAR NAVODAYA VIDYALAYA LOWER DIBANG VALLEY, ROING",2701386,12,https://kys.udiseplus.gov.in/#/reportcard/2701386/12,https://kys.udiseplus.gov.in/#/reportcard/2701386/12,https://kys.udiseplus.gov.in/api/school/report-card?schoolId=2701386&yearId=10,ARUNACHAL PRADESH,LOWER DIBANG VALLEY,28.2149563,95.8787740
"JAWAHAR NAVODAYA VIDYALAYA LOWER SUBANSIRI, ZIRO-II",2702913,12,https://kys.udiseplus.gov.in/#/reportcard/2702913/12,https://kys.udiseplus.gov.in/#/reportcard/2702913/12,https://kys.udiseplus.gov.in/api/school/report-card?schoolId=2702913&yearId=10,ARUNACHAL PRADESH,LOWER SUBANSIRI,27.5326327,93.7823245
"JAWAHAR NAVODAYA VIDYALAYA NAWADA, PAKRI BARAWAN",2452427,12,https://kys.udiseplus.gov.in/#/reportcard/2452427/12,https://kys.udiseplus.gov.in/#/reportcard/2452427/12,https://kys.udiseplus.gov.in/api/school/report-card?schoolId=2452427&yearId=10,BIHAR,NAWADA,24.8173249,85.5179085
"JAWAHAR NAVODAYA VIDYALAYA JEHANABAD, MAKHDUMPUR",2458492,12,https://kys.udiseplus.gov.in/#/reportcard/2458492/12,https://kys.udiseplus.gov.in/#/reportcard/2458492/12,https://kys.udiseplus.gov.in/api/school/report-card?schoolId=2458492&yearId=10,BIHAR,JEHANABAD,25.1529578,85.0065043
"JAWAHAR NAVODAYA VIDYALAYA KAUSHAMBI, TEWA MANJHANPUR",2086690,12,https://kys.udiseplus.gov.in/#/reportcard/2086690/12,https://kys.udiseplus.gov.in/#/reportcard/2086690/12,https://kys.udiseplus.gov.in/api/school/report-card?schoolId=2086690&yearId=10,UTTAR PRADESH,KAUSHAMBI,25.5342456,81.4493567
"JAWAHAR NAVODAYA VIDYALAYA GONDA, MANKAPUR",2030299,12,https://kys.udiseplus.gov.in/#/reportcard/2030299/12,https://kys.udiseplus.gov.in/#/reportcard/2030299/12,https://kys.udiseplus.gov.in/api/school/report-card?schoolId=2030299&yearId=10,UTTAR PRADESH,GONDA,27.1103723,81.9238906
"JAWAHAR NAVODAYA VIDYALAYA BARABANKI, TRIVEDIGANJ",2067844,12,https://kys.udiseplus.gov.in/#/reportcard/2067844/12,https://kys.udiseplus.gov.in/#/reportcard/2067844/12,https://kys.udiseplus.gov.in/api/school/report-card?schoolId=2067844&yearId=10,UTTAR PRADESH,BARABANKI,26.9421406,81.3856087
"JAWAHAR NAVODAYA VIDYALAYA PRATAPGARH, SARAI ANA DEV",2012921,12,https://kys.udiseplus.gov.in/#/reportcard/2012921/12,https://kys.udiseplus.gov.in/#/reportcard/2012921/12,https://kys.udiseplus.gov.in/api/school/report-card?schoolId=2012921&yearId=10,UTTAR PRADESH,PRATAPGARH,25.7500000,81.7500000
"JAWAHAR NAVODAYA VIDYALAYA CHITRAKOOT, MANIKPUR",2087116,12,https://kys.udiseplus.gov.in/#/reportcard/2087116/12,https://kys.udiseplus.gov.in/#/reportcard/2087116/12,https://kys.udiseplus.gov.in/api/school/report-card?schoolId=2087116&yearId=10,UTTAR PRADESH,CHITRAKOOT,25.2171389,81.1045927
"JAWAHAR NAVODAYA VIDYALAYA FATEHPUR, BINDKI",2104956,12,https://kys.udiseplus.gov.in/#/reportcard/2104956/12,https://kys.udiseplus.gov.in/#/reportcard/2104956/12,https://kys.udiseplus.gov.in/api/school/report-card?schoolId=2104956&yearId=10,UTTAR PRADESH,FATEHPUR,25.8348023,80.9154547
"JAWAHAR NAVODAYA VIDYALAYA SITAPUR-I, KHAIRABAD",2111484,12,https://kys.udiseplus.gov.in/#/reportcard/2111484/12,https://kys.udiseplus.gov.in/#/reportcard/2111484/12,https://kys.udiseplus.gov.in/api/school/report-card?schoolId=2111484&yearId=10,UTTAR PRADESH,SITAPUR,27.5026747,80.8335139
"JAWAHAR NAVODAYA VIDYALAYA LAKHIMPUR KHERI, MITAULI",1994215,12,https://kys.udiseplus.gov.in/#/reportcard/1994215/12,https://kys.udiseplus.gov.in/#/reportcard/1994215/12,https://kys.udiseplus.gov.in/api/school/report-card?schoolId=1994215&yearId=10,UTTAR PRADESH,KHERI,28.1166670,80.7166670
"JAWAHAR NAVODAYA VIDYALAYA SITAPUR-II, BHAMBHAURA, MAHOLI",2149386,12,https://kys.udiseplus.gov.in/#/reportcard/2149386/12,https://kys.udiseplus.gov.in/#/reportcard/2149386/12,https://kys.udiseplus.gov.in/api/school/report-card?schoolId=2149386&yearId=10,UTTAR PRADESH,SITAPUR,27.5026747,80.8335139
"JAWAHAR NAVODAYA VIDYALAYA SHAHJAHANPUR, HATHORA BUJURG",2188162,12,https://kys.udiseplus.gov.in/#/reportcard/2188162/12,https://kys.udiseplus.gov.in/#/reportcard/2188162/12,https://kys.udiseplus.gov.in/api/school/report-card?schoolId=2188162&yearId=10,UTTAR PRADESH,SHAHJAHANPUR,27.9128583,79.7476254
"JAWAHAR NAVODAYA VIDYALAYA HARDOI, PIHANI",1964419,12,https://kys.udiseplus.gov.in/#/reportcard/1964419/12,https://kys.udiseplus.gov.in/#/reportcard/1964419/12,https://kys.udiseplus.gov.in/api/school/report-card?schoolId=1964419&yearId=10,UTTAR PRADESH,HARDOI,27.3369978,80.0998232
"JAWAHAR NAVODAYA VIDYALAYA PAPUMPARE, DOIMUKH",2702503,12,https://kys.udiseplus.gov.in/#/reportcard/2702503/12,https://kys.udiseplus.gov.in/#/reportcard/2702503/12,https://kys.udiseplus.gov.in/api/school/report-card?schoolId=2702503&yearId=10,ARUNACHAL PRADESH,PAPUM PARE,27.2863666,93.6187716
"JAWAHAR NAVODAYA VIDYALAYA KIPHIRE, KIPHIRE",2802899,12,https://kys.udiseplus.gov.in/#/reportcard/2802899/12,https://kys.udiseplus.gov.in/#/reportcard/2802899/12,https://kys.udiseplus.gov.in/api/school/report-card?schoolId=2802899&yearId=10,NAGALAND,KIPHIRE,25.8113822,94.8494968
"JAWAHAR NAVODAYA VIDYALAYA PHEK, PFUTSERO",2802302,12,https://kys.udiseplus.gov.in/#/reportcard/2802302/12,https://kys.udiseplus.gov.in/#/reportcard/2802302/12,https://kys.udiseplus.gov.in/api/school/report-card?schoolId=2802302&yearId=10,NAGALAND,PHEK,25.6514473,94.3809788
"JAWAHAR NAVODAYA VIDYALAYA KOHIMA, L Khel",2801426,12,https://kys.udiseplus.gov.in/#/reportcard/2801426/12,https://kys.udiseplus.gov.in/#/reportcard/2801426/12,https://kys.udiseplus.gov.in/api/school/report-card?schoolId=2801426&yearId=10,NAGALAND,KOHIMA,25.6618755,94.1019156
"JAWAHAR NAVODAYA VIDYALAYA ZUNHEBOTO, AKULUTO",2800860,12,https://kys.udiseplus.gov.in/#/reportcard/2800860/12,https://kys.udiseplus.gov.in/#/reportcard/2800860/12,https://kys.udiseplus.gov.in/api/school/report-card?schoolId=2800860&yearId=10,NAGALAND,ZUNHEBOTO,26.0123802,94.5123719
"JAWAHAR NAVODAYA VIDYALAYA WOKHA, WOKHA",2800071,12,https://kys.udiseplus.gov.in/#/reportcard/2800071/12,https://kys.udiseplus.gov.in/#/reportcard/2800071/12,https://kys.udiseplus.gov.in/api/school/report-card?schoolId=2800071&yearId=10,NAGALAND,WOKHA,26.2422509,94.1921153
"JAWAHAR NAVODAYA VIDYALAYA NIULAND, NIULAND",2801215,12,https://kys.udiseplus.gov.in/#/reportcard/2801215/12,https://kys.udiseplus.gov.in/#/reportcard/2801215/12,https://kys.udiseplus.gov.in/api/school/report-card?schoolId=2801215&yearId=10,NAGALAND,DIMAPUR,25.9041378,93.7177609
"JAWAHAR NAVODAYA VIDYALAYA LONGLENG, TAMLU",2800542,12,https://kys.udiseplus.gov.in/#/reportcard/2800542/12,https://kys.udiseplus.gov.in/#/reportcard/2800542/12,https://kys.udiseplus.gov.in/api/school/report-card?schoolId=2800542&yearId=10,NAGALAND,LONGLENG,26.5839315,94.8045481
"JAWAHAR NAVODAYA VIDYALAYA BISHNUPUR, BISHNUPUR",2903268,12,https://kys.udiseplus.gov.in/#/reportcard/2903268/12,https://kys.udiseplus.gov.in/#/reportcard/2903268/12,https://kys.udiseplus.gov.in/api/school/report-card?schoolId=2903268&yearId=10,MANIPUR,BISHNUPUR,24.6267287,93.7600454
"JAWAHAR NAVODAYA VIDYALAYA SENAPATI, SONG SONG",2901974,12,https://kys.udiseplus.gov.in/#/reportcard/2901974/12,https://kys.udiseplus.gov.in/#/reportcard/2901974/12,https://kys.udiseplus.gov.in/api/school/report-card?schoolId=2901974&yearId=10,MANIPUR,SENAPATI,25.3933697,94.1501773
"JAWAHAR NAVODAYA VIDYALAYA TAMENGLONG, TAMENGLONG",2901075,12,https://kys.udiseplus.gov.in/#/reportcard/2901075/12,https://kys.udiseplus.gov.in/#/reportcard/2901075/12,https://kys.udiseplus.gov.in/api/school/report-card?schoolId=2901075&yearId=10,MANIPUR,TAMENGLONG,24.9858596,93.5039967
"JAWAHAR NAVODAYA VIDYALAYA CHURACHANDPUR, CHURACHANDPUR",2901444,12,https://kys.udiseplus.gov.in/#/reportcard/2901444/12,https://kys.udiseplus.gov.in/#/reportcard/2901444/12,https://kys.udiseplus.gov.in/api/school/report-card?schoolId=2901444&yearId=10,MANIPUR,CHURACHANDPUR,24.3468839,93.6994143
"JAWAHAR NAVODAYA VIDYALAYA PEREN, JALUKIE",2801484,12,https://kys.udiseplus.gov.in/#/reportcard/2801484/12,https://kys.udiseplus.gov.in/#/reportcard/2801484/12,https://kys.udiseplus.gov.in/api/school/report-card?schoolId=2801484&yearId=10,NAGALAND,PEREN,25.4502306,93.6001154
"JAWAHAR NAVODAYA VIDYALAYA ROHTAS, AKORHIGOLA",2408515,12,https://kys.udiseplus.gov.in/#/reportcard/2408515/12,https://kys.udiseplus.gov.in/#/reportcard/2408515/12,https://kys.udiseplus.gov.in/api/school/report-card?schoolId=2408515&yearId=10,BIHAR,ROHTAS,24.9394142,84.0197031
"JAWAHAR NAVODAYA VIDYALAYA PILIBHIT, ROHANIA, BISALPUR",1972601,12,https://kys.udiseplus.gov.in/#/reportcard/1972601/12,https://kys.udiseplus.gov.in/#/reportcard/1972601/12,https://kys.udiseplus.gov.in/api/school/report-card?schoolId=1972601&yearId=10,UTTAR PRADESH,PILIBHIT,28.4947158,80.1076122
"JAWAHAR NAVODAYA VIDYALAYA AYODHYA, FAIZABAD",1938031,12,https://kys.udiseplus.gov.in/#/reportcard/1938031/12,https://kys.udiseplus.gov.in/#/reportcard/1938031/12,https://kys.udiseplus.gov.in/api/school/report-card?schoolId=1938031&yearId=10,UTTAR PRADESH,FAIZABAD,26.7807986,82.1486589
"JAWAHAR NAVODAYA VIDYALAYA KANPUR DEHAT, JAINPUR",2093416,12,https://kys.udiseplus.gov.in/#/reportcard/2093416/12,https://kys.udiseplus.gov.in/#/reportcard/2093416/12,https://kys.udiseplus.gov.in/api/school/report-card?schoolId=2093416&yearId=10,UTTAR PRADESH,KANPUR DEHAT,26.4585639,79.8548052
"JAWAHAR NAVODAYA VIDYALAYA FARRUKHABAD, ROHILLA MOHAMMADABAD",2193865,12,https://kys.udiseplus.gov.in/#/reportcard/2193865/12,https://kys.udiseplus.gov.in/#/reportcard/2193865/12,https://kys.udiseplus.gov.in/api/school/report-card?schoolId=2193865&yearId=10,UTTAR PRADESH,FARRUKHABAD,27.4362002,79.4894778
"JAWAHAR NAVODAYA VIDYALAYA RAEBARELI, MAHARAJGANJ",1937363,12,https://kys.udiseplus.gov.in/#/reportcard/1937363/12,https://kys.udiseplus.gov.in/#/reportcard/1937363/12,https://kys.udiseplus.gov.in/api/school/report-card?schoolId=1937363&yearId=10,UTTAR PRADESH,RAE BARELI,26.2500000,81.2500000
JAWAHAR Navoday VIDAYALAY,1962155,12,https://kys.udiseplus.gov.in/#/reportcard/1962155/12,https://kys.udiseplus.gov.in/#/reportcard/1962155/12,https://kys.udiseplus.gov.in/api/school/report-card?schoolId=1962155&yearId=10,,,33.0052705,-79.9870330
"JAWAHAR NAVODAYA VIDYALAYA LALITPUR, DAILWARA",2089586,12,https://kys.udiseplus.gov.in/#/reportcard/2089586/12,https://kys.udiseplus.gov.in/#/reportcard/2089586/12,https://kys.udiseplus.gov.in/api/school/report-card?schoolId=2089586&yearId=10,UTTAR PRADESH,LALITPUR,24.6999688,78.5186200
"JAWAHAR NAVODAYA VIDYALAYA BANDA, DURENDI",2034588,12,https://kys.udiseplus.gov.in/#/reportcard/2034588/12,https://kys.udiseplus.gov.in/#/reportcard/2034588/12,https://kys.udiseplus.gov.in/api/school/report-card?schoolId=2034588&yearId=10,UTTAR PRADESH,BANDA,25.4438537,80.5595237
"JAWAHAR NAVODAYA VIDYALAYA MAHOBA, MAHOBA",2003186,12,https://kys.udiseplus.gov.in/#/reportcard/2003186/12,https://kys.udiseplus.gov.in/#/reportcard/2003186/12,https://kys.udiseplus.gov.in/api/school/report-card?schoolId=2003186&yearId=10,UTTAR PRADESH,MAHOBA,25.3615938,79.7060110
"JAWAHAR NAVODAYA VIDYALAYA HAMIRPUR, RATH",1987479,12,https://kys.udiseplus.gov.in/#/reportcard/1987479/12,https://kys.udiseplus.gov.in/#/reportcard/1987479/12,https://kys.udiseplus.gov.in/api/school/report-card?schoolId=1987479&yearId=10,UTTAR PRADESH,HAMIRPUR (U.P.),,
"JAWAHAR NAVODAYA VIDYALAYA JHANSI, BARUASAGAR",2002299,12,https://kys.udiseplus.gov.in/#/reportcard/2002299/12,https://kys.udiseplus.gov.in/#/reportcard/2002299/12,https://kys.udiseplus.gov.in/api/school/report-card?schoolId=2002299&yearId=10,UTTAR PRADESH,JHANSI,25.5298550,78.6527802
"JAWAHAR NAVODAYA VIDYALAYA JALAUN, ORAI",2051331,12,https://kys.udiseplus.gov.in/#/reportcard/2051331/12,https://kys.udiseplus.gov.in/#/reportcard/2051331/12,https://kys.udiseplus.gov.in/api/school/report-card?schoolId=2051331&yearId=10,UTTAR PRADESH,JALAUN,26.1048633,79.3919136
"JAWAHAR NAVODAYA VIDYALAYA ETAH, BEGAUR",1987653,12,https://kys.udiseplus.gov.in/#/reportcard/1987653/12,https://kys.udiseplus.gov.in/#/reportcard/1987653/12,https://kys.udiseplus.gov.in/api/school/report-card?schoolId=1987653&yearId=10,UTTAR PRADESH,ETAH,27.5550357,78.5992221
"JAWAHAR NAVODAYA VIDYALAYA BAREILLY, WEST FATEHGANJ",2162267,12,https://kys.udiseplus.gov.in/#/reportcard/2162267/12,https://kys.udiseplus.gov.in/#/reportcard/2162267/12,https://kys.udiseplus.gov.in/api/school/report-card?schoolId=2162267&yearId=10,UTTAR PRADESH,BAREILLY,28.4582344,79.4047452
"JAWAHAR NAVODAYA VIDYALAYA PRAYAGRAJ (ALLAHABAD), MEJA KHAS",1957611,12,https://kys.udiseplus.gov.in/#/reportcard/1957611/12,https://kys.udiseplus.gov.in/#/reportcard/1957611/12,https://kys.udiseplus.gov.in/api/school/report-card?schoolId=1957611&yearId=10,UTTAR PRADESH,PRAYAGRAJ,25.4381302,81.8338005
"JAWAHAR NAVODAYA VIDYALAYA HAPUR, NAKKA KUAN, MELA ROAD",2203598,12,https://kys.udiseplus.gov.in/#/reportcard/2203598/12,https://kys.udiseplus.gov.in/#/reportcard/2203598/12,https://kys.udiseplus.gov.in/api/school/report-card?schoolId=2203598&yearId=10,UTTAR PRADESH,HAPUR (PANCHSHEEL NAGAR),,
"JAWAHAR NAVODAYA VIDYALAYA WEST CHAMPARAN, Chanpatia",2424596,12,https://kys.udiseplus.gov.in/#/reportcard/2424596/12,https://kys.udiseplus.gov.in/#/reportcard/2424596/12,https://kys.udiseplus.gov.in/api/school/report-card?schoolId=2424596&yearId=10,BIHAR,PASHCHIM CHAMPARAN,27.0000000,84.5000000
"JAWAHAR NAVODAYA VIDYALAYA AMETHI, GAURIGANJ",1923256,12,https://kys.udiseplus.gov.in/#/reportcard/1923256/12,https://kys.udiseplus.gov.in/#/reportcard/1923256/12,https://kys.udiseplus.gov.in/api/school/report-card?schoolId=1923256&yearId=10,UTTAR PRADESH,AMETHI - CSM NAGAR,,
"JAWAHAR NAVODAYA VIDYALAYA SULTANPUR, JAISINGHPUR",2199878,12,https://kys.udiseplus.gov.in/#/reportcard/2199878/12,https://kys.udiseplus.gov.in/#/reportcard/2199878/12,https://kys.udiseplus.gov.in/api/school/report-card?schoolId=2199878&yearId=10,UTTAR PRADESH,SULTANPUR,26.2604732,82.2380532
JAWAHAR NAVODAY VIDYALAYA,2030093,12,https://kys.udiseplus.gov.in/#/reportcard/2030093/12,https://kys.udiseplus.gov.in/#/reportcard/2030093/12,https://kys.udiseplus.gov.in/api/school/report-card?schoolId=2030093&yearId=10,,,33.0052705,-79.9870330
"JAWAHAR NAVODAYA VIDYALAYA AMBEDKAR NAGAR, MUBARAKPUR DAIYA DEEH",2183136,12,https://kys.udiseplus.gov.in/#/reportcard/2183136/12,https://kys.udiseplus.gov.in/#/reportcard/2183136/12,https://kys.udiseplus.gov.in/api/school/report-card?schoolId=2183136&yearId=10,UTTAR PRADESH,AMBEDKAR NAGAR,26.4045941,82.6065154
"JAWAHAR NAVODAYA VIDYALAYA UNNAO, RAJIVPURAM",2121693,12,https://kys.udiseplus.gov.in/#/reportcard/2121693/12,https://kys.udiseplus.gov.in/#/reportcard/2121693/12,https://kys.udiseplus.gov.in/api/school/report-card?schoolId=2121693&yearId=10,UTTAR PRADESH,UNNAO,26.5673264,80.6198193
"JAWAHAR NAVODAYA VIDYALAYA LUCKNOW, PIPARSAND",2164437,12,https://kys.udiseplus.gov.in/#/reportcard/2164437/12,https://kys.udiseplus.gov.in/#/reportcard/2164437/12,https://kys.udiseplus.gov.in/api/school/report-card?schoolId=2164437&yearId=10,UTTAR PRADESH,LUCKNOW,26.8381000,80.9346001
"JAWAHAR NAVODAYA VIDYALAYA BADAYUN, BISAULI",1931893,12,https://kys.udiseplus.gov.in/#/reportcard/1931893/12,https://kys.udiseplus.gov.in/#/reportcard/1931893/12,https://kys.udiseplus.gov.in/api/school/report-card?schoolId=1931893&yearId=10,UTTAR PRADESH,BUDAUN,28.0367001,79.1234000
"JAWAHAR NAVODAYA VIDYALAYA JHALAWAR, BHAWANI MANDI",1707268,12,https://kys.udiseplus.gov.in/#/reportcard/1707268/12,https://kys.udiseplus.gov.in/#/reportcard/1707268/12,https://kys.udiseplus.gov.in/api/school/report-card?schoolId=1707268&yearId=10,RAJASTHAN,JHALAWAR,24.3132368,76.5221078
"JAWAHAR NAVODAYA VIDYALAYA KOTA, RAMGANJ MANDI",1796770,12,https://kys.udiseplus.gov.in/#/reportcard/1796770/12,https://kys.udiseplus.gov.in/#/reportcard/1796770/12,https://kys.udiseplus.gov.in/api/school/report-card?schoolId=1796770&yearId=10,RAJASTHAN,KOTA,25.1737019,75.8574194
"JAWAHAR NAVODAYA VIDYALAYA BUNDI, TALERA",1722073,12,https://kys.udiseplus.gov.in/#/reportcard/1722073/12,https://kys.udiseplus.gov.in/#/reportcard/1722073/12,https://kys.udiseplus.gov.in/api/school/report-card?schoolId=1722073&yearId=10,RAJASTHAN,BUNDI,25.4367659,75.7361471
"JAWAHAR NAVODAYA VIDYALAYA TONK, TONK",1735517,12,https://kys.udiseplus.gov.in/#/reportcard/1735517/12,https://kys.udiseplus.gov.in/#/reportcard/1735517/12,https://kys.udiseplus.gov.in/api/school/report-card?schoolId=1735517&yearId=10,RAJASTHAN,TONK,26.1222660,75.8238631
"JAWAHAR NAVODAYA VIDYALAYA BHILWARA, HURDA",1773311,12,https://kys.udiseplus.gov.in/#/reportcard/1773311/12,https://kys.udiseplus.gov.in/#/reportcard/1773311/12,https://kys.udiseplus.gov.in/api/school/report-card?schoolId=1773311&yearId=10,RAJASTHAN,BHILWARA,25.4891177,74.3300726
"JAWAHAR NAVODAYA VIDYALAYA DUNGARPUR, SAGWARA",1773658,12,https://kys.udiseplus.gov.in/#/reportcard/1773658/12,https://kys.udiseplus.gov.in/#/reportcard/1773658/12,https://kys.udiseplus.gov.in/api/school/report-card?schoolId=1773658&yearId=10,RAJASTHAN,DUNGARPUR,23.8538893,73.7087177
"JAWAHAR NAVODAYA VIDYALAYA UDAIPUR, MAVLI",1804808,12,https://kys.udiseplus.gov.in/#/reportcard/1804808/12,https://kys.udiseplus.gov.in/#/reportcard/1804808/12,https://kys.udiseplus.gov.in/api/school/report-card?schoolId=1804808&yearId=10,RAJASTHAN,UDAIPUR,24.5787210,73.6862571
"JAWAHAR NAVODAYA VIDYALAYA AJMER, SHRINAGAR",1789959,12,https://kys.udiseplus.gov.in/#/reportcard/1789959/12,https://kys.udiseplus.gov.in/#/reportcard/1789959/12,https://kys.udiseplus.gov.in/api/school/report-card?schoolId=1789959&yearId=10,RAJASTHAN,AJMER,26.4691000,74.6390000
"JAWAHAR NAVODAYA VIDYALAYA PRATAPGARH, CHHOTI SADRI",1713945,12,https://kys.udiseplus.gov.in/#/reportcard/1713945/12,https://kys.udiseplus.gov.in/#/reportcard/1713945/12,https://kys.udiseplus.gov.in/api/school/report-card?schoolId=1713945&yearId=10,RAJASTHAN,PRATAPGARH (RAJ.),,
"JAWAHAR NAVODAYA VIDYALAYA JAISALMER, MOHANGARH",1745297,12,https://kys.udiseplus.gov.in/#/reportcard/1745297/12,https://kys.udiseplus.gov.in/#/reportcard/1745297/12,https://kys.udiseplus.gov.in/api/school/report-card?schoolId=1745297&yearId=10,RAJASTHAN,JAISALMER,26.9116615,70.9124888
"JAWAHAR NAVODAYA VIDYALAYA JODHPUR RURAL, PIPAR CITY",1782515,12,https://kys.udiseplus.gov.in/#/reportcard/1782515/12,https://kys.udiseplus.gov.in/#/reportcard/1782515/12,https://kys.udiseplus.gov.in/api/school/report-card?schoolId=1782515&yearId=10,RAJASTHAN,JODHPUR,26.2967719,73.0351433
"JAWAHAR NAVODAYA VIDYALAYA NEEM KA THANA(SIKAR), PATAN",1795113,12,https://kys.udiseplus.gov.in/#/reportcard/1795113/12,https://kys.udiseplus.gov.in/#/reportcard/1795113/12,https://kys.udiseplus.gov.in/api/school/report-card?schoolId=1795113&yearId=10,RAJASTHAN,SIKAR,27.6625058,75.0279905
"JAWAHAR NAVODAYA VIDYALAYA DIDWANA-KUCHAMAN(NAGAUR), KUCHAMAN CITY",1806692,12,https://kys.udiseplus.gov.in/#/reportcard/1806692/12,https://kys.udiseplus.gov.in/#/reportcard/1806692/12,https://kys.udiseplus.gov.in/api/school/report-card?schoolId=1806692&yearId=10,RAJASTHAN,NAGAUR,26.9873443,73.7389011
"JAWAHAR NAVODAYA VIDYALAYA KOTPUTLI-BEHROR(JAIPUR), VIRAT NAGAR",1761906,12,https://kys.udiseplus.gov.in/#/reportcard/1761906/12,https://kys.udiseplus.gov.in/#/reportcard/1761906/12,https://kys.udiseplus.gov.in/api/school/report-card?schoolId=1761906&yearId=10,RAJASTHAN,JAIPUR,26.9154576,75.8189817
"JAWAHAR NAVODAYA VIDYALAYA TEHRI GARHWAL, PAUKHAL",1414129,12,https://kys.udiseplus.gov.in/#/reportcard/1414129/12,https://kys.udiseplus.gov.in/#/reportcard/1414129/12,https://kys.udiseplus.gov.in/api/school/report-card?schoolId=1414129&yearId=10,UTTARAKHAND,TEHRI GARHWAL,30.4658181,78.4837349
"JAWAHAR NAVODAYA VIDYALAYA CHAMOLI, PIPALKOTI",1405141,12,https://kys.udiseplus.gov.in/#/reportcard/1405141/12,https://kys.udiseplus.gov.in/#/reportcard/1405141/12,https://kys.udiseplus.gov.in/api/school/report-card?schoolId=1405141&yearId=10,UTTARAKHAND,CHAMOLI,30.4985956,79.6190537
"JAWAHAR NAVODAYA VIDYALAYA CHANDIGARH, CHANDIGARH",1300059,12,https://kys.udiseplus.gov.in/#/reportcard/1300059/12,https://kys.udiseplus.gov.in/#/reportcard/1300059/12,https://kys.udiseplus.gov.in/api/school/report-card?schoolId=1300059&yearId=10,CHANDIGARH,CHANDIGARH,30.7334421,76.7797143
"JAWAHAR NAVODAYA VIDYALAYA UTTARKASHI, PUROLA",1406461,12,https://kys.udiseplus.gov.in/#/reportcard/1406461/12,https://kys.udiseplus.gov.in/#/reportcard/1406461/12,https://kys.udiseplus.gov.in/api/school/report-card?schoolId=1406461&yearId=10,UTTARAKHAND,UTTARKASHI,30.9635733,78.6362521
"JAWAHAR NAVODAYA VIDYALAYA TARN-TARAN, KHADOOR SAHIB",1224908,12,https://kys.udiseplus.gov.in/#/reportcard/1224908/12,https://kys.udiseplus.gov.in/#/reportcard/1224908/12,https://kys.udiseplus.gov.in/api/school/report-card?schoolId=1224908&yearId=10,PUNJAB,TARAN TARAN,31.3212453,74.8416687
"JAWAHAR NAVODAYA VIDYALAYA BATHINDA, TALWANDI SABO",1203834,12,https://kys.udiseplus.gov.in/#/reportcard/1203834/12,https://kys.udiseplus.gov.in/#/reportcard/1203834/12,https://kys.udiseplus.gov.in/api/school/report-card?schoolId=1203834&yearId=10,PUNJAB,BATHINDA,30.1794813,75.0471098
"JAWAHAR NAVODAYA VIDYALAYA ROPAR, SHRI CHAMKAUR SAHIB",1209402,12,https://kys.udiseplus.gov.in/#/reportcard/1209402/12,https://kys.udiseplus.gov.in/#/reportcard/1209402/12,https://kys.udiseplus.gov.in/api/school/report-card?schoolId=1209402&yearId=10,PUNJAB,RUPNAGAR,31.0917102,76.5289701
"JAWAHAR NAVODAYA VIDYALAYA SHAHEED BHAGAT SINGH NAGAR, SAROYA",1215428,12,https://kys.udiseplus.gov.in/#/reportcard/1215428/12,https://kys.udiseplus.gov.in/#/reportcard/1215428/12,https://kys.udiseplus.gov.in/api/school/report-card?schoolId=1215428&yearId=10,PUNJAB,NAWANSHAHR,31.1269689,76.1598988
"JAWAHAR NAVODAYA VIDYALAYA FEROZEPUR, ZIRA",1215829,12,https://kys.udiseplus.gov.in/#/reportcard/1215829/12,https://kys.udiseplus.gov.in/#/reportcard/1215829/12,https://kys.udiseplus.gov.in/api/school/report-card?schoolId=1215829&yearId=10,PUNJAB,FIROZPUR,30.8753832,74.6525438
"JAWAHAR NAVODAYA VIDYALAYA MOGA, NIHAL SINGH WALA",1221025,12,https://kys.udiseplus.gov.in/#/reportcard/1221025/12,https://kys.udiseplus.gov.in/#/reportcard/1221025/12,https://kys.udiseplus.gov.in/api/school/report-card?schoolId=1221025&yearId=10,PUNJAB,MOGA,30.7877554,75.1593590
"JAWAHAR NAVODAYA VIDYALAYA YAMUNANAGAR, CHHACHRAULI",1504718,12,https://kys.udiseplus.gov.in/#/reportcard/1504718/12,https://kys.udiseplus.gov.in/#/reportcard/1504718/12,https://kys.udiseplus.gov.in/api/school/report-card?schoolId=1504718&yearId=10,HARYANA,YAMUNANAGAR,30.1231349,77.2863290
"JAWAHAR NAVODAYA VIDYALAYA PATIALA, BHUNERHEDI",1219222,12,https://kys.udiseplus.gov.in/#/reportcard/1219222/12,https://kys.udiseplus.gov.in/#/reportcard/1219222/12,https://kys.udiseplus.gov.in/api/school/report-card?schoolId=1219222&yearId=10,PUNJAB,PATIALA,30.2092777,76.3397231
"JAWAHAR NAVODAYA VIDYALAYA SANGRUR, CHEEMA",1204862,12,https://kys.udiseplus.gov.in/#/reportcard/1204862/12,https://kys.udiseplus.gov.in/#/reportcard/1204862/12,https://kys.udiseplus.gov.in/api/school/report-card?schoolId=1204862&yearId=10,PUNJAB,SANGRUR,30.1357170,75.8533326
"JAWAHAR NAVODAYA VIDYALAYA BARNALA, SEHNA",1201690,12,https://kys.udiseplus.gov.in/#/reportcard/1201690/12,https://kys.udiseplus.gov.in/#/reportcard/1201690/12,https://kys.udiseplus.gov.in/api/school/report-card?schoolId=1201690&yearId=10,PUNJAB,BARNALA,30.3716802,75.5039887
"JAWAHAR NAVODAYA VIDYALAYA MOHALI / SAS NAGAR, KURALI",1201509,12,https://kys.udiseplus.gov.in/#/reportcard/1201509/12,https://kys.udiseplus.gov.in/#/reportcard/1201509/12,https://kys.udiseplus.gov.in/api/school/report-card?schoolId=1201509&yearId=10,PUNJAB,MOHALI,30.7041168,76.7176885
"JAWAHAR NAVODAYA VIDYALAYA PATHANKOT, GHAROTA",1221274,12,https://kys.udiseplus.gov.in/#/reportcard/1221274/12,https://kys.udiseplus.gov.in/#/reportcard/1221274/12,https://kys.udiseplus.gov.in/api/school/report-card?schoolId=1221274&yearId=10,PUNJAB,PATHANKOT,32.3021899,75.6589406
"JAWAHAR NAVODAYA VIDYALAYA FAZILKA, FAZILKA 1",1220607,12,https://kys.udiseplus.gov.in/#/reportcard/1220607/12,https://kys.udiseplus.gov.in/#/reportcard/1220607/12,https://kys.udiseplus.gov.in/api/school/report-card?schoolId=1220607&yearId=10,PUNJAB,FAZILKA,30.3198406,74.1217943
"JAWAHAR NAVODAYA VIDYALAYA FARIDKOT, FARIDKOT",1217024,12,https://kys.udiseplus.gov.in/#/reportcard/1217024/12,https://kys.udiseplus.gov.in/#/reportcard/1217024/12,https://kys.udiseplus.gov.in/api/school/report-card?schoolId=1217024&yearId=10,PUNJAB,FARIDKOT,30.6014507,74.7950176
"JAWAHAR NAVODAYA VIDYALAYA MANSA, BUDHLADA",1215945,12,https://kys.udiseplus.gov.in/#/reportcard/1215945/12,https://kys.udiseplus.gov.in/#/reportcard/1215945/12,https://kys.udiseplus.gov.in/api/school/report-card?schoolId=1215945&yearId=10,PUNJAB,MANSA,29.8764133,75.4889564
"JAWAHAR NAVODAYA VIDYALAYA SRI MUKTSAR SAHIB, LAMBI",1212192,12,https://kys.udiseplus.gov.in/#/reportcard/1212192/12,https://kys.udiseplus.gov.in/#/reportcard/1212192/12,https://kys.udiseplus.gov.in/api/school/report-card?schoolId=1212192&yearId=10,PUNJAB,MUKTSAR,30.4692000,74.5182000
"JAWAHAR NAVODAYA VIDYALAYA REWARI, BAWAL",1510361,12,https://kys.udiseplus.gov.in/#/reportcard/1510361/12,https://kys.udiseplus.gov.in/#/reportcard/1510361/12,https://kys.udiseplus.gov.in/api/school/report-card?schoolId=1510361&yearId=10,HARYANA,REWARI,28.1956468,76.6165179
"JAWAHAR NAVODAYA VIDYALAYA DAUSA, SURAJPURA",1796781,12,https://kys.udiseplus.gov.in/#/reportcard/1796781/12,https://kys.udiseplus.gov.in/#/reportcard/1796781/12,https://kys.udiseplus.gov.in/api/school/report-card?schoolId=1796781&yearId=10,RAJASTHAN,DAUSA,26.8048658,76.4437457
"JAWAHAR NAVODAYA VIDYALAYA DHOLPUR, DHOLPUR",1753313,12,https://kys.udiseplus.gov.in/#/reportcard/1753313/12,https://kys.udiseplus.gov.in/#/reportcard/1753313/12,https://kys.udiseplus.gov.in/api/school/report-card?schoolId=1753313&yearId=10,RAJASTHAN,DHAULPUR,26.6530331,77.6241037
"JAWAHAR NAVODAYA VIDYALAYA HISSAR, UKLANA",1508975,12,https://kys.udiseplus.gov.in/#/reportcard/1508975/12,https://kys.udiseplus.gov.in/#/reportcard/1508975/12,https://kys.udiseplus.gov.in/api/school/report-card?schoolId=1508975&yearId=10,HARYANA,HISAR,29.2396596,75.8174505
"JAWAHAR NAVODAYA VIDYALAYA BHIWANI, KAIRU",1509336,12,https://kys.udiseplus.gov.in/#/reportcard/1509336/12,https://kys.udiseplus.gov.in/#/reportcard/1509336/12,https://kys.udiseplus.gov.in/api/school/report-card?schoolId=1509336&yearId=10,HARYANA,BHIWANI,28.7931703,76.1391283
"JAWAHAR NAVODAYA VIDYALAYA SIRSA, ODHAN",1518323,12,https://kys.udiseplus.gov.in/#/reportcard/1518323/12,https://kys.udiseplus.gov.in/#/reportcard/1518323/12,https://kys.udiseplus.gov.in/api/school/report-card?schoolId=1518323&yearId=10,HARYANA,SIRSA,29.6063041,74.9036568
"JAWAHAR NAVODAYA VIDYALAYA FARIDABAD, BALLABHGARH",1502094,12,https://kys.udiseplus.gov.in/#/reportcard/1502094/12,https://kys.udiseplus.gov.in/#/reportcard/1502094/12,https://kys.udiseplus.gov.in/api/school/report-card?schoolId=1502094&yearId=10,HARYANA,FARIDABAD,28.4031478,77.3105561
"JAWAHAR NAVODAYA VIDYALAYA GURUGRAM, FARRUKH NAGAR",1513886,12,https://kys.udiseplus.gov.in/#/reportcard/1513886/12,https://kys.udiseplus.gov.in/#/reportcard/1513886/12,https://kys.udiseplus.gov.in/api/school/report-card?schoolId=1513886&yearId=10,HARYANA,GURUGRAM,28.4646148,77.0299194
"JAWAHAR NAVODAYA VIDYALAYA JHAJJAR, JHAJJAR",1509902,12,https://kys.udiseplus.gov.in/#/reportcard/1509902/12,https://kys.udiseplus.gov.in/#/reportcard/1509902/12,https://kys.udiseplus.gov.in/api/school/report-card?schoolId=1509902&yearId=10,HARYANA,JHAJJAR,28.5964461,76.6505366
"JAWAHAR NAVODAYA VIDYALAYA DEHRADUN, SHANKARPUR",1416300,12,https://kys.udiseplus.gov.in/#/reportcard/1416300/12,https://kys.udiseplus.gov.in/#/reportcard/1416300/12,https://kys.udiseplus.gov.in/api/school/report-card?schoolId=1416300&yearId=10,UTTARAKHAND,DEHRADUN,30.3255646,78.0436813
"JAWAHAR NAVODAYA VIDYALAYA RUDRAPRAYAG, UKHIMATH",1413580,12,https://kys.udiseplus.gov.in/#/reportcard/1413580/12,https://kys.udiseplus.gov.in/#/reportcard/1413580/12,https://kys.udiseplus.gov.in/api/school/report-card?schoolId=1413580&yearId=10,UTTARAKHAND,RUDRAPRAYAG,30.4915835,79.0366067
"JAWAHAR NAVODAYA VIDYALAYA PITHORAGARH, ATHGAON SHILLING",1401859,12,https://kys.udiseplus.gov.in/#/reportcard/1401859/12,https://kys.udiseplus.gov.in/#/reportcard/1401859/12,https://kys.udiseplus.gov.in/api/school/report-card?schoolId=1401859&yearId=10,UTTARAKHAND,PITHORAGARH,29.5858710,80.2151670
"JAWAHAR NAVODAYA VIDYALAYA PALWAL, PALWAL",1502146,12,https://kys.udiseplus.gov.in/#/reportcard/1502146/12,https://kys.udiseplus.gov.in/#/reportcard/1502146/12,https://kys.udiseplus.gov.in/api/school/report-card?schoolId=1502146&yearId=10,HARYANA,PALWAL,28.0599426,77.3223422
"JAWAHAR NAVODAYA VIDYALAYA NUH, NUH",1515377,12,https://kys.udiseplus.gov.in/#/reportcard/1515377/12,https://kys.udiseplus.gov.in/#/reportcard/1515377/12,https://kys.udiseplus.gov.in/api/school/report-card?schoolId=1515377&yearId=10,HARYANA,NUH,27.9935177,77.0419634
"JAWAHAR NAVODAYA VIDYALAYA MAHENDRAGARH, KANINA",1502074,12,https://kys.udiseplus.gov.in/#/reportcard/1502074/12,https://kys.udiseplus.gov.in/#/reportcard/1502074/12,https://kys.udiseplus.gov.in/api/school/report-card?schoolId=1502074&yearId=10,HARYANA,MAHENDRAGARH,28.1326970,76.1697448
"JAWAHAR NAVODAYA VIDYALAYA PANIPAT, ISRANA",1505230,12,https://kys.udiseplus.gov.in/#/reportcard/1505230/12,https://kys.udiseplus.gov.in/#/reportcard/1505230/12,https://kys.udiseplus.gov.in/api/school/report-card?schoolId=1505230&yearId=10,HARYANA,PANIPAT,29.3912753,76.9771675
"JAWAHAR NAVODAYA VIDYALAYA PANCHKULA, RAIPUR RANI",1513223,12,https://kys.udiseplus.gov.in/#/reportcard/1513223/12,https://kys.udiseplus.gov.in/#/reportcard/1513223/12,https://kys.udiseplus.gov.in/api/school/report-card?schoolId=1513223&yearId=10,HARYANA,PANCHKULA,30.6975401,76.8551066
"JAWAHAR NAVODAYA VIDYALAYA FATEHABAD, FATEHABAD",1517784,12,https://kys.udiseplus.gov.in/#/reportcard/1517784/12,https://kys.udiseplus.gov.in/#/reportcard/1517784/12,https://kys.udiseplus.gov.in/api/school/report-card?schoolId=1517784&yearId=10,HARYANA,FATEHABAD,29.5359209,75.5752901
"JAWAHAR NAVODAYA VIDYALAYA SONEPAT, MUNDLANA",1517227,12,https://kys.udiseplus.gov.in/#/reportcard/1517227/12,https://kys.udiseplus.gov.in/#/reportcard/1517227/12,https://kys.udiseplus.gov.in/api/school/report-card?schoolId=1517227&yearId=10,HARYANA,SONIPAT,28.9953758,77.0233627
"JAWAHAR NAVODAYA VIDYALAYA JIND, JIND",1507067,12,https://kys.udiseplus.gov.in/#/reportcard/1507067/12,https://kys.udiseplus.gov.in/#/reportcard/1507067/12,https://kys.udiseplus.gov.in/api/school/report-card?schoolId=1507067&yearId=10,HARYANA,JIND,29.3152073,76.3140820
"JAWAHAR NAVODAYA VIDYALAYA KHAIRTHAL-TIJARA(ALWAR), KISHANGARHBAS",1731495,12,https://kys.udiseplus.gov.in/#/reportcard/1731495/12,https://kys.udiseplus.gov.in/#/reportcard/1731495/12,https://kys.udiseplus.gov.in/api/school/report-card?schoolId=1731495&yearId=10,RAJASTHAN,ALWAR,27.4140048,76.6170387
"JAWAHAR NAVODAYA VIDYALAYA CHURU, SARDARSHAHAR",1742228,12,https://kys.udiseplus.gov.in/#/reportcard/1742228/12,https://kys.udiseplus.gov.in/#/reportcard/1742228/12,https://kys.udiseplus.gov.in/api/school/report-card?schoolId=1742228&yearId=10,RAJASTHAN,CHURU,28.2047781,74.6912996
"JAWAHAR NAVODAYA VIDYALAYA BIKANER, KOLAYAT",1737436,12,https://kys.udiseplus.gov.in/#/reportcard/1737436/12,https://kys.udiseplus.gov.in/#/reportcard/1737436/12,https://kys.udiseplus.gov.in/api/school/report-card?schoolId=1737436&yearId=10,RAJASTHAN,BIKANER,28.0159286,73.3171367
"JAWAHAR NAVODAYA VIDYALAYA HANUMANGARH, RAWATSAR",1787162,12,https://kys.udiseplus.gov.in/#/reportcard/1787162/12,https://kys.udiseplus.gov.in/#/reportcard/1787162/12,https://kys.udiseplus.gov.in/api/school/report-card?schoolId=1787162&yearId=10,RAJASTHAN,HANUMANGARH,29.3659533,74.2984290
"JAWAHAR NAVODAYA VIDYALAYA BHARATPUR, BHUSAWAR",1785052,12,https://kys.udiseplus.gov.in/#/reportcard/1785052/12,https://kys.udiseplus.gov.in/#/reportcard/1785052/12,https://kys.udiseplus.gov.in/api/school/report-card?schoolId=1785052&yearId=10,RAJASTHAN,BHARATPUR,27.0246959,77.2920116
"JAWAHAR NAVODAYA VIDYALAYA JHUNJHUNU, SURAJGARH",1703687,12,https://kys.udiseplus.gov.in/#/reportcard/1703687/12,https://kys.udiseplus.gov.in/#/reportcard/1703687/12,https://kys.udiseplus.gov.in/api/school/report-card?schoolId=1703687&yearId=10,RAJASTHAN,JHUNJHUNU,28.0810679,75.3792478
"JAWAHAR NAVODAYA VIDYALAYA GANGAPUR CITY(SAWAI MADHOPUR), GANGAPUR CITY",1773883,12,https://kys.udiseplus.gov.in/#/reportcard/1773883/12,https://kys.udiseplus.gov.in/#/reportcard/1773883/12,https://kys.udiseplus.gov.in/api/school/report-card?schoolId=1773883&yearId=10,RAJASTHAN,SAWAI MADHOPUR,26.1137182,76.4240637
"JAWAHAR NAVODAYA VIDYALAYA NORTH WEST DELHI, KANDWALA",1600189,12,https://kys.udiseplus.gov.in/#/reportcard/1600189/12,https://kys.udiseplus.gov.in/#/reportcard/1600189/12,https://kys.udiseplus.gov.in/api/school/report-card?schoolId=1600189&yearId=10,DELHI,NORTH WEST A,28.5608456,77.2190563
JAWAHAR NAVODAYA VIDYALAYA EAST DELHI,5900006,12,https://kys.udiseplus.gov.in/#/reportcard/5900006/12,https://kys.udiseplus.gov.in/#/reportcard/5900006/12,https://kys.udiseplus.gov.in/api/school/report-card?schoolId=5900006&yearId=10,,,33.0052705,-79.9870330
"JAWAHAR NAVODAYA VIDYALAYA NARELA, NORTH DELHI",5900005,12,https://kys.udiseplus.gov.in/#/reportcard/5900005/12,https://kys.udiseplus.gov.in/#/reportcard/5900005/12,https://kys.udiseplus.gov.in/api/school/report-card?schoolId=5900005&yearId=10,,,33.0052705,-79.9870330
"JAWAHAR NAVODAYA VIDYALAYA SRI GANGANAGAR, SRIGANGANAGAR",1807292,12,https://kys.udiseplus.gov.in/#/reportcard/1807292/12,https://kys.udiseplus.gov.in/#/reportcard/1807292/12,https://kys.udiseplus.gov.in/api/school/report-card?schoolId=1807292&yearId=10,RAJASTHAN,GANGANAGAR,29.9049489,73.8792934
"JAWAHAR NAVODAYA VIDYALAYA SRI GANGANAGAR, SURATGARH",1745020,12,https://kys.udiseplus.gov.in/#/reportcard/1745020/12,https://kys.udiseplus.gov.in/#/reportcard/1745020/12,https://kys.udiseplus.gov.in/api/school/report-card?schoolId=1745020&yearId=10,RAJASTHAN,GANGANAGAR,29.9049489,73.8792934
JAWAHAR NAVODAYA VIDYALAYA SHAHDARA,5900004,12,https://kys.udiseplus.gov.in/#/reportcard/5900004/12,https://kys.udiseplus.gov.in/#/reportcard/5900004/12,https://kys.udiseplus.gov.in/api/school/report-card?schoolId=5900004&yearId=10,,,33.0052705,-79.9870330
"JAWAHAR NAVODAYA VIDYALAYA SOUTH WEST DELHI, NAJAFGARH",1604239,12,https://kys.udiseplus.gov.in/#/reportcard/1604239/12,https://kys.udiseplus.gov.in/#/reportcard/1604239/12,https://kys.udiseplus.gov.in/api/school/report-card?schoolId=1604239&yearId=10,DELHI,SOUTH WEST B-I,,
"JAWAHAR NAVODAYA VIDYALAYA ROHTAK, ROHTAK",1509729,12,https://kys.udiseplus.gov.in/#/reportcard/1509729/12,https://kys.udiseplus.gov.in/#/reportcard/1509729/12,https://kys.udiseplus.gov.in/api/school/report-card?schoolId=1509729&yearId=10,HARYANA,ROHTAK,28.9010899,76.5801935
"JAWAHAR NAVODAYA VIDYALAYA LUDHIANA, MANGAT - 3",1207635,12,https://kys.udiseplus.gov.in/#/reportcard/1207635/12,https://kys.udiseplus.gov.in/#/reportcard/1207635/12,https://kys.udiseplus.gov.in/api/school/report-card?schoolId=1207635&yearId=10,PUNJAB,LUDHIANA,30.9090157,75.8516010
"JAWAHAR NAVODAYA VIDYALAYA HOSHIARPUR, HOSHIARPUR 2A",1210215,12,https://kys.udiseplus.gov.in/#/reportcard/1210215/12,https://kys.udiseplus.gov.in/#/reportcard/1210215/12,https://kys.udiseplus.gov.in/api/school/report-card?schoolId=1210215&yearId=10,PUNJAB,HOSHIARPUR,31.6092942,75.8459754
"JAWAHAR NAVODAYA VIDYALAYA KAPURTHALA, SULTANPUR LODHI",1222872,12,https://kys.udiseplus.gov.in/#/reportcard/1222872/12,https://kys.udiseplus.gov.in/#/reportcard/1222872/12,https://kys.udiseplus.gov.in/api/school/report-card?schoolId=1222872&yearId=10,PUNJAB,KAPURTHALA,31.3856476,75.3053304
"JAWAHAR NAVODAYA VIDYALAYA KAITHAL, KAITHAL",1514804,12,https://kys.udiseplus.gov.in/#/reportcard/1514804/12,https://kys.udiseplus.gov.in/#/reportcard/1514804/12,https://kys.udiseplus.gov.in/api/school/report-card?schoolId=1514804&yearId=10,HARYANA,KAITHAL,29.7996588,76.3989903
"JAWAHAR NAVODAYA VIDYALAYA KURUKSHETRA, LADWA",1511409,12,https://kys.udiseplus.gov.in/#/reportcard/1511409/12,https://kys.udiseplus.gov.in/#/reportcard/1511409/12,https://kys.udiseplus.gov.in/api/school/report-card?schoolId=1511409&yearId=10,HARYANA,KURUKSHETRA,29.9693747,76.8482787
"JAWAHAR NAVODAYA VIDYALAYA AMBALA, AMBALA",1506272,12,https://kys.udiseplus.gov.in/#/reportcard/1506272/12,https://kys.udiseplus.gov.in/#/reportcard/1506272/12,https://kys.udiseplus.gov.in/api/school/report-card?schoolId=1506272&yearId=10,HARYANA,AMBALA,30.3843674,76.7704210
"JAWAHAR NAVODAYA VIDYALAYA HARIDWAR, ROSHNABAD",1405487,12,https://kys.udiseplus.gov.in/#/reportcard/1405487/12,https://kys.udiseplus.gov.in/#/reportcard/1405487/12,https://kys.udiseplus.gov.in/api/school/report-card?schoolId=1405487&yearId=10,UTTARAKHAND,HARDWAR,29.9384473,78.1452985
"JAWAHAR NAVODAYA VIDYALAYA NAINITAL, SUYALBARI",1410626,12,https://kys.udiseplus.gov.in/#/reportcard/1410626/12,https://kys.udiseplus.gov.in/#/reportcard/1410626/12,https://kys.udiseplus.gov.in/api/school/report-card?schoolId=1410626&yearId=10,UTTARAKHAND,NAINITAL,29.3905295,79.4608690
"JAWAHAR NAVODAYA VIDYALAYA KARNAL, NEELOKHEDI",1511588,12,https://kys.udiseplus.gov.in/#/reportcard/1511588/12,https://kys.udiseplus.gov.in/#/reportcard/1511588/12,https://kys.udiseplus.gov.in/api/school/report-card?schoolId=1511588&yearId=10,HARYANA,KARNAL,29.7255766,76.9106924
"JAWAHAR NAVODAYA VIDYALAYA KARAULI, HINDAUN CITY",1777665,12,https://kys.udiseplus.gov.in/#/reportcard/1777665/12,https://kys.udiseplus.gov.in/#/reportcard/1777665/12,https://kys.udiseplus.gov.in/api/school/report-card?schoolId=1777665&yearId=10,RAJASTHAN,KARAULI,26.4530971,77.0160461
"JAWAHAR NAVODAYA VIDYALAYA PAURI GARHWAL, SATPULI",1423355,12,https://kys.udiseplus.gov.in/#/reportcard/1423355/12,https://kys.udiseplus.gov.in/#/reportcard/1423355/12,https://kys.udiseplus.gov.in/api/school/report-card?schoolId=1423355&yearId=10,UTTARAKHAND,PAURI,30.0652314,78.7315716
"JAWAHAR NAVODAYA VIDYALAYA U S NAGAR, RUDRAPUR",1409652,12,https://kys.udiseplus.gov.in/#/reportcard/1409652/12,https://kys.udiseplus.gov.in/#/reportcard/1409652/12,https://kys.udiseplus.gov.in/api/school/report-card?schoolId=1409652&yearId=10,UTTARAKHAND,UDHAM SINGH NAGAR,29.0478313,79.4326164
"JAWAHAR NAVODAYA VIDYALAYA BAGESHWAR, SHIMAR",1415910,12,https://kys.udiseplus.gov.in/#/reportcard/1415910/12,https://kys.udiseplus.gov.in/#/reportcard/1415910/12,https://kys.udiseplus.gov.in/api/school/report-card?schoolId=1415910&yearId=10,UTTARAKHAND,BAGESHWAR,30.0087902,79.9280183
"JAWAHAR NAVODAYA VIDYALAYA CHAMPAWAT, CHAMPAWAT",1401951,12,https://kys.udiseplus.gov.in/#/reportcard/1401951/12,https://kys.udiseplus.gov.in/#/reportcard/1401951/12,https://kys.udiseplus.gov.in/api/school/report-card?schoolId=1401951&yearId=10,UTTARAKHAND,CHAMPAWAT,29.2350320,80.1023068
"JAWAHAR NAVODAYA VIDYALAYA ALMORA, TARIKHET",1401063,12,https://kys.udiseplus.gov.in/#/reportcard/1401063/12,https://kys.udiseplus.gov.in/#/reportcard/1401063/12,https://kys.udiseplus.gov.in/api/school/report-card?schoolId=1401063&yearId=10,UTTARAKHAND,ALMORA,29.7026509,79.4326318
"JAWAHAR NAVODAYA VIDYALAYA GURDASPUR, DORANGLA ",1232204,12,https://kys.udiseplus.gov.in/#/reportcard/1232204/12,https://kys.udiseplus.gov.in/#/reportcard/1232204/12,https://kys.udiseplus.gov.in/api/school/report-card?schoolId=1232204&yearId=10,PUNJAB,GURDASPUR,31.9037264,75.2275587
"JAWAHAR NAVODAYA VIDYALAYA SIRMAUR, NAHAN",1107967,12,https://kys.udiseplus.gov.in/#/reportcard/1107967/12,https://kys.udiseplus.gov.in/#/reportcard/1107967/12,https://kys.udiseplus.gov.in/api/school/report-card?schoolId=1107967&yearId=10,HIMACHAL PRADESH,SIRMAUR,30.6991321,77.4465304
"JAWAHAR NAVODAYA VIDYALAYA AMRITSAR, CHOGAWAN",1221024,12,https://kys.udiseplus.gov.in/#/reportcard/1221024/12,https://kys.udiseplus.gov.in/#/reportcard/1221024/12,https://kys.udiseplus.gov.in/api/school/report-card?schoolId=1221024&yearId=10,PUNJAB,AMRITSAR,31.6356659,74.8787496
"JAWAHAR NAVODAYA VIDYALAYA AMRITSAR, AJNALA",1208523,12,https://kys.udiseplus.gov.in/#/reportcard/1208523/12,https://kys.udiseplus.gov.in/#/reportcard/1208523/12,https://kys.udiseplus.gov.in/api/school/report-card?schoolId=1208523&yearId=10,PUNJAB,AMRITSAR,31.6356659,74.8787496
"JAWAHAR NAVODAYA VIDYALAYA KINNAUR, KALPA",1109012,12,https://kys.udiseplus.gov.in/#/reportcard/1109012/12,https://kys.udiseplus.gov.in/#/reportcard/1109012/12,https://kys.udiseplus.gov.in/api/school/report-card?schoolId=1109012&yearId=10,HIMACHAL PRADESH,KINNAUR,31.5930130,78.3281417
"JAWAHAR NAVODAYA VIDYALAYA FATEHGARH SAHIB, KHAMANO",1221735,12,https://kys.udiseplus.gov.in/#/reportcard/1221735/12,https://kys.udiseplus.gov.in/#/reportcard/1221735/12,https://kys.udiseplus.gov.in/api/school/report-card?schoolId=1221735&yearId=10,PUNJAB,FATEHGARH SAHIB,30.6634041,76.3803000
"JAWAHAR NAVODAYA VIDYALAYA JALANDHAR, SHAHKOT",1201689,12,https://kys.udiseplus.gov.in/#/reportcard/1201689/12,https://kys.udiseplus.gov.in/#/reportcard/1201689/12,https://kys.udiseplus.gov.in/api/school/report-card?schoolId=1201689&yearId=10,PUNJAB,JALANDHAR,31.2922312,75.5678878
"JAWAHAR NAVODAYA VIDYALAYA SHIMLA, THEOG",1117205,12,https://kys.udiseplus.gov.in/#/reportcard/1117205/12,https://kys.udiseplus.gov.in/#/reportcard/1117205/12,https://kys.udiseplus.gov.in/api/school/report-card?schoolId=1117205&yearId=10,HIMACHAL PRADESH,SHIMLA,31.1041526,77.1709729
"JAWAHAR NAVODAYA VIDYALAYA SOLAN, ARKI",1100352,12,https://kys.udiseplus.gov.in/#/reportcard/1100352/12,https://kys.udiseplus.gov.in/#/reportcard/1100352/12,https://kys.udiseplus.gov.in/api/school/report-card?schoolId=1100352&yearId=10,HIMACHAL PRADESH,SOLAN,30.9077569,77.1023645
"JAWAHAR NAVODAYA VIDYALAYA BILASPUR, SADAR",1111796,12,https://kys.udiseplus.gov.in/#/reportcard/1111796/12,https://kys.udiseplus.gov.in/#/reportcard/1111796/12,https://kys.udiseplus.gov.in/api/school/report-card?schoolId=1111796&yearId=10,HIMACHAL PRADESH,BILASPUR (H.P.),,
"JAWAHAR NAVODAYA VIDYALAYA KULLU, KULLU-II",1104330,12,https://kys.udiseplus.gov.in/#/reportcard/1104330/12,https://kys.udiseplus.gov.in/#/reportcard/1104330/12,https://kys.udiseplus.gov.in/api/school/report-card?schoolId=1104330&yearId=10,HIMACHAL PRADESH,KULLU,31.9578974,77.1089232
"JAWAHAR NAVODAYA VIDYALAYA SHOPIAN, IMMAMSHAIB",1022641,12,https://kys.udiseplus.gov.in/#/reportcard/1022641/12,https://kys.udiseplus.gov.in/#/reportcard/1022641/12,https://kys.udiseplus.gov.in/api/school/report-card?schoolId=1022641&yearId=10,JAMMU & KASHMIR,SHOPIAN,33.7207837,74.7714244
"JAWAHAR NAVODAYA VIDYALAYA JAMMU, BHALWAL",1019146,12,https://kys.udiseplus.gov.in/#/reportcard/1019146/12,https://kys.udiseplus.gov.in/#/reportcard/1019146/12,https://kys.udiseplus.gov.in/api/school/report-card?schoolId=1019146&yearId=10,JAMMU & KASHMIR,JAMMU,32.7185614,74.8580917
"JAWAHAR NAVODAYA VIDYALAYA RAJOURI, KOTRANKA",1017740,12,https://kys.udiseplus.gov.in/#/reportcard/1017740/12,https://kys.udiseplus.gov.in/#/reportcard/1017740/12,https://kys.udiseplus.gov.in/api/school/report-card?schoolId=1017740&yearId=10,JAMMU & KASHMIR,RAJAURI,33.3772495,74.3132332
"JAWAHAR NAVODAYA VIDYALAYA JAMMU, AKHNOOR",1018979,12,https://kys.udiseplus.gov.in/#/reportcard/1018979/12,https://kys.udiseplus.gov.in/#/reportcard/1018979/12,https://kys.udiseplus.gov.in/api/school/report-card?schoolId=1018979&yearId=10,JAMMU & KASHMIR,JAMMU,32.7185614,74.8580917
"JAWAHAR NAVODAYA VIDYALAYA POONCH, SURANKOTE ",1016696,12,https://kys.udiseplus.gov.in/#/reportcard/1016696/12,https://kys.udiseplus.gov.in/#/reportcard/1016696/12,https://kys.udiseplus.gov.in/api/school/report-card?schoolId=1016696&yearId=10,JAMMU & KASHMIR,PUNCH,33.7670004,74.0957143
"JAWAHAR NAVODAYA VIDYALAYA UNA, UNA",1111650,12,https://kys.udiseplus.gov.in/#/reportcard/1111650/12,https://kys.udiseplus.gov.in/#/reportcard/1111650/12,https://kys.udiseplus.gov.in/api/school/report-card?schoolId=1111650&yearId=10,HIMACHAL PRADESH,UNA,31.5834642,76.2351452
"JAWAHAR NAVODAYA VIDYALAYA HAMIRPUR, BHORANJ",1111161,12,https://kys.udiseplus.gov.in/#/reportcard/1111161/12,https://kys.udiseplus.gov.in/#/reportcard/1111161/12,https://kys.udiseplus.gov.in/api/school/report-card?schoolId=1111161&yearId=10,HIMACHAL PRADESH,HAMIRPUR (H.P.),,
"JAWAHAR NAVODAYA VIDYALAYA UDHAMPUR, JIB",1000136,12,https://kys.udiseplus.gov.in/#/reportcard/1000136/12,https://kys.udiseplus.gov.in/#/reportcard/1000136/12,https://kys.udiseplus.gov.in/api/school/report-card?schoolId=1000136&yearId=10,JAMMU & KASHMIR,UDHAMPUR,32.9219726,75.1331482
"JAWAHAR NAVODAYA VIDYALAYA PULWAMA, PULWAMA",1030125,12,https://kys.udiseplus.gov.in/#/reportcard/1030125/12,https://kys.udiseplus.gov.in/#/reportcard/1030125/12,https://kys.udiseplus.gov.in/api/school/report-card?schoolId=1030125&yearId=10,JAMMU & KASHMIR,PULWAMA,33.9490472,75.0418335
"JAWAHAR NAVODAYA VIDYALAYA BUDGAM, BUDGAM",1006434,12,https://kys.udiseplus.gov.in/#/reportcard/1006434/12,https://kys.udiseplus.gov.in/#/reportcard/1006434/12,https://kys.udiseplus.gov.in/api/school/report-card?schoolId=1006434&yearId=10,JAMMU & KASHMIR,BADGAM,34.0385248,74.7360163
"JAWAHAR NAVODAYA VIDYALAYA MANDI, SADAR",1113802,12,https://kys.udiseplus.gov.in/#/reportcard/1113802/12,https://kys.udiseplus.gov.in/#/reportcard/1113802/12,https://kys.udiseplus.gov.in/api/school/report-card?schoolId=1113802&yearId=10,HIMACHAL PRADESH,MANDI,31.6516617,77.0092542
"JAWAHAR NAVODAYA VIDYALAYA LAHAUL & SPITI, KAZA",1103983,12,https://kys.udiseplus.gov.in/#/reportcard/1103983/12,https://kys.udiseplus.gov.in/#/reportcard/1103983/12,https://kys.udiseplus.gov.in/api/school/report-card?schoolId=1103983&yearId=10,HIMACHAL PRADESH,LAHUL & SPITI,16.5104893,80.6228972
"JAWAHAR NAVODAYA VIDYALAYA GANDERBAL, GANDERBAL",1026150,12,https://kys.udiseplus.gov.in/#/reportcard/1026150/12,https://kys.udiseplus.gov.in/#/reportcard/1026150/12,https://kys.udiseplus.gov.in/api/school/report-card?schoolId=1026150&yearId=10,JAMMU & KASHMIR,GANDERBAL,34.2889322,75.0407983
"JAWAHAR NAVODAYA VIDYALAYA KANGRA, BAIJNATH",1100646,12,https://kys.udiseplus.gov.in/#/reportcard/1100646/12,https://kys.udiseplus.gov.in/#/reportcard/1100646/12,https://kys.udiseplus.gov.in/api/school/report-card?schoolId=1100646&yearId=10,HIMACHAL PRADESH,KANGRA,32.0768665,76.2985872
"JAWAHAR NAVODAYA VIDYALAYA BANDIPORA, BANDIPORA",1030333,12,https://kys.udiseplus.gov.in/#/reportcard/1030333/12,https://kys.udiseplus.gov.in/#/reportcard/1030333/12,https://kys.udiseplus.gov.in/api/school/report-card?schoolId=1030333&yearId=10,JAMMU & KASHMIR,BANDIPORA,34.4232433,74.6359650
"JAWAHAR NAVODAYA VIDYALAYA CHAMBA, KIANI",1109798,12,https://kys.udiseplus.gov.in/#/reportcard/1109798/12,https://kys.udiseplus.gov.in/#/reportcard/1109798/12,https://kys.udiseplus.gov.in/api/school/report-card?schoolId=1109798&yearId=10,HIMACHAL PRADESH,CHAMBA,32.6923316,76.1631552
"JAWAHAR NAVODAYA VIDYALAYA KISHTWAR, PALMAR",1024614,12,https://kys.udiseplus.gov.in/#/reportcard/1024614/12,https://kys.udiseplus.gov.in/#/reportcard/1024614/12,https://kys.udiseplus.gov.in/api/school/report-card?schoolId=1024614&yearId=10,JAMMU & KASHMIR,KISHTWAR,33.3107908,75.7694213
"JAWAHAR NAVODAYA VIDYALAYA BARAMULLA, BONIYAR",1003217,12,https://kys.udiseplus.gov.in/#/reportcard/1003217/12,https://kys.udiseplus.gov.in/#/reportcard/1003217/12,https://kys.udiseplus.gov.in/api/school/report-card?schoolId=1003217&yearId=10,JAMMU & KASHMIR,BARAMULA,34.2086903,74.3434980
"JAWAHAR NAVODAYA VIDYALAYA ANANTNAG, AISHMUQAM",1009256,12,https://kys.udiseplus.gov.in/#/reportcard/1009256/12,https://kys.udiseplus.gov.in/#/reportcard/1009256/12,https://kys.udiseplus.gov.in/api/school/report-card?schoolId=1009256&yearId=10,JAMMU & KASHMIR,ANANTNAG,33.7461100,75.1854475
"JAWAHAR NAVODAYA VIDYALAYA REASI, KATRA",1028896,12,https://kys.udiseplus.gov.in/#/reportcard/1028896/12,https://kys.udiseplus.gov.in/#/reportcard/1028896/12,https://kys.udiseplus.gov.in/api/school/report-card?schoolId=1028896&yearId=10,JAMMU & KASHMIR,REASI,33.0691032,74.8378698
"JAWAHAR NAVODAYA VIDYALAYA RAMBAN, BATOTE",1029960,12,https://kys.udiseplus.gov.in/#/reportcard/1029960/12,https://kys.udiseplus.gov.in/#/reportcard/1029960/12,https://kys.udiseplus.gov.in/api/school/report-card?schoolId=1029960&yearId=10,JAMMU & KASHMIR,RAMBAN,33.2116371,75.2050989
"JAWAHAR NAVODAYA VIDYALAYA SAMBA, VIJAYPUR",1029644,12,https://kys.udiseplus.gov.in/#/reportcard/1029644/12,https://kys.udiseplus.gov.in/#/reportcard/1029644/12,https://kys.udiseplus.gov.in/api/school/report-card?schoolId=1029644&yearId=10,JAMMU & KASHMIR,SAMBA,32.5759118,75.1203446
"JAWAHAR NAVODAYA VIDYALAYA KULGAM, KULGAM",1027354,12,https://kys.udiseplus.gov.in/#/reportcard/1027354/12,https://kys.udiseplus.gov.in/#/reportcard/1027354/12,https://kys.udiseplus.gov.in/api/school/report-card?schoolId=1027354&yearId=10,JAMMU & KASHMIR,KULGAM,33.6446899,75.0188432
"JAWAHAR NAVODAYA VIDYALAYA KATHUA, BASOHLI",1022250,12,https://kys.udiseplus.gov.in/#/reportcard/1022250/12,https://kys.udiseplus.gov.in/#/reportcard/1022250/12,https://kys.udiseplus.gov.in/api/school/report-card?schoolId=1022250&yearId=10,JAMMU & KASHMIR,KATHUA,32.3765524,75.5243044
"JAWAHAR NAVODAYA VIDYALAYA DODA, GHAT",1012107,12,https://kys.udiseplus.gov.in/#/reportcard/1012107/12,https://kys.udiseplus.gov.in/#/reportcard/1012107/12,https://kys.udiseplus.gov.in/api/school/report-card?schoolId=1012107&yearId=10,JAMMU & KASHMIR,DODA,33.1774307,75.5675228
"JAWAHAR NAVODAYA VIDYALAYA KUPWARA, SOGAM",1001994,12,https://kys.udiseplus.gov.in/#/reportcard/1001994/12,https://kys.udiseplus.gov.in/#/reportcard/1001994/12,https://kys.udiseplus.gov.in/api/school/report-card?schoolId=1001994&yearId=10,JAMMU & KASHMIR,KUPWARA,34.5140696,74.1913670
